school_name,url_address,address,postal_code,telephone_no,telephone_no_2,fax_no,fax_no_2,email_address,mrt_desc,bus_desc,principal_name,first_vp_name,second_vp_name,third_vp_name,fourth_vp_name,fifth_vp_name,sixth_vp_name,dgp_code,zone_code,type_code,nature_code,session_code,mainlevel_code,sap_ind,autonomous_ind,gifted_ind,ip_ind,mothertongue1_code,mothertongue2_code,mothertongue3_code
ADMIRALTY PRIMARY SCHOOL,https://admiraltypri.moe.edu.sg/,11 WOODLANDS CIRCLE   ,738907,63620598,na,63627512,na,ADMIRALTY_PS@MOE.EDU.SG,Admiralty Station,"TIBS 965, 964, 913",MR CHEN ZHONGYI,MADAM CHUA MUI LING,MR HAMRI BIN A JALIL,na,na,na,na,WOODLANDS,NORTH,GOVERNMENT SCHOOL,CO-ED SCHOOL,FULL DAY,PRIMARY,No,No,No,No,CHINESE,MALAY,TAMIL
ADMIRALTY SECONDARY SCHOOL,http://www.admiraltysec.moe.edu.sg,31 WOODLANDS CRESCENT   ,737916,63651733,63654596,63652774,na,Admiralty_SS@moe.edu.sg,ADMIRALTY MRT,904,MR TAN KELLY,MR CHAN YEW REN EUGENE,MR TAN HOCK CHUAN MICHAEL,na,na,na,na,WOODLANDS,NORTH,GOVERNMENT SCHOOL,CO-ED SCHOOL,SINGLE SESSION,SECONDARY (S1-S5),No,No,No,No,CHINESE,MALAY,TAMIL
AHMAD IBRAHIM PRIMARY SCHOOL,http://www.ahmadibrahimpri.moe.edu.sg,10 YISHUN STREET 11   ,768643,67592906,na,67592927,na,AIPS@MOE.EDU.SG,Yishun,"Yishun Ring Road - 812 (white plate); Yishun Ave 2 - 169, 804, 965, 117, 883",MS BAEY EE-LYN,MADAM YEO SIAU YEN,MADAM ZHANG JUNLI,na,na,na,na,YISHUN,NORTH,GOVERNMENT SCHOOL,CO-ED SCHOOL,SINGLE SESSION,PRIMARY,No,No,No,No,CHINESE,MALAY,TAMIL
AHMAD IBRAHIM SECONDARY SCHOOL,http://www.ahmadibrahimsec.moe.edu.sg,751 YISHUN AVENUE 7   ,768928,67585384,na,67557778,na,AISS@MOE.EDU.SG,"CANBERRA MRT, YISHUN MRT","117, 167, 169, 800, 811, 812, 883, 856, 858, 859, 965, 969, 980",MR GOH SOON HOE,MISS LEA SHU HUI,MR QUEK CHOON HSIONG,MISS LATIFAH BTE ABDUL LATIFF,na,na,na,YISHUN,NORTH,GOVERNMENT SCHOOL,CO-ED SCHOOL,SINGLE SESSION,SECONDARY (S1-S5),No,No,No,No,CHINESE,MALAY,TAMIL
AI TONG SCHOOL,http://www.aitong.moe.edu.sg,100 Bright Hill Drive   ,579646,64547672,na,64532726,na,AITONG_SCH@MOE.EDU.SG,Bishan MRT,"410, 162, 52",MR WONG JIA WANG,MR YAK BENG WEI,MR CHIU SHEK MAN PHILIP,MR KHOO THIAM HUAT,na,na,na,BISHAN,SOUTH,GOVERNMENT-AIDED SCH,CO-ED SCHOOL,SINGLE SESSION,PRIMARY,Yes,No,No,No,CHINESE,na,na
ALEXANDRA PRIMARY SCHOOL,http://alexandrapri.moe.edu.sg,2A Prince Charles Crescent   ,159016,62485400,na,62485409,na,alexandra_ps@moe.edu.sg,Redhill Station; Tiong Bahru Station,"51, 122, 139, 186, 970.",MADAM TEO CHING LING,MADAM RAPS AZRINAH,MR LOH KAH HONG,na,na,na,na,BUKIT MERAH,SOUTH,GOVERNMENT SCHOOL,CO-ED SCHOOL,SINGLE SESSION,PRIMARY,No,No,No,No,CHINESE,MALAY,TAMIL
ANCHOR GREEN PRIMARY SCHOOL,http://www.anchorgreenpri.moe.edu.sg,31 Anchorvale Drive   ,544969,68861356,na,63159825,na,anchorgreen_ps@moe.edu.sg,MRT : NE16-Sengkang; LRT : SW7-TongKang,"Bus 372, 110, 50",MR CHEONG LIT SERN WESLEY,MDM MUMTAAS BINTE MOHAMED KASSIM,MADAM NEO LAY PIN,na,na,na,na,SENG KANG,NORTH,GOVERNMENT SCHOOL,CO-ED SCHOOL,SINGLE SESSION,PRIMARY,No,No,No,No,CHINESE,MALAY,TAMIL
ANDERSON PRIMARY SCHOOL,http://www.andersonpri.moe.edu.sg,19 ANG MO KIO AVE 9   ,569785,64560340,na,65522310,na,ANDERSON_PS@MOE.EDU.SG,Yio Chu Kang MRT Station (NS 15); Lentor MRT Station (TE5),"Ang Mo Kio Ave 9 - Bus 76, 265, 268",MS SHIRLEY LEOW,MR BOH CHEK KEOW,MADAM TAN AI CHOO,na,na,na,na,ANG MO KIO,NORTH,GOVERNMENT SCHOOL,CO-ED SCHOOL,SINGLE SESSION,PRIMARY,No,No,No,No,CHINESE,MALAY,TAMIL
ANDERSON SECONDARY SCHOOL,http://www.andersonsec.moe.edu.sg,10 ANG MO KIO STREET 53   ,569206,64598303,na,64586104,na,ANDERSON_SS@MOE.EDU.SG,"ANG MO KIO MRT, YIO CHU KANG MRT","265, 45, 50, 72, 159",MISS TAN PO CHIN,MR JONAH LIM TUCK HWAY (LIN DAHUI),MR LEE CHUN YANG EUGENE,MR SHAHREEN BIN AMAN,na,na,na,ANG MO KIO,NORTH,GOVERNMENT SCHOOL,CO-ED SCHOOL,SINGLE SESSION,SECONDARY (S1-S5),No,Yes,No,No,CHINESE,MALAY,TAMIL
ANDERSON SERANGOON JUNIOR COLLEGE,www.asrjc.moe.edu.sg,1033 Upper Serangoon Road   ,534768,64596822,na,64598734,na,asrjc@moe.edu.sg,Kovan MRT Station,"25, 55, 62, 80, 81, 82, 101, 107, 107M, 112, 113, 115, 119, 132, 136, 153, 325, 854",MR HENG YEW SENG,MR GURUSHARAN SINGH S/O M SINGH,MADAM TEY LI SHUN,MR MOHAMAD AMRAN SHAH BIN ABDUL RAHIM,na,na,na,HOUGANG,NORTH,GOVERNMENT SCHOOL,CO-ED SCHOOL,FULL DAY,JUNIOR COLLEGE,No,No,No,No,CHINESE,MALAY,TAMIL
ANG MO KIO PRIMARY SCHOOL,http://www.angmokiopri.moe.edu.sg,20 ANG MO KIO AVENUE 3   ,569920,64520794,na,64588121,na,AMKPS@MOE.EDU.SG,Ang Mo Kio MRT Station; Mayflower MRT Station,"76, 132, 165, 166, 169, 265, 268, 269",MR MUHAMMAD FARIZAL BIN UMAR EFFE,MADAM TAN SIEW KHIM (CHEN XIUQIN),MISS CHEN YANTING NATHALIE,MADAM LIEW KAH CHANG ALETHEA,na,na,na,ANG MO KIO,SOUTH,GOVERNMENT SCHOOL,CO-ED SCHOOL,SINGLE SESSION,PRIMARY,No,No,No,No,CHINESE,MALAY,TAMIL
ANG MO KIO SECONDARY SCHOOL,http://www.angmokiosec.moe.edu.sg,6 ANG MO KIO STREET 22   ,569362,64548605,na,64582425,na,AMKSS@MOE.EDU.SG,ANG MO KIO MRT,"13, 74, 76, 88, 130, 132, 133, 136, 165, 169, 265, 268, 269, 851, 852",MR ASHRAF HYDER YUSOFF MANIAM,MR CHAN WENG ONN MARTIN,MADAM LEE KEE CHIN,na,na,na,na,ANG MO KIO,SOUTH,GOVERNMENT SCHOOL,CO-ED SCHOOL,SINGLE SESSION,SECONDARY (S1-S5),No,No,No,No,CHINESE,MALAY,TAMIL
ANGLICAN HIGH SCHOOL,http://www.anglicanhigh.moe.edu.sg,600 UPPER CHANGI ROAD   ,487012,62414866,na,64414690,na,AHS@MOE.EDU.SG,TANAH MERAH MRT,"2, 9, 12, 14, 24, 31, 35, 38, 45, 46, 47, 48, 222",MR LIM HOCK CHUAN ALVIN,MR CHIN LIH KEONG,MISS WONG HSIEN HUI,MR SEAH THIAM SIONG,na,na,na,BEDOK,EAST,GOVERNMENT-AIDED SCH,CO-ED SCHOOL,SINGLE SESSION,SECONDARY (S1-S4),Yes,Yes,No,No,CHINESE,na,na
ANGLO-CHINESE JUNIOR COLLEGE,https://acjc.moe.edu.sg,25 DOVER CLOSE EAST   ,139745,67750511,na,67775479,na,ACJC@MOE.EDU.SG,Buona Vista,"74,95,100,105,106,111,145,147,191,196,198,602",DR. CHEE YAN HOON SHIRLEEN,MR ANG YUAN PENG,MISS AUDREY LIM,MS QUEK SI MIN,MADAM LIM SING THOE,na,na,QUEENSTOWN,WEST,GOVERNMENT-AIDED SCH,CO-ED SCHOOL,FULL DAY,JUNIOR COLLEGE,No,No,No,No,CHINESE,MALAY,TAMIL
ANGLO-CHINESE SCHOOL (BARKER ROAD),http://www.acsbr.moe.edu.sg,60 BARKER ROAD   ,309919,62561633,na,62561366,na,ACBRS@MOE.EDU.SG,"NEWTON MRT, STEVENS MRT","48, 66, 67, 170, 960, 972",MR KHOO TSE HORNG,MR TAN WHYE WEE JEFFREY,MR CHEN HONG MING,MADAM MARIE LOH MEI LING,na,na,na,NOVENA,SOUTH,GOVERNMENT-AIDED SCH,BOYS' SCHOOL,SINGLE SESSION,SECONDARY (S1-S5),No,No,No,No,CHINESE,MALAY,TAMIL
ANGLO-CHINESE SCHOOL (INDEPENDENT),http://www.acsindep.moe.edu.sg,121 DOVER ROAD   ,139650,67731633,na,67731433,na,ACIS@MOE.EDU.SG,"DOVER MRT, BUONA VISTA MRT, ONE-NORTH MRT","33, 74, 166, 196",MR KOH SUNG- YI ARENE,MR CHIEW TECK TZER TERENCE,MR SOO MUN KEONG PATRICK,MRS TEO LAI CHENG JUDY-HO,DR YONG YUN LEONG ANDREW,MS ALICE TAN SHIH SHIN,na,QUEENSTOWN,SOUTH,INDEPENDENT SCHOOL,CO-ED SCHOOL,SINGLE SESSION,MIXED LEVEL (S1-JC2),No,No,Yes,Yes,CHINESE,MALAY,TAMIL
ANGLO-CHINESE SCHOOL (JUNIOR),www.acsj.moe.edu.sg,16 WINSTEDT ROAD   ,227988,67337911,67337912,67346518,na,ACJS@MOE.EDU.SG,Newton MRT Station,"5, 54, 124, 143, 162, 162M, 167, 167e, 518, 518A, 972M",MISS CHEE CHUERN HWEI CHERYL,MADAM ANG CHAI TING,MR GOH SHEOW EN,MR AARON CHUA BEE HOCK,na,na,na,CENTRAL,SOUTH,GOVERNMENT-AIDED SCH,BOYS' SCHOOL,SINGLE SESSION,PRIMARY,No,No,No,No,CHINESE,MALAY,TAMIL
ANGLO-CHINESE SCHOOL (PRIMARY),http://www.acspri.moe.edu.sg/,50 BARKER ROAD   ,309918,62501633,na,63531366,na,ACPS@MOE.EDU.SG,Newton MRT Station,"Bus 48, 66, 67, 170, 960, 972M",MRS LEONG-HO HIL MAY,MR CHUA THIAN KEONG,MADAM TEH HSIAO CHUIN,MADAM SEOW LAY YEN,na,na,na,NOVENA,SOUTH,GOVERNMENT-AIDED SCH,BOYS' SCHOOL,SINGLE SESSION,PRIMARY,No,No,Yes,No,CHINESE,MALAY,TAMIL
ANGSANA PRIMARY SCHOOL,https://angsanapri.moe.edu.sg/,51 Tampines Street 61   ,528565,67830427,na,67845293,na,angsana_pri@moe.edu.sg,Tampines,"Bus Service 68, 68A",MR WONG WOEN LONG,MADAM SULASNI BINTE ABDUL RAHMAN,MADAM LEE HUAY MENG CAROL,MR KONG CHEE CHIEW,na,na,na,TAMPINES,EAST,GOVERNMENT SCHOOL,CO-ED SCHOOL,SINGLE SESSION,PRIMARY,No,No,No,No,CHINESE,MALAY,TAMIL
ASSUMPTION ENGLISH SCHOOL,http://www.assumptionenglish.moe.edu.sg,622 UPPER BUKIT TIMAH ROAD   ,678117,65729100,na,67636560,na,AES@MOE.EDU.SG,CASHEW MRT,"67, 75, 170, 176, 178, 184, 961, 963, 970",MR TOH KIM YONG VINCENT,MR TAN WEIMING BRIAN,MISS WONG KER SIN,MR QUEK SER HIANG,na,na,na,BUKIT PANJANG,WEST,GOVERNMENT-AIDED SCH,CO-ED SCHOOL,SINGLE SESSION,SECONDARY (S1-S5),No,No,No,No,CHINESE,MALAY,TAMIL
ASSUMPTION PATHWAY SCHOOL,http://www.aps.edu.sg,30 Cashew Road   ,679697,62793000,na,67622857,na,aps@schools.gov.sg,"DOWNTOWN LINE 2, CASHEW MRT","SBS Transit No 170; SMRT No 67, 75, 171, 176, 178, 184, 961, 963 & 970",MR STEPHEN CHIN,MADAM SHABNAM LENA,DR WEE SIEW FONG,MRS TANG HUAY JIUAN NEE CHONG,na,na,na,BUKIT PANJANG,WEST,SPECIALISED SCHOOL,CO-ED SCHOOL,SINGLE SESSION,SECONDARY (S1-S4),No,No,No,No,CHINESE,MALAY,TAMIL
BARTLEY SECONDARY SCHOOL,http://www.bartleysec.moe.edu.sg,10 JALAN BUNGA RAMPAI   ,538403,62889013,na,62805595,na,BARTLEY_SS@MOE.EDU.SG,"BARTLEY MRT, TAI SENG MRT","22, 24, 28, 43, 58, 62, 70, 70M, 76, 80, 80A, 93, 158",MISS SEET YING LING BRITTA,MR NG CHOR YAM,MR TING POH LEONG ALOYSIUS,na,na,na,na,TOA PAYOH,SOUTH,GOVERNMENT SCHOOL,CO-ED SCHOOL,SINGLE SESSION,SECONDARY (S1-S5),No,No,No,No,CHINESE,MALAY,TAMIL
BEACON PRIMARY SCHOOL,https://beaconpri.moe.edu.sg/,36 Bukit Panjang Ring Road   ,679944,67697255,na,67697244,na,beaconprisch@moe.edu.sg,"Bangkit LRT, Fajar LRT Station, Bukit Panjang MRT","920, 922, 971, 972, 972A, 972M, 976",MISS PANG WEE MIAN,MADAM LELA BTE SHAMSUHADI,MISS MELISSA CHANG SUET MUN,MR CHEN WEI NGIAP,na,na,na,BUKIT PANJANG,WEST,GOVERNMENT SCHOOL,CO-ED SCHOOL,SINGLE SESSION,PRIMARY,No,No,No,No,CHINESE,MALAY,TAMIL
BEATTY SECONDARY SCHOOL,http://www.beattysec.moe.edu.sg,1 TOA PAYOH NORTH   ,318990,62569108,na,62542284,na,BEATTY_SS@MOE.EDU.SG,"BRADDELL MRT, TOA PAYOH MRT","13, 28, 56, 57, 59, 73, 88, 93, 105, 129, 153, 155, 157, 159, 163, 231, 232",MR HARMAN AUGUSTUS JOHLL,MR YEO KOK SAN WILLIAM,MADAM LIM SOK NGIN,na,na,na,na,TOA PAYOH,SOUTH,GOVERNMENT SCHOOL,CO-ED SCHOOL,SINGLE SESSION,SECONDARY (S1-S5),No,No,No,No,CHINESE,MALAY,TAMIL
BEDOK GREEN PRIMARY SCHOOL,http://www.bedokgreenpri.moe.edu.sg,1 BEDOK SOUTH AVE 2   ,469317,64425416,na,64491491,na,bgps@moe.edu.sg,"Bedok MRT Station, Tanah Merah MRT Station","Bus No. 2, 9, 12, 24, 31, 34 & 38",MR YONG YIK YEN BENJAMIN,MR YEO SHO HOR,CHUA KOK SENG,na,na,na,na,BEDOK,EAST,GOVERNMENT SCHOOL,CO-ED SCHOOL,SINGLE SESSION,PRIMARY,No,No,No,No,CHINESE,MALAY,TAMIL
BEDOK GREEN SECONDARY SCHOOL,http://www.bedokgreensec.moe.edu.sg,360 BEDOK NORTH AVE 3   ,469722,64463301,na,64465969,na,BGSS@MOE.EDU.SG,"BEDOK MRT, BEDOK RESERVOIR MRT","14, 17, 18, 28, 46, 66, 67, 69, 168, 222, 228, 506",MR SHAW SWEE TAT,MISS SAKINAH BINTE MOHAMED SARIP,MR CHEONG HUEI LEONARD,MR LEE CHEE CHONG,na,na,na,BEDOK,EAST,GOVERNMENT SCHOOL,CO-ED SCHOOL,SINGLE SESSION,SECONDARY (S1-S5),No,No,No,No,CHINESE,MALAY,TAMIL
BEDOK SOUTH SECONDARY SCHOOL,https://bedoksouthsec.moe.edu.sg/,1 JALAN LANGGAR BEDOK   ,468585,64414479,na,64491314,na,BSSS@MOE.EDU.SG,TANAH MERAH MRT,"10, 14, 45",MR KOH YONG HWEE DARYL (XU RONGHUI),MISS AZLINDA BTE SAMSUDIN,MR CHEN JINGYUAN ALVIN,na,na,na,na,BEDOK,EAST,GOVERNMENT SCHOOL,CO-ED SCHOOL,SINGLE SESSION,SECONDARY (S1-S5),No,No,No,No,CHINESE,MALAY,TAMIL
BEDOK VIEW SECONDARY SCHOOL,http://www.bedokviewsec.moe.edu.sg,6 BEDOK SOUTH AVENUE 3   ,469293,64430563,na,64494286,na,BEDOKVIEW_SS@MOE.EDU.SG,TANAH MERAH MRT,"2, 9, 12, 14, 24, 25, 31, 35, 38, 45, 46, 47, 48",MADAM CHENG HWEE YEANG,MR TYEBALLY AZIZ,MR NEO WEI CHUNG,na,na,na,na,BEDOK,EAST,GOVERNMENT SCHOOL,CO-ED SCHOOL,SINGLE SESSION,SECONDARY (S1-S5),No,No,No,No,CHINESE,MALAY,TAMIL
BENDEMEER PRIMARY SCHOOL,http://www.bendemeerpri.moe.edu.sg/,91 BENDEMEER ROAD   ,339948,62982911,na,62995735,na,BENDEMEER_PS@MOE.EDU.SG,"Boon Keng, Kallang","13 23 31 61 64 65 65M 66 125, 125X ,133,140,147,853,857,985",MADAM LIM KIM GEK,MRS LINDA TAN,MR TOH KIM SING (ZHUO JINSHENG),MR TOO MENG NGEE,na,na,na,KALLANG,SOUTH,GOVERNMENT SCHOOL,CO-ED SCHOOL,SINGLE SESSION,PRIMARY,No,No,No,No,CHINESE,MALAY,TAMIL
BENDEMEER SECONDARY SCHOOL,http://www.bendemeersec.moe.edu.sg,1 ST WILFRED ROAD   ,327919,62927616,na,62932594,na,BENDEMEER_SS@MOE.EDU.SG,BOON KENG MRT,"13,  23,  31,  64,  65,  66, 125, 133, 140, 147, 857, 985",MS FOO SHEUE FENG,MR HO CHI CHENG,MR MOHD AZMAN B MOHD SIDEK,na,na,na,na,KALLANG,SOUTH,GOVERNMENT SCHOOL,CO-ED SCHOOL,SINGLE SESSION,SECONDARY (S1-S5),No,No,No,No,CHINESE,MALAY,TAMIL
BLANGAH RISE PRIMARY SCHOOL,http://www.blangahrisepri.moe.edu.sg/,91 TELOK BLANGAH HEIGHTS   ,109100,62717387,na,62763037,na,BRPS@MOE.EDU.SG,"Telok Blangah, Tiong Bahru & Redhill",SBS 273 & 124,MISS NG POR JOO PEARLY,MISS NARAYANASAMY UMA RANI,MR CHIONH BOON SOO,na,na,na,na,BUKIT MERAH,SOUTH,GOVERNMENT SCHOOL,CO-ED SCHOOL,SINGLE SESSION,PRIMARY,No,No,No,No,CHINESE,MALAY,TAMIL
BOON LAY GARDEN PRIMARY SCHOOL,www.boonlaygardenpri.moe.edu.sg,20 BOON LAY DRIVE   ,649930,63160998,na,63160209,na,BLGPS@MOE.EDU.SG,Lakeside & Boon Lay,"30,99,154,178,180,187,240,246",MADAM CHRISTINE LIM MIN HUI,MADAM NG BOON IN,MRS AVINASH MURUGESUVARI,na,na,na,na,JURONG WEST,WEST,GOVERNMENT SCHOOL,CO-ED SCHOOL,SINGLE SESSION,PRIMARY,No,No,No,No,CHINESE,MALAY,TAMIL
BOON LAY SECONDARY SCHOOL,https://www.boonlaysec.moe.edu.sg,11 JURONG WEST STREET 65   ,648354,67940161,na,67941324,na,BLSS@MOE.EDU.SG,Boon Lay,"30, 79, 99, 154, 157, 172, 174, 178, 179, 180, 181, 181M, 187, 192, 193, 194, 198, 199, 240, 241, 242, 243G/W, 246, 249, 251, 252, 258, 405, 502, 974",MR CHAN ZHENG MING,MR KOH CHON KIAT,MR TAN HWEE SIANG,,na,na,na,JURONG WEST,WEST,GOVERNMENT SCHOOL,CO-ED SCHOOL,SINGLE SESSION,SECONDARY (S1-S5),No,No,No,No,CHINESE,MALAY,TAMIL
BOWEN SECONDARY SCHOOL,http://www.bowensec.moe.edu.sg,2 LORONG NAPIRI   ,547529,63859466,na,63856559,na,BOWEN_SS@MOE.EDU.SG,"HOUGANG MRT, SERANGOON MRT, SENGKANG MRT","43, 70, 73, 103, 109, 156, 854, 25, 74, 74E, 76, 112, 132, 147, 165, 55",MR LOH CHIH HUI,MR CHEN ZHAOKAI BENJAMIN,MR GOH KEE YONG @ GOH CHONG HENG,na,na,na,na,HOUGANG,NORTH,GOVERNMENT SCHOOL,CO-ED SCHOOL,SINGLE SESSION,SECONDARY (S1-S5),No,No,No,No,CHINESE,MALAY,TAMIL
BROADRICK SECONDARY SCHOOL,http://www.broadricksec.moe.edu.sg,61 DAKOTA CRESCENT   ,399935,63445025,na,64471427,na,BROADRICK_SS@MOE.EDU.SG,DAKOTA MRT,"10, 16, 30, 31, 32, 33",MR NG TIONG NAM,MR BAMBANG PURNAMA PUTRA SHAKNI,MS NG FOONG MENG,na,na,na,na,GEYLANG,EAST,GOVERNMENT SCHOOL,CO-ED SCHOOL,SINGLE SESSION,SECONDARY (S1-S5),No,No,No,No,CHINESE,MALAY,TAMIL
BUKIT BATOK SECONDARY SCHOOL,http://www.bukitbatoksec.moe.edu.sg,50 BUKIT BATOK WEST AVE 8   ,658962,63799413,na,65607006,na,BBSS@MOE.EDU.SG,BUKIT BATOK MRT,"66, 66C, 157, 174, 174E, 178, 506, 941, 991",MISS WONG KAH WAI SHIRLEY,"MR CHENG POH HUAT, ALAN",MADAM CHIA BEE KHIM MABEL,MR CHAN TECK HONG DAVID,na,na,na,BUKIT BATOK,WEST,GOVERNMENT SCHOOL,CO-ED SCHOOL,SINGLE SESSION,SECONDARY (S1-S5),No,No,No,No,CHINESE,MALAY,TAMIL
BUKIT MERAH SECONDARY SCHOOL,http://www.bukitmerahsec.moe.edu.sg,10 LENGKOK BAHRU   ,159050,64748934,na,64744122,na,BMSS@MOE.EDU.SG,REDHILL MRT,"14, 32, 33, 63, 64, 120, 132, 139, 145, 147, 196, 197, 855, 961",MR DARREN CHONG WAI KI,MR KOH SIEW BOON,MS CHAN LAI YING,na,na,na,na,BUKIT MERAH,SOUTH,GOVERNMENT SCHOOL,CO-ED SCHOOL,SINGLE SESSION,SECONDARY (S1-S5),No,No,No,No,CHINESE,MALAY,TAMIL
BUKIT PANJANG GOVT. HIGH SCHOOL,http://www.bpghs.moe.edu.sg,7 CHOA CHU KANG AVE 4   ,689809,67691031,na,67626576,na,BPGHS@MOE.EDU.SG,CHOA CHU KANG MRT,"300, 983",MR SEET TIAT HEE,MDM TEO TING TING,MR TAN FONG WEI,na,na,na,na,CHOA CHU KANG,WEST,GOVERNMENT SCHOOL,CO-ED SCHOOL,SINGLE SESSION,SECONDARY (S1-S5),No,Yes,No,No,CHINESE,MALAY,TAMIL
BUKIT PANJANG PRIMARY SCHOOL,http://www.bukitpanjangpri.moe.edu.sg,109 CASHEW ROAD   ,679676,67691912,na,67637462,na,BPPS@MOE.EDU.SG,From Pending LRT station to Choa Chu Kang MRT station,"75, 184",MADAM LEN LENG LENG TERESA KELLY,MR CHAN WENG KIT MARK,MADAM KAY HWEE GEAK,MR CHAN KEN YAN MICHAEL,na,na,na,BUKIT PANJANG,WEST,GOVERNMENT SCHOOL,CO-ED SCHOOL,SINGLE SESSION,PRIMARY,No,No,No,No,CHINESE,MALAY,TAMIL
BUKIT TIMAH PRIMARY SCHOOL,http://www.bukittimahpri.moe.edu.sg,111 Lorong Kismis   ,598112,64662863,na,64692179,na,bukittimahps@moe.edu.sg,"Beauty World, Bukit Batok and Clementi Stations",173,MISS LAU WAN SZE,MDM JAN LIN,"MADAM KOH LEE KUN, SHIRLYN",na,na,na,na,BUKIT TIMAH,WEST,GOVERNMENT SCHOOL,CO-ED SCHOOL,SINGLE SESSION,PRIMARY,No,No,No,No,CHINESE,MALAY,TAMIL
BUKIT VIEW PRIMARY SCHOOL,http://www.bukitviewpri.moe.edu.sg,18 BUKIT BATOK STREET 21   ,659634,65661980,na,65635015,na,BUKITVIEW_PS@MOE.EDU.SG,Bukit Batok MRT Station,"173,157,178,852,66,106,61,506,963,77",MADAM TEO ENG HUI,MADAM LAI SEOW POH,MRS LEE JUN WEN,MR GOH GIN HOWE,na,na,na,BUKIT BATOK,WEST,GOVERNMENT SCHOOL,CO-ED SCHOOL,SINGLE SESSION,PRIMARY,No,No,No,No,CHINESE,MALAY,TAMIL
BUKIT VIEW SECONDARY SCHOOL,https://www.bukitviewsec.moe.edu.sg,16 BUKIT BATOK STREET 21   ,659633,65661990,na,65630945,na,BUKITVIEW_SS@MOE.EDU.SG,BUKIT BATOK MRT,"61, 66, 77, 106, 157, 173, 174, 178, 189, 506, 653, 852, 963, 990",na,MR MAK YEW CHONG,MISS MRS ANNA LING,MR NEO KIM HANG,na,na,na,BUKIT BATOK,WEST,GOVERNMENT SCHOOL,CO-ED SCHOOL,SINGLE SESSION,SECONDARY (S1-S5),No,No,No,No,CHINESE,MALAY,TAMIL
CANBERRA PRIMARY SCHOOL,http://www.canberrapri.moe.edu.sg,21 ADMIRALTY DRIVE   ,757714,67597433,na,67587312,na,CANBERRA_PS@MOE.EDU.SG,Sembawang MRT Station,Bus No. 859,MR TAN SIAN YEOW TERENCE,MADAM ONG LIXIANG JOYCE,MR SHAH JAHAN B MOHAMED IQBAL,na,na,na,na,SEMBAWANG,NORTH,GOVERNMENT SCHOOL,CO-ED SCHOOL,SINGLE SESSION,PRIMARY,No,No,No,No,CHINESE,MALAY,TAMIL
CANBERRA SECONDARY SCHOOL,https://canberrasec.moe.edu.sg,51 SEMBAWANG DRIVE   ,757699,67585070,na,67583110,na,CANBERRA_SS@MOE.EDU.SG,SEMBAWANG MRT,"859, 962",MR LEONG KOK KEE,MADAM ONG LAY YEN,MR SYED FAISAL BIN SYED ISMAIL,MRS AMANDA TAN,na,na,na,SEMBAWANG,NORTH,GOVERNMENT SCHOOL,CO-ED SCHOOL,SINGLE SESSION,SECONDARY (S1-S5),No,No,No,No,CHINESE,MALAY,TAMIL
CANOSSA CATHOLIC PRIMARY SCHOOL,https://canossacatholicpri.moe.edu.sg/,1 Sallim Road   ,387621,68441418,na,68441417,na,ccps@moe.edu.sg,Nearest MRT station: Mattar Station (about 3-minute walk),"Aljunied Road (same side as CCPS): 62, 64, 100; Aljunied Road (opposite CCPS): 61, 62, 64, 66, 100, 135, 154, 155; Merpati Rd (after Jln Anggerek): 40, 61, 63, 65, 66, 135,",MADAM SIA LU-MING EUGENIE,MR LEE KOK MENG CLEMENT,MR LIM TIAN SIONG,na,na,na,na,GEYLANG,EAST,GOVERNMENT-AIDED SCH,CO-ED SCHOOL,SINGLE SESSION,PRIMARY,No,No,No,No,CHINESE,MALAY,TAMIL
CANTONMENT PRIMARY SCHOOL,http://www.cantonmentpri.moe.edu.sg,1 CANTONMENT CLOSE   ,088256,65119555,na,65119556,na,cantonment_ps@moe.edu.sg,Tanjong Pagar; Outram Park,"121, 167, 196",MADAM FOO YIN PING GRACE,MISS CHENG SHIN MIIN,MRS JANE CHEAH,MR LOH SIANG KIANG,na,na,na,BUKIT MERAH,SOUTH,GOVERNMENT SCHOOL,CO-ED SCHOOL,SINGLE SESSION,PRIMARY,No,No,No,No,CHINESE,MALAY,TAMIL
CASUARINA PRIMARY SCHOOL,http://www.casuarinapri.moe.edu.sg/,30 PASIR RIS ST 41   ,518935,65837132,na,65836227,na,CASUARINA_PS@MOE.EDU.SG,Pasir Ris MRT Station,"Nos. 12, 21 & 358",MR POH CHEE YANG,MR TAYEB B RAJIB,MADAM HAFSAH BINTE ABDULLAH,na,na,na,na,PASIR RIS,EAST,GOVERNMENT SCHOOL,CO-ED SCHOOL,SINGLE SESSION,PRIMARY,No,No,No,No,CHINESE,MALAY,TAMIL
CATHOLIC HIGH SCHOOL,http://www.catholichigh.moe.edu.sg,9 BISHAN STREET 22   ,579767,64582177 (Secondary),64589869 (Primary),64561322 (Secondary),64593938 (Primary),CHS@MOE.EDU.SG,BISHAN MRT,"13, 52, 54, 88, 156, 162, 162M, 410",MADAM TEO YVONNE,MR TAN CHER HUI PHILIP,MADAM WONG WAI SEE KELLIE,MISS LOW PEI LIN BEVERLY,MR FONG KOK WAI,na,na,BISHAN,NORTH,GOVERNMENT-AIDED SCH,BOYS' SCHOOL,SINGLE SESSION,MIXED LEVEL (P1-S4),Yes,Yes,Yes,Yes,CHINESE,na,na
CATHOLIC JUNIOR COLLEGE,https://cjc.moe.edu.sg/,129 WHITLEY ROAD   ,297822,62524083,na,62537267,na,CATHOLIC_JC@MOE.EDU.SG,"Toa Payoh (NS Line), Novena (NS Line), Stevens (DT Line), Caldecott (CC Line,TE Line)","105, 132, 151, 153, 154, 156, 186, 966, 985",MRS WOO SOO MIN,MADAM KAM WAI CHIN,MR TAN JEK SUAN,na,na,na,na,NOVENA,SOUTH,GOVERNMENT-AIDED SCH,CO-ED SCHOOL,FULL DAY,JUNIOR COLLEGE,No,No,No,No,CHINESE,MALAY,TAMIL
CEDAR GIRLS' SECONDARY SCHOOL,http://www.cedargirlssec.moe.edu.sg,1 CEDAR AVENUE   ,349692,62884909,na,62820244,na,CEDARGIRLSSS@MOE.EDU.SG,"WOODLEIGH MRT, POTONG PASIR MRT, MATTAR MRT","8, 13, 61, 64, 65, 66, 90, 100, 107, 133, 135, 142, 147, 151, 154, 155, 853",MADAM THONG MAY TENG,MADAM TAN GEOK LAN,MISS ONG SHU HUI,na,na,na,na,TOA PAYOH,SOUTH,GOVERNMENT SCHOOL,GIRLS' SCHOOL,SINGLE SESSION,SECONDARY (S1-S4),No,Yes,No,Yes,CHINESE,MALAY,TAMIL
CEDAR PRIMARY SCHOOL,Http://www.cedarpri.moe.edu.sg,15 CEDAR AVENUE   ,349700,62885633,na,62830113,na,CEDAR_PS@MOE.EDU.SG,Potong Pasir MRT Station,"8, 61, 64, 65, 66, 66A, 90, 90A, 100, 135, 151, 154, 155",MR CHRIS CHUA,MS CHOONG PEI CHIN,MR NG CHU SIU,na,na,na,na,TOA PAYOH,SOUTH,GOVERNMENT SCHOOL,CO-ED SCHOOL,SINGLE SESSION,PRIMARY,No,No,No,No,CHINESE,MALAY,TAMIL
CHANGKAT CHANGI SECONDARY SCHOOL,http://www.changkatchangisec.moe.edu.sg,23 SIMEI ST 3   ,529894,67859790,na,67868481,na,CHANGKATCHGI@MOE.EDU.SG,SIMEI MRT,"5, 9, 20, 38",MR HO MING DA,MS SUBASHINI D/O SIVARAM,na,na,na,na,na,TAMPINES,EAST,GOVERNMENT SCHOOL,CO-ED SCHOOL,SINGLE SESSION,SECONDARY (S1-S5),No,No,No,No,CHINESE,MALAY,TAMIL
CHANGKAT PRIMARY SCHOOL,http://www.changkatpri.moe.edu.sg/,11 SIMEI ST 3   ,529896,67830923,na,67844740,na,CHANGKAT_PS@MOE.EDU.SG,Simei MRT Station,"9,38,5",MADAM CHENG HUEY TENG,MRS LEE LI THENG,MADAM SITI NAZRAH BTE ABDUL RAHMAN,na,na,na,na,TAMPINES,EAST,GOVERNMENT SCHOOL,CO-ED SCHOOL,SINGLE SESSION,PRIMARY,No,No,No,No,CHINESE,MALAY,TAMIL
CHIJ (KATONG) PRIMARY,http://chijkcp.moe.edu.sg/,17 MARTIA ROAD   ,424821,63443072,na,63459007,na,CHIJKTPS@MOE.EDU.SG,MARINE PARADE; EUNOS; PAYA LEBAR,"15, 55, 36, 16, 135, 197, 196, 31, 13, 76, 12, 10, 14, 32, 40",MADAM MISCHA LEIGH PEREIRA,MADAM TAN POH KUAN JOYCELYN,MISS SHARON NG YE CHIN,MR ONG HENG KIONG (KONG QINGQIANG),na,na,na,BEDOK,EAST,GOVERNMENT-AIDED SCH,GIRLS' SCHOOL,SINGLE SESSION,PRIMARY,No,No,No,No,CHINESE,MALAY,TAMIL
VALOUR PRIMARY SCHOOL,valourpri.moe.edu.sg,49 Punggol Central   ,828728,62426390,na,na,na,valour_ps@moe.edu.sg,na,na,MRS CHARIS WONG,MADAM TAN PIN PIN,MR LEE WEI TE,MR BOH HONG JIK,na,na,na,PUNGGOL,EAST,GOVERNMENT SCHOOL,CO-ED SCHOOL,SINGLE SESSION,PRIMARY,No,No,No,No,CHINESE,MALAY,TAMIL
CHIJ (KELLOCK),http://www.chijkellock.moe.edu.sg/,1 Bukit Teresa Road   ,099757,62730096,na,62731710,na,CHIJKS@MOE.EDU.SG,Outram Park Station,"61, 124, 143, 166",MRS SHANTHI SURAJ NAIR,"MS NG CHIOU HIEN, HELEN MRS HELEN TAN",MADAM YUE  SHARON,na,na,na,na,BUKIT MERAH,SOUTH,GOVERNMENT-AIDED SCH,GIRLS' SCHOOL,SINGLE SESSION,PRIMARY,No,No,No,No,CHINESE,MALAY,TAMIL
CHIJ KATONG CONVENT,http://www.chijkatongconvent.moe.edu.sg,346 MARINE TERRACE   ,449150,64486433,na,64494405,na,CHIJKTCS@MOE.EDU.SG,"BEDOK MRT, KEMBANGAN MRT, EUNOS MRT, PAYA LEBAR MRT, MARINE TERRACE MRT","4N, 13, 16, 31, 36, 36A, 36B, 43, 47, 48, 55, 134, 135, 135A, 150, 196, 196E, 197, 853C, 763",MISS CHEN MEI CHUEN,MISS CHIA SIEW HUI,MISS LIM AI HUI ANNIE,na,na,na,na,MARINE PARADE,EAST,GOVERNMENT-AIDED SCH,GIRLS' SCHOOL,SINGLE SESSION,SECONDARY (S1-S5),No,Yes,No,No,CHINESE,MALAY,TAMIL
CHIJ OUR LADY OF GOOD COUNSEL,http://www.chijourladyofgoodcounsel.moe.edu.sg,2C Burghley Drive   ,558979,62886930,na,62814132,na,CHIJOLGCS@MOE.EDU.SG,"Ang Mo Kio MRT, Bishan MRT, Serangoon MRT station.","317 Feeder Bus Service from Serangoon Interchange. 135,136 from Ang Mo Kio Interchange.",MISS TAN LEE YIN GRACE,MISS LIAT MEI KUEN GERALDINE SHARON,MRS WONG- LIM ENG LING ANGELINA,na,na,na,na,SERANGOON,SOUTH,GOVERNMENT-AIDED SCH,GIRLS' SCHOOL,SINGLE SESSION,PRIMARY,No,No,No,No,CHINESE,MALAY,TAMIL
CHIJ OUR LADY OF THE NATIVITY,http://www.chijourladyofthenativity.moe.edu.sg/,1257 UPPER SERANGOON ROAD   ,534793,63852455,na,63852012,na,CHIJPS@MOE.EDU.SG,Hougang MRT,"74, 102, 112, 113, 119, 136, 147, 324, 672",MS ALBUQUERQUE KAREN ANNE,MADAM LOH AH LAH CATHERINE MICHELLE,MADAM WONG YEN LING,na,na,na,na,HOUGANG,SOUTH,GOVERNMENT-AIDED SCH,GIRLS' SCHOOL,SINGLE SESSION,PRIMARY,No,No,No,No,CHINESE,MALAY,TAMIL
CHIJ OUR LADY QUEEN OF PEACE,http://www.chijourladyqueenofpeace.moe.edu.sg/,4 Chestnut Drive   ,679287,67691529,na,67653551,na,CHIJBTS@MOE.EDU.SG,Cashew and Hillview,"180, 67, 171, 176, 177, 178, 184, 961, 963, 970",MS PHAM HONG LIEN PHYLLIS G.,MADAM ADELINE CHONG NGOR YIM,MADAM SNG POH GEOK,na,na,na,na,BUKIT PANJANG,WEST,GOVERNMENT-AIDED SCH,GIRLS' SCHOOL,SINGLE SESSION,PRIMARY,No,No,No,No,CHINESE,MALAY,TAMIL
CHIJ PRIMARY (TOA PAYOH),http://www.chijpritoapayoh.moe.edu.sg,628 Lorong 1 Toa Payoh   ,319765,63532164,na,63536362,na,CHIJTPPS@MOE.EDU.SG,Toa Payoh,"59, 231, 141",MADAM CHUA SOOK LIAN JUDINA,MRS SNG CHARMAINE,MRS MELISSA YAP,MADAM YVONNE LIM BUAY HUANG (LIN MEIFANG),na,na,na,TOA PAYOH,SOUTH,GOVERNMENT-AIDED SCH,GIRLS' SCHOOL,SINGLE SESSION,PRIMARY,No,No,No,No,CHINESE,MALAY,TAMIL
CHIJ SECONDARY (TOA PAYOH),http://www.chijsec.edu.sg,626 LORONG 1 TOA PAYOH   ,319764,63534972,na,63544573,na,CHIJTPSS@MOE.EDU.SG,TOA PAYOH MRT,"59, 141, 231",MADAM RACHEL ANG LAY KOON,MADAM CHRIS KOH,MADAM LIM LAY HOON,MISS KESAVAN PAULA ANNE,na,na,na,TOA PAYOH,SOUTH,GOVERNMENT-AIDED SCH,GIRLS' SCHOOL,SINGLE SESSION,SECONDARY (S1-S5),No,Yes,No,No,CHINESE,MALAY,TAMIL
CHIJ ST. JOSEPH'S CONVENT,http://www.chijstjosephsconvent.moe.edu.sg,62 SENGKANG EAST WAY   ,548595,64897580,na,64897589,na,CHIJSJCS@MOE.EDU.SG,SENGKANG MRT,"50, 82, 86, 88, 119, 136",MRS VALERIE PINTO,MISS HO WEI LING,MISS TAN LAI YEE MICHELLE,na,na,na,na,SENG KANG,NORTH,GOVERNMENT-AIDED SCH,GIRLS' SCHOOL,SINGLE SESSION,SECONDARY (S1-S5),No,No,No,No,CHINESE,MALAY,TAMIL
CHIJ ST. NICHOLAS GIRLS' SCHOOL,http://www.chijstnicholasgirls.moe.edu.sg,501 ANG MO KIO STREET 13   ,569405,63541839 (Secondary),64549698 (Primary),64511335 (Secondary),64566169 (Primary),CHIJSNG@MOE.EDU.SG,"ANG MO KIO MRT, YIO CHU KANG MRT, MAYFLOWER MRT","76, 265, 268, 269",MISS TAN SIN WEI WINNIE,MADAM LOW CHIA YEE,MR NG WAI KIT KELVIN,MISS YEO TECK WOON,MADAM TAN LIH LIN (CHEN LILIN),MR LIM KAY WAH BENEDICT,MR THAM WAI KONG,ANG MO KIO,NORTH,GOVERNMENT-AIDED SCH,GIRLS' SCHOOL,SINGLE SESSION,MIXED LEVEL (P1-S4),Yes,Yes,No,Yes,CHINESE,na,na
CHIJ ST. THERESA'S CONVENT,http://www.chijsttheresasconvent.moe.edu.sg,160 LOWER DELTA ROAD   ,099138,64775777,na,64775700,na,CHIJSTCS@MOE.EDU.SG,"HARBOURFRONT MRT, TIONG BAHRU MRT","65, 121, 123, 123M, 124, 131, 131M, 195, 195A, 272, 855",MADAM TAN MEI MEI JENNY,MISS WEE MEI YEN JANICE,MR YEO NGEE YANG,na,na,na,na,BUKIT MERAH,SOUTH,GOVERNMENT-AIDED SCH,GIRLS' SCHOOL,SINGLE SESSION,SECONDARY (S1-S5),No,No,No,No,CHINESE,MALAY,TAMIL
CHONGFU SCHOOL,http://www.chongfu.moe.edu.sg/,170 YISHUN AVENUE 6   ,768959,67585527,na,62579571,na,CFPS@MOE.EDU.SG,Yishun MRT station,Feeder Service 811,MR TAN KING MING,MISS LIM HWEE MIEN ANGELYNNA,MR SOON WOO SIN,na,na,na,na,YISHUN,NORTH,GOVERNMENT-AIDED SCH,CO-ED SCHOOL,SINGLE SESSION,PRIMARY,No,No,No,No,CHINESE,MALAY,TAMIL
CHONGZHENG PRIMARY SCHOOL,http://www.chongzhengpri.moe.edu.sg,1 TAMPINES STREET 21   ,529392,67819002,na,67845054,na,CZPS@MOE.EDU.SG,Tampines MRT Station; Tampines East MRT Station,"3,3A, 8, 17, 18, 20, 28, 34, 39, 59, 518",MR LIM WEE JAMES,MADAM RANJIT KAUR D/O MUKHTAR SINGH,MISS SHERRY OH SWEE LYN,na,na,na,na,TAMPINES,EAST,GOVERNMENT SCHOOL,CO-ED SCHOOL,SINGLE SESSION,PRIMARY,No,No,No,No,CHINESE,MALAY,TAMIL
CHRIST CHURCH SECONDARY SCHOOL,http://www.christchurchsec.moe.edu.sg,20 WOODLANDS DRIVE 17   ,737924,68933297,na,68932789,na,CCSS@MOE.EDU.SG,"WOODLANDS MRT, WOODLANDS SOUTH MRT","901, 901M, 665",MR TAY JUNCHENG ADRIAN,MADAM HENG EU LIN,MR ONG KAH HUI VICTOR,na,na,na,na,WOODLANDS,NORTH,GOVERNMENT-AIDED SCH,CO-ED SCHOOL,SINGLE SESSION,SECONDARY (S1-S5),No,No,No,No,CHINESE,MALAY,TAMIL
CHUA CHU KANG PRIMARY SCHOOL,http://www.chuachukangpri.moe.edu.sg,20 CHOA CHU KANG AVENUE 2   ,689905,67661574,na,67661583,na,CCKPS@MOE.EDU.SG,Choa Chu Kang MRT Station and Southview LRT Station,"Bus Service 300, 301 and NR3 along Chua Chu Kang Ave 2; Bus Service 172, 301, 991 along Chua Chu Kang Ave 1",MADAM KUEK YEN YEN SHEREE,MADAM CHEW BOON HWEE,MS LIM CHWEE ENG MRS ONG PI HOCK,MADAM PUSPHAALATHA D/O AYAVOO,na,na,na,CHOA CHU KANG,WEST,GOVERNMENT SCHOOL,CO-ED SCHOOL,SINGLE SESSION,PRIMARY,No,No,No,No,CHINESE,MALAY,TAMIL
CHUA CHU KANG SECONDARY SCHOOL,http://www.chuachukangsec.moe.edu.sg,31 TECK WHYE CRESCENT   ,688848,67655228,67664425,67636807,na,CCKSS@MOE.EDU.SG,"CHOA CHU KANG MRT, PHOENIX LRT","190, 190A, 307, 975, 982E, 985",MR CHENG GHEE HOCK TIMOTHY,MADAM HARTATI BTE OSMAN,MADAM LEE EE LEI JANE,na,na,na,na,CHOA CHU KANG,WEST,GOVERNMENT SCHOOL,CO-ED SCHOOL,SINGLE SESSION,SECONDARY (S1-S5),No,No,No,No,CHINESE,MALAY,TAMIL
CHUNG CHENG HIGH SCHOOL (MAIN),http://www.chungchenghighmain.moe.edu.sg,50 GOODMAN ROAD   ,439012,63441393,na,63449686,na,CCHMS@MOE.EDU.SG,DAKOTA MRT,"10, 12, 14, 14A, 14E 16, 16M, 30, 31, 32, 33, 40, 43, 43E 135, 134, 196, 196A 197, 401, 853M",MR YAO ZHIXUAN TERENCE,MR CHONG TENG YUAN,MADAM NG BEE LING,MADAM ONG LEE FONG,na,na,na,MARINE PARADE,EAST,GOVERNMENT-AIDED SCH,CO-ED SCHOOL,SINGLE SESSION,SECONDARY (S1-S4),Yes,Yes,No,No,CHINESE,na,na
CHUNG CHENG HIGH SCHOOL (YISHUN),http://www.chungchenghighyishun.moe.edu.sg,11 YISHUN STREET 61   ,768547,67583912,na,67587397,na,CCHBS@MOE.EDU.SG,KHATIB MRT,"Yishun Street 61 (opposite school) - 812; Yishun Ave 2 - 39, 85, 117, 851, 852, 853, 854, 855, 857, 858, 860, 965, 969",MR CHIA GUO HAO,MR WOO LEE YEN,MR CHEONG WING FOOK MELVIN,na,na,na,na,YISHUN,NORTH,GOVERNMENT-AIDED SCH,CO-ED SCHOOL,SINGLE SESSION,SECONDARY (S1-S5),No,No,No,No,CHINESE,MALAY,TAMIL
CLEMENTI PRIMARY SCHOOL,http://www.clementipri.moe.edu.sg,8 CLEMENTI AVE 3   ,129903,67797449,na,67732898,na,CLEMENTI_PS@MOE.EDU.SG,Clementi MRT Station,We are just beside Clementi Bus Interchange.,MR VIMALENTHIRAN S/O VIJAYASINGAM,MADAM KHOO HENG OI CATHERINE,MADAM LEE SWEE MEI CHERYL,MADAM LOW TAN YING,MS TUNG AI JUI,na,na,CLEMENTI,WEST,GOVERNMENT SCHOOL,CO-ED SCHOOL,SINGLE SESSION,PRIMARY,No,No,No,No,CHINESE,MALAY,TAMIL
CLEMENTI TOWN SECONDARY SCHOOL,http://www.clementitownsec.moe.edu.sg,10 CLEMENTI AVE 3   ,129904,67777362,na,67789543,na,CTSS@MOE.EDU.SG,CLEMENTI MRT,"14, 105, 106, 147, 156, 165, 166, 173, 175, 184, 196, 282, 284, 285, 7, 96, 99",MADAM RASIDAH BTE RAHIM,MISS HUANG KEXIN,MR NG PING HWEE,na,na,na,na,CLEMENTI,WEST,GOVERNMENT SCHOOL,CO-ED SCHOOL,SINGLE SESSION,SECONDARY (S1-S5),No,No,No,No,CHINESE,MALAY,TAMIL
COMMONWEALTH SECONDARY SCHOOL,http://www.commonwealthsec.moe.edu.sg,698 WEST COAST ROAD   ,608784,65606866,na,65645204,na,CWSS@MOE.EDU.SG,"JURONG EAST MRT, CLEMENTI MRT","30, 51, 78, 79, 143, 143M, 176, 201",MR ANG KAY YONG JEREMY,MRS CLAIRE TAN SHI YING,MR DANIEL ONG POH SOON,na,na,na,na,JURONG EAST,WEST,GOVERNMENT SCHOOL,CO-ED SCHOOL,SINGLE SESSION,SECONDARY (S1-S5),No,Yes,No,No,CHINESE,MALAY,TAMIL
COMPASSVALE PRIMARY SCHOOL,https://www.compassvalepri.moe.edu.sg,21 COMPASSVALE ST   ,545091,63882819,na,63882798,na,CVPS@MOE.EDU.SG,Sengkang,"83 (along Compassvale Street); 27, 89, 89E & 965 (along Compassvale Road).",MR VINCENT LEE WEI YEE,MRS MARIA KOH,MR CHIN WENG KIT KELVIN,MR KHOU BENG CHEW,na,na,na,SENG KANG,NORTH,GOVERNMENT SCHOOL,CO-ED SCHOOL,SINGLE SESSION,PRIMARY,No,No,No,No,CHINESE,MALAY,TAMIL
COMPASSVALE SECONDARY SCHOOL,http://www.compassvalesec.moe.edu.sg,51 COMPASSVALE CRESCENT   ,545083,68815047,na,68815998,na,CVSS@MOE.EDU.SG,"SENGKANG MRT, COMPASSVALE LRT","27, 27A, 82,  83,  86,  88,  89, 89E, 136, 161, 371, 965",MR CHUA TUNG KIAN,MADAM LEE WUI LIN JACQUELINE,MR SUKHDEV SINGH S/O GURDEEP SINGH,na,na,na,na,SENG KANG,NORTH,GOVERNMENT SCHOOL,CO-ED SCHOOL,SINGLE SESSION,SECONDARY (S1-S5),No,No,No,No,CHINESE,MALAY,TAMIL
CONCORD PRIMARY SCHOOL,http://www.concordpri.moe.edu.sg/,3 CHOA CHU KANG AVE 4   ,689814,67632139,na,67632452,na,CONCORD_PS@MOE.EDU.SG,Choa Chu Kang MRT Station,Bus 300 and 983,MDM CHUA LENG YIN,MADAM GOH PUAY HOON JENNY,MADAM SALBIAH BTE ABAS,MR LEE ENG LOO,na,na,na,CHOA CHU KANG,WEST,GOVERNMENT SCHOOL,CO-ED SCHOOL,SINGLE SESSION,PRIMARY,No,No,No,No,CHINESE,MALAY,TAMIL
CORPORATION PRIMARY SCHOOL,http://www.corporationpri.moe.edu.sg,31 JURONG WEST STREET 24   ,648347,67957381,na,67957098,na,CPS@MOE.EDU.SG,BOON LAY STATION; LAKESIDE STATION,"157 (from Boon Lay Interchange), or 185",MR MUHAMMAD FADYLLA B RASHIMAN,MDM GOH MUI EE,MADAM NG SEOW WEI JOSEPHINE,na,na,na,na,JURONG WEST,WEST,GOVERNMENT SCHOOL,CO-ED SCHOOL,SINGLE SESSION,PRIMARY,No,No,No,No,CHINESE,MALAY,TAMIL
CRESCENT GIRLS' SCHOOL,http://www.crescent.edu.sg,357 TANGLIN ROAD   ,247961,64758711,na,64741248,na,CRESCENTGIRL@MOE.EDU.SG,REDHILL MRT,"32, 111, 122, 132, 51, 139, 186, 970",MISS LOW SHIOK CHENG CINDY,MRS TAY PO LIN,MISS USHA JEYARAJAH,MR LIM HAN CHEE,na,na,na,BUKIT MERAH,SOUTH,GOVERNMENT SCHOOL,GIRLS' SCHOOL,SINGLE SESSION,SECONDARY (S1-S4),No,Yes,No,No,CHINESE,MALAY,TAMIL
CREST SECONDARY SCHOOL,http://www.crestsec.edu.sg,561 JURONG EAST STREET 24   ,609561,68992779,na,68992668,na,info@crestsec.edu.sg,"BUKIT BATOK MRT, JURONG EAST MRT","41, 52, 98, 98M, 105, 176, 183, 187, 188, 188R, 333, 502, 868, 990",MR KWOK CHIN POH BENJAMIN,MR TEH TUAN ANN,MADAM LEE KEE MENG,MR OTHMAN ARSAN BIN MOHD ABUBAKAR,na,na,na,JURONG EAST,WEST,SPECIALISED SCHOOL,CO-ED SCHOOL,SINGLE SESSION,SECONDARY (S1-S4),No,No,No,No,CHINESE,MALAY,TAMIL
DAMAI PRIMARY SCHOOL,http://www.damaipri.moe.edu.sg,52 BEDOK RESERVOIR CRESCENT   ,479226,64456483,na,64499681,na,DAMAI_PS@MOE.EDU.SG,Bedok North MRT Station,"Bus 228,66,65,22,21,5 and 506",MRS LEONG- TAN LING LING JENNY,MADAM LIM PECK CHIN YENLYN,MR MOHAMED JURAIMI BIN ABDUL MUHIN,na,na,na,na,BEDOK,EAST,GOVERNMENT SCHOOL,CO-ED SCHOOL,SINGLE SESSION,PRIMARY,No,No,No,No,CHINESE,MALAY,TAMIL
DAMAI SECONDARY SCHOOL,http://www.damaisec.moe.edu.sg,4800 BEDOK RESERVOIR ROAD   ,479229,64436848,na,64425629,na,DAMAI_SS@MOE.EDU.SG,"BEDOK RESERVOIR MRT, BEDOK MRT, TAMPINES MRT","5, 21, 22, 59, 65, 66, 228, 506, CT18",MADAM CHAN WAN SIONG,MR NG CHENG KEONG,MADAM PREMLATHA D/O SELVARAJ,na,na,na,na,BEDOK,EAST,GOVERNMENT SCHOOL,CO-ED SCHOOL,SINGLE SESSION,SECONDARY (S1-S5),No,No,No,No,CHINESE,MALAY,TAMIL
DAZHONG PRIMARY SCHOOL,http://www.dazhongpri.moe.edu.sg,35 BUKIT BATOK STREET 31   ,659441,65658002,na,65636421,na,DAZHONG_PS@MOE.EDU.SG,Bukit Gombak,"187, 188",MR CHRIS LOH KAI MUN,MR KOH KAH HOCK,MRS LIM SEOW KHIM MRS BOEY- LIM SEOW KHIM,MISS TAN HUI YAH,na,na,na,BUKIT BATOK,WEST,GOVERNMENT SCHOOL,CO-ED SCHOOL,SINGLE SESSION,PRIMARY,No,No,No,No,CHINESE,MALAY,TAMIL
DE LA SALLE SCHOOL,http://www.delasalle.moe.edu.sg,11 Choa Chu Kang St 52   ,689285,67667675,na,67622075,na,DLSS@MOE.EDU.SG,YEW TEE MRT,"TIBS 302, 979",MADAM CHERYL CHOO SHUEH-LI,MISS CECILIA TAN LI HUA,MISS LIU JIAZHEN ADELINE,na,na,na,na,CHOA CHU KANG,WEST,GOVERNMENT-AIDED SCH,CO-ED SCHOOL,SINGLE SESSION,PRIMARY,No,No,No,No,CHINESE,MALAY,TAMIL
DEYI SECONDARY SCHOOL,http://www.deyisec.moe.edu.sg,1 ANG MO KIO STREET 42   ,569277,64561565,na,64583364,na,DEYI_SS@MOE.EDU.SG,ANG MO KIO MRT,"22, 24, 25, 45, 50, 55, 73, 74, 76, 88, 132, 135, 159, 162, 165, 261, 262, 268, 652, 853",MR CHOW WEISI,MR APOLLOS INDUCHOODAN PILLAI,MISS CHIANG HUIMIN,na,na,na,na,ANG MO KIO,SOUTH,GOVERNMENT SCHOOL,CO-ED SCHOOL,SINGLE SESSION,SECONDARY (S1-S5),No,No,No,No,CHINESE,MALAY,TAMIL
DUNEARN SECONDARY SCHOOL,http://www.dunearnsec.moe.edu.sg,21 BUKIT BATOK WEST AVENUE 2   ,659204,65653692,na,65668650,na,DUNEARN_SS@MOE.EDU.SG,"BUKIT BATOK MRT, BUKIT GOMBAK MRT","160, 180, 187, 188, 945, 947, 985",MADAM SOH BENG MUI,MR LEE KAH SIONG JIMMY,YAP KWEE CHYE,na,na,na,na,BUKIT BATOK,WEST,GOVERNMENT SCHOOL,CO-ED SCHOOL,SINGLE SESSION,SECONDARY (S1-S5),No,No,No,No,CHINESE,MALAY,TAMIL
DUNMAN HIGH SCHOOL,http://www.dunmanhigh.moe.edu.sg,10 TANJONG RHU ROAD   ,436895,63450533,na,63442316,na,DHS@MOE.EDU.SG,"KATONG PARK MRT,ALJUNIED MRT, KALLANG MRT, MOUNTBATTEN MRT,","12, 14, 30, 158, 196",MR CHAN YING YIN,MADAM LEONG SOOK HING,MR MELVIN NG YONG HUI,MR PUAH YOU KAI,MR ONG QIU JIE,na,na,KALLANG,EAST,GOVERNMENT SCHOOL,CO-ED SCHOOL,SINGLE SESSION,MIXED LEVEL (S1-JC2),Yes,Yes,Yes,Yes,CHINESE,na,na
DUNMAN SECONDARY SCHOOL,http://www.dunmansec.moe.edu.sg,21 TAMPINES STREET 45   ,529093,67862668,na,67842164,na,DUNMAN_SS@MOE.EDU.SG,TAMPINES EAST MRT,"28, 29, 293",MR TOH THIAM CHYE,MR FATHUL RAHMAN BIN KAMSANI,MISS PRIYA PRASAD,na,na,na,na,TAMPINES,EAST,GOVERNMENT SCHOOL,CO-ED SCHOOL,SINGLE SESSION,SECONDARY (S1-S5),No,Yes,No,No,CHINESE,MALAY,TAMIL
EAST SPRING PRIMARY SCHOOL,http://www.eastspringpri.moe.edu.sg,31 TAMPINES ST 33   ,529258,67866192,na,67866649,na,ESPS@MOE.EDU.SG,Tampines,"291, 28,18",MADAM NEO LAY WAH,MADAM FAZILAH MARICAR D/O MD ALI M,MS NG HUI ENG,na,na,na,na,TAMPINES,EAST,GOVERNMENT SCHOOL,CO-ED SCHOOL,SINGLE SESSION,PRIMARY,No,No,No,No,CHINESE,MALAY,TAMIL
EAST SPRING SECONDARY SCHOOL,http://www.eastspringsec.moe.edu.sg,30 TAMPINES STREET 34   ,529231,65873805,na,65873804,na,ESSS@MOE.EDU.SG,"TAMPINES MRT, TAMPINES EAST MRT","3, 4, 9, 12, 17, 18, 19, 21, 28, 29, 34, 37, 39, 59, 81, 291, 518",MISS HO SUSIE,MR LIM PIA LEONG,MR KOH CHEE HUI,MR PHAY CHYE HOCK ADRIAN,na,na,na,TAMPINES,EAST,GOVERNMENT SCHOOL,CO-ED SCHOOL,SINGLE SESSION,SECONDARY (S1-S5),No,No,No,No,CHINESE,MALAY,TAMIL
EDGEFIELD PRIMARY SCHOOL,http://www.edgefieldpri.moe.edu.sg,41 EDGEFIELD PLAINS   ,828869,63126091,na,63126093,na,edgefield_ps@moe.edu.sg,Punggol MRT,"3, 34, 62, 82, 83, 136",MADAM RABIATHUL BAZRIYA D/O ABU BAKAR,MR YAP LIH MIN SAMUEL,MS TAN PEY SAN,TEH CHONG ANN,na,na,na,PUNGGOL,EAST,GOVERNMENT SCHOOL,CO-ED SCHOOL,SINGLE SESSION,PRIMARY,No,No,No,No,CHINESE,MALAY,TAMIL
EDGEFIELD SECONDARY SCHOOL,http://www.edgefieldsec.moe.edu.sg,36 PUNGGOL FIELD   ,828814,68839511,na,63153120,na,edgefield_ss@moe.edu.sg,PUNGGOL MRT,"3, 34, 62, 82, 83, 119, 136, 381, 382G",MR FOO JUNG HIN SIMON,MR BENSON TEO HONG GUAN (ZHANG HONGYUAN),MR HOW PUI SENG,na,na,na,na,PUNGGOL,EAST,GOVERNMENT SCHOOL,CO-ED SCHOOL,SINGLE SESSION,SECONDARY (S1-S5),No,No,No,No,CHINESE,MALAY,TAMIL
ELIAS PARK PRIMARY SCHOOL,http://www.eliasparkpri.moe.edu.sg,11 PASIR RIS STREET 52   ,518866,65844393,na,65844392,na,EPPS@MOE.EDU.SG,Pasir Ris MRT,"3, 15, 39, 53, 81, 88, 89, 357, 403, 518",MADAM CHUA PEI PEI,MR HO FU CHEW,PEH BEE KUAN,na,na,na,na,PASIR RIS,EAST,GOVERNMENT SCHOOL,CO-ED SCHOOL,SINGLE SESSION,PRIMARY,No,No,No,No,CHINESE,MALAY,TAMIL
ENDEAVOUR PRIMARY SCHOOL,https://endeavourpri.moe.edu.sg/,10 Admiralty Link   ,757521,64824650,64824835,64824670,na,endeavour_ps@moe.edu.sg,Sembawang MRT Station,"859, 962",MR KOH KIAN SENG THOMAS,MADAM CHUA HUI PIN,MISS FAUZIAH DAUD,MISS CELESTE LOH SHI MIN,na,na,na,SEMBAWANG,NORTH,GOVERNMENT SCHOOL,CO-ED SCHOOL,SINGLE SESSION,PRIMARY,No,No,No,No,CHINESE,MALAY,TAMIL
EUNOIA JUNIOR COLLEGE,http://www.eunoiajc.moe.edu.sg,2 Sin Ming Place   ,573838,63518388,na,63518399,na,eunoiajc@moe.edu.sg,"Bishan MRT Station, Marymount MRT Station, Ang Mo Kio MRT Station, Bright Hill MRT Station","13, 52, 74, 88, 130, 410G, 410W, 851, 852",MR TAN ENG HIAN ANDREW,MDM NEW YI CHEEN,MADAM PHUA KIA LING,na,na,na,na,BISHAN,NORTH,GOVERNMENT SCHOOL,CO-ED SCHOOL,FULL DAY,JUNIOR COLLEGE,No,No,No,Yes,CHINESE,MALAY,TAMIL
EVERGREEN PRIMARY SCHOOL,http://www.evergreenpri.moe.edu.sg/,31 WOODLANDS CIRCLE   ,738908,63687705,na,63688084,na,EVERGREEN_PS@MOE.EDU.SG,Admiralty,"913(front), 911 & 858(back)",MR JEFFREY AW,MR BOH CHUAN XIANG,MADAM ONG HWEE LENG,MR CHENG YOU NENG,na,na,na,WOODLANDS,NORTH,GOVERNMENT SCHOOL,CO-ED SCHOOL,SINGLE SESSION,PRIMARY,No,No,No,No,CHINESE,MALAY,TAMIL
EVERGREEN SECONDARY SCHOOL,http://www.evergreensec.moe.edu.sg,11 WOODLANDS STREET 83   ,738489,63656392,na,63658083,na,EVERGREEN_SS@MOE.EDU.SG,WOODLANDS MRT,911,MS BIAN YU WEI,MR LIM KANGYU,MADAM TAY CHOR HWEE,na,na,na,na,WOODLANDS,NORTH,GOVERNMENT SCHOOL,CO-ED SCHOOL,SINGLE SESSION,SECONDARY (S1-S5),No,No,No,No,CHINESE,MALAY,TAMIL
FAIRFIELD METHODIST SCHOOL (PRIMARY),http://www.fmsp.moe.edu.sg/,100 DOVER ROAD   ,139648,67788431,na,67762948,na,FMPS@MOE.EDU.SG,"One-North MRT, Buona Vista MRT & Dover MRT","SBS Bus 14,33,74,166 & 196",MADAM WONG MEI FOONG,MR HO KOK SOON,MADAM QUEK TSUI LAN PRISCA,MR KNG WEE BENG,na,na,na,QUEENSTOWN,SOUTH,GOVERNMENT-AIDED SCH,CO-ED SCHOOL,SINGLE SESSION,PRIMARY,No,No,No,No,CHINESE,MALAY,TAMIL
FAIRFIELD METHODIST SCHOOL (SECONDARY),http://www.fairfieldmethodistsec.moe.edu.sg,102 DOVER ROAD   ,139649,67788702,na,67797482,na,FMSS@MOE.EDU.SG,"BUONA VISTA MRT, ONE-NORTH MRT","33, 74, 166, 196",MR WEE TAT CHUEN,MR JEROMY NGIAN KUN CHUAN,MISS STELLA KOH LI HUI,MADAM CHUA JIAYIN,na,na,na,QUEENSTOWN,SOUTH,GOVERNMENT-AIDED SCH,CO-ED SCHOOL,SINGLE SESSION,SECONDARY (S1-S5),No,Yes,No,No,CHINESE,MALAY,TAMIL
FARRER PARK PRIMARY SCHOOL,http://www.farrerparkpri.moe.edu.sg,2 FARRER PARK ROAD   ,217567,62952272,na,62942272,na,FPPS@MOE.EDU.SG,Farrer Park MRT Station,131,"MR YAP SWEE BENG, DENNIS",MADAM RAHIMA BTE ABDUL RAHMAN,MR YONG WEI LEONG,na,na,na,na,KALLANG,SOUTH,GOVERNMENT SCHOOL,CO-ED SCHOOL,SINGLE SESSION,PRIMARY,No,No,No,No,CHINESE,MALAY,TAMIL
FENGSHAN PRIMARY SCHOOL,http://www.fengshanpri.moe.edu.sg,307 BEDOK NORTH ROAD   ,469680,65860123,na,65860122,na,FSPS@MOE.EDU.SG,Bedok MRT,"18, 228, 222, 17, 69, 66, 67, 168, 28, 506, 14, 45",MISS WONG LIANG- JI TABITHA,MADAM LAI KAI CHING,MS SIEW GEOK LING (SHAO YULING),na,na,na,na,BEDOK,EAST,GOVERNMENT SCHOOL,CO-ED SCHOOL,SINGLE SESSION,PRIMARY,No,No,No,No,CHINESE,MALAY,TAMIL
FERN GREEN PRIMARY SCHOOL,www.ferngreenpri.moe.edu.sg,70 Fernvale Link   Fern Green Primary School,797538,68343100,na,68343116,na,ferngreen_ps@moe.edu.sg,Kupang LRT Station (SW3),"85, 102",na,MADAM KYLICIA SOO GEOK LING,MISS CHOW CHIA MIN AGNES,"MADAM QUEK HWEE PENG, ANDREA (GUO HUIPING, ANDREA)",na,na,na,SENG KANG,NORTH,GOVERNMENT SCHOOL,CO-ED SCHOOL,SINGLE SESSION,PRIMARY,No,No,No,No,CHINESE,MALAY,TAMIL
FERNVALE PRIMARY SCHOOL,www.fernvalepri.moe.edu.sg,1 Fernvale Lane   ,797701,63153051,na,63153067,na,fernvale_ps@moe.edu.sg,Fernvale LRT (Sengkang West Loop),"Along Sengkang West Ave - Bus Services 50, 163; Along Yio Chu Kang Road - Bus Services 70, 86, 103 and 854.",MR LAU ENOCH,MISS YAP AI LI,MR RAMESH MUKUNDHAN,MR KEVIN PATT,na,na,na,SENG KANG,NORTH,GOVERNMENT SCHOOL,CO-ED SCHOOL,SINGLE SESSION,PRIMARY,No,No,No,No,CHINESE,MALAY,TAMIL
FIRST TOA PAYOH PRIMARY SCHOOL,http://www.firsttoapayohpri.moe.edu.sg,7 LORONG 8 TOA PAYOH   ,319252,62567822,na,62561102,na,FTPPS@MOE.EDU.SG,Braddell & Toa Payoh Stations,"157,153,105,159,88,FS238",MADAM JENNIFER HAN ENG JUAN,MR KOH PENG YEOW,MS TAY YAM ENG,na,na,na,na,TOA PAYOH,SOUTH,GOVERNMENT SCHOOL,CO-ED SCHOOL,SINGLE SESSION,PRIMARY,No,No,No,No,CHINESE,MALAY,TAMIL
FRONTIER PRIMARY SCHOOL,http://www.frontierpri.moe.edu.sg,20 Jurong West Street 61   ,648200,65789555,na,67908596,na,frontier_ps@moe.edu.sg,Pioneer MRT Station (EW28),"241, 974, 179",MADAM LEE YEW KOON TONNINE,MADAM CHAN YEE CHIN WILNA,MADAM WONG SHI-LEI,MR ANG BOON CHIN,na,na,na,JURONG WEST,WEST,GOVERNMENT SCHOOL,CO-ED SCHOOL,SINGLE SESSION,PRIMARY,No,No,No,No,CHINESE,MALAY,TAMIL
FUCHUN PRIMARY SCHOOL,http://www.fuchunpri.moe.edu.sg,23 WOODLANDS AVENUE 1   ,739063,63683925,na,63670117,na,FCPS@MOE.EDU.SG,Marsiling,"187,856,912,925,950,960,961,963,963E,963R,966",MADAM EUNICE LIM,MR SUDHESH VASU DASH,MR TAN CHIN KEE,na,na,na,na,WOODLANDS,NORTH,GOVERNMENT SCHOOL,CO-ED SCHOOL,SINGLE SESSION,PRIMARY,No,No,No,No,CHINESE,MALAY,TAMIL
FUHUA PRIMARY SCHOOL,http://www.fuhuapri.moe.edu.sg,65 JURONG EAST STREET 13   ,609647,65624370,na,65639542,na,FHPS@MOE.EDU.SG,JURONG EAST MRT STATION,"JURONG EAST CENTRAL (BS28441): 41,49,52,105,160,160A,160M,176,183,334,506; JURONG EAST CENTRAL (BS28431):51,66,78,79,143, 143M, 176, 335",MR GANESAN S/O RAMAN,MADAM SEOW SWEE NEO CHRISTINA,MS SAIMA HANIF D/O MOHAMED HANIF,na,na,na,na,JURONG EAST,WEST,GOVERNMENT SCHOOL,CO-ED SCHOOL,SINGLE SESSION,PRIMARY,No,No,No,No,CHINESE,MALAY,TAMIL
FUHUA SECONDARY SCHOOL,http://www.fuhuasec.moe.edu.sg,5 JURONG WEST STREET 41   ,649410,65633067,na,65634379,na,FHSS@MOE.EDU.SG,"CHINESE GARDEN MRT, LAKESIDE MRT","49, 98, 99, 157, 180, 185, 187, 198, 334, 335, 502, 657",MRS LIM CAROL,MR CHNG PUAY KEONG,MISS PEH LEE CHIN,na,na,na,na,JURONG WEST,WEST,GOVERNMENT SCHOOL,CO-ED SCHOOL,SINGLE SESSION,SECONDARY (S1-S5),No,No,No,No,CHINESE,MALAY,TAMIL
GAN ENG SENG PRIMARY SCHOOL,http://www.ganengsengpri.moe.edu.sg,100 REDHILL CLOSE   ,158901,64717451,na,64794152,na,GESPS@MOE.EDU.SG,Redhill,"14, 63, 147, 196, 197, 855, 961","MR LEE WEI YAP, ROY",MR KYAW SAW LYNN,MADAM WONG SEOK GHEE,na,na,na,na,BUKIT MERAH,SOUTH,GOVERNMENT SCHOOL,CO-ED SCHOOL,SINGLE SESSION,PRIMARY,No,No,No,No,CHINESE,MALAY,TAMIL
GAN ENG SENG SCHOOL,http://www.ganengsengsch.moe.edu.sg,1 HENDERSON ROAD   ,159561,64745594,na,64732479,na,GESS@MOE.EDU.SG,"REDHILL MRT, TIONG BAHRU MRT","14, 16, 32, 33, 51, 63, 64, 120, 122, 145, 139, 186, 851, 970",MISS TAN HWEE PIN,MADAM SARAWATHY D/O VARADARAJU,MR TAN TZE JWEE GLYNN,MR GOH THYE HENG,na,na,na,BUKIT MERAH,SOUTH,GOVERNMENT SCHOOL,CO-ED SCHOOL,SINGLE SESSION,SECONDARY (S1-S5),No,No,No,No,CHINESE,MALAY,TAMIL
GEYLANG METHODIST SCHOOL (PRIMARY),www.geylangmethodistpri.moe.edu.sg,4 Geylang East Central   ,389706,67486746,na,67488980,na,GMPS@MOE.EDU.SG,Aljunied,"80, 134, 155",MADAM LEONG BENG YUET DAPHNE,MR LUA EE PING,MADAM SHARON CHANTALE KOK YENG LING,na,na,na,na,GEYLANG,EAST,GOVERNMENT-AIDED SCH,CO-ED SCHOOL,SINGLE SESSION,PRIMARY,No,No,No,No,CHINESE,MALAY,TAMIL
GEYLANG METHODIST SCHOOL (SECONDARY),http://www.geylangmethodistsec.moe.edu.sg,2 GEYLANG EAST CENTRAL   ,389705,67466503,na,67477317,na,GMSS@MOE.EDU.SG,ALJUNIED MRT,"40, 62, 63, 80, 100, 125, 134, 155, 158",MR OWYONG TUCK SING VICTOR,MR JOHN WU YIFAN,MISS TAY HUI CHENG,na,na,na,na,GEYLANG,EAST,GOVERNMENT-AIDED SCH,CO-ED SCHOOL,SINGLE SESSION,SECONDARY (S1-S5),No,No,No,No,CHINESE,MALAY,TAMIL
GONGSHANG PRIMARY SCHOOL,http://www.gongshangpri.moe.edu.sg,1 TAMPINES STREET 42   ,529176,67831191,na,67880004,na,GSPS@MOE.EDU.SG,Tampines (Downtown Line and East West Line) and Tampines East (Downtown Line),"4, 8, 18, 19, 21, 37, 38, 81, 293",MRS STELLA KWAN,MDM NORA BTE OSMAN,MRS YIO YEN LING SELINA,MR FONG WAI KHIN,na,na,na,TAMPINES,EAST,GOVERNMENT SCHOOL,CO-ED SCHOOL,SINGLE SESSION,PRIMARY,No,No,No,No,CHINESE,MALAY,TAMIL
GREENDALE PRIMARY SCHOOL,http://www.greendalepri.moe.edu.sg,50 Edgedale Plains   ,828848,68861413,na,68861419,na,greendale_ps@moe.edu.sg,Punggol LRT:  Coral Edge,"3,62, 83, 85, 386",MADAM NOORISMAWATY BTE ISMAIL,MR SIM CHIN BENG WILSON,MR CHING KIN HIN,na,na,na,na,PUNGGOL,EAST,GOVERNMENT SCHOOL,CO-ED SCHOOL,SINGLE SESSION,PRIMARY,No,No,No,No,CHINESE,MALAY,TAMIL
GREENDALE SECONDARY SCHOOL,http://www.greendalesec.moe.edu.sg,51 EDGEDALE PLAINS   ,828866,63158616,na,63158420,na,greendale_ss@moe.edu.sg,"PUNGGOL MRT, MERIDIAN LRT","3, 62, 83, 85, 136, 386",MR SULAIMAN B MOHAMAD YUSOF,MRS YU WEN YEN ANNE MRS ANNE CHAN,MR CHIA KENG HWEE,na,na,na,na,PUNGGOL,EAST,GOVERNMENT SCHOOL,CO-ED SCHOOL,SINGLE SESSION,SECONDARY (S1-S5),No,No,No,No,CHINESE,MALAY,TAMIL
GREENRIDGE PRIMARY SCHOOL,http://www.greenridgepri.moe.edu.sg,11 JELAPANG ROAD   ,677744,67604265,na,67620189,na,GRPS@MOE.EDU.SG,"Senja LRT station, Jelapang LRT Station","Bus 920, 922, 972",MADAM ONG FEI MIN,MR WONG SUNG LAI,MR ANG KONG BENG ANDY,na,na,na,na,BUKIT PANJANG,WEST,GOVERNMENT SCHOOL,CO-ED SCHOOL,SINGLE SESSION,PRIMARY,No,No,No,No,CHINESE,MALAY,TAMIL
GREENRIDGE SECONDARY SCHOOL,http://www.greenridgesec.moe.edu.sg,31 Gangsa Road   ,678972,67691491,na,na,na,GRSS@MOE.EDU.SG,"Bukit Panjang MRT, Bukit Panjang LRT, Petir LRT","65, 75, 170, 170A, 171, 176, 177, 178, 180, 180A, 920, 922, 960, 961, 963, 963E, 963R, 970, 972, 972A, 972, 972A, 972M, 973, 973A, 974, 975, 976, 979, 983",MR NG BOON KIAT,MRS DALINA BTE ABDULLAH,MR NGOH SING KIEN,na,na,na,na,BUKIT PANJANG,WEST,GOVERNMENT SCHOOL,CO-ED SCHOOL,SINGLE SESSION,SECONDARY (S1-S5),No,No,No,No,CHINESE,MALAY,TAMIL
GREENWOOD PRIMARY SCHOOL,http://www.greenwoodpri.moe.edu.sg,11 WOODLANDS  DR  62   ,737942,63666158,na,63666159,na,GREENWOOD_PS@MOE.EDU.SG,Admiralty MRT Station,"912, 913, 962",MADAM TANG PEI LU TRICILIA,MR KIRUPANANTHA KUMAR S/O PALAIYAN,MR LEE HUAN SIAK,MR TAN KAR WEE,na,na,na,WOODLANDS,NORTH,GOVERNMENT SCHOOL,CO-ED SCHOOL,SINGLE SESSION,PRIMARY,No,No,No,No,CHINESE,MALAY,TAMIL
GUANGYANG SECONDARY SCHOOL,http://guangyangsec.moe.edu.sg,8 BISHAN STREET 12   ,579807,62589781,na,63543108,na,GYSS@MOE.EDU.SG,BISHAN MRT,"13, 56, 57, 59, 71, 88, 93, 157, 163, 410",MISS TAN KE XIN,MR HAN WEE FONG (HAN WEIFENG),MISS WU XINPING JENNIFER,MR ANBALAGAN S/O THANGARAJAH,na,na,na,BISHAN,SOUTH,GOVERNMENT SCHOOL,CO-ED SCHOOL,SINGLE SESSION,SECONDARY (S1-S5),No,No,No,No,CHINESE,MALAY,TAMIL
HAI SING CATHOLIC SCHOOL,http://www.haisingcatholic.moe.edu.sg,15 PASIR RIS STREET 21   ,518969,65827864,na,65822543,na,HSHS@MOE.EDU.SG,PASIR RIS MRT,"3, 5, 6, 89, 109",MISS LIM MUI MUI ADELINE,MISS SHEREEN WONG MINGRUI,"MADAM TAN PHUAY BOON, GWEN",MR KONG WEI FOONG,na,na,na,PASIR RIS,EAST,GOVERNMENT-AIDED SCH,CO-ED SCHOOL,SINGLE SESSION,SECONDARY (S1-S5),No,No,No,No,CHINESE,MALAY,TAMIL
HAIG GIRLS' SCHOOL,http://www.haiggirls.moe.edu.sg,51 Koon Seng Road   ,427072,63440293,na,64474169,na,HAIGGIRLSSCH@MOE.EDU.SG,"Eunos, Dakota","16,33",MS MARION DONNE TAY SZE LENG (ZHENG SHILING),MADAM GOH SWEE LIN EVELYN,MISS SEAH XIAO YUN SHERLYN,na,na,na,na,GEYLANG,EAST,GOVERNMENT SCHOOL,GIRLS' SCHOOL,SINGLE SESSION,PRIMARY,No,No,No,No,CHINESE,MALAY,TAMIL
HENRY PARK PRIMARY SCHOOL,http://www.henryparkpri.moe.edu.sg,1 HOLLAND GROVE ROAD   ,278790,64663600,na,64691840,na,HPPS@MOE.EDU.SG,"Buona Vista MRT, Clementi MRT","7, 61, 75, 156, 157, 165, 92",MR CHAN GEOK ANN CHARLES,MR CHUA CHYE HOCK,MRS JEAN TOH,MISS REGINA KIM LEE HOON,na,na,na,BUKIT TIMAH,WEST,GOVERNMENT SCHOOL,CO-ED SCHOOL,SINGLE SESSION,PRIMARY,No,No,Yes,No,CHINESE,MALAY,TAMIL
HILLGROVE SECONDARY SCHOOL,http://www.hillgrovesec.moe.edu.sg,10 BUKIT BATOK STREET 52   ,659250,65603726,na,65630920,na,HILLGROVE_SS@MOE.EDU.SG,"BUKIT BATOK MRT, BUKIT GOMBAK MRT","176, 985, 945",MADAM LEE CHING GUAN HELEN,MR ADAM BIN AHMAD,CHIANG HOCK YEE,na,na,na,na,BUKIT BATOK,WEST,GOVERNMENT SCHOOL,CO-ED SCHOOL,SINGLE SESSION,SECONDARY (S1-S5),No,No,No,No,CHINESE,MALAY,TAMIL
HOLY INNOCENTS' HIGH SCHOOL,http://www.holyinnocentshigh.moe.edu.sg,1191 UPPER SERANGOON ROAD   ,534786,62833381,na,62831737,na,HIHS@MOE.EDU.SG,HOUGANG MRT,"27, 72, 74, 80, 87, 89, 101, 107, 113, 116, 119, 132, 136, 147, 153, 161, 165, 324, 325",MRS REBECCA CHEW,MISS CAROL ANN MARTIN,"MR TEO HAN WOON, DENNIS",MADAM ONG LEE LEE,na,na,na,HOUGANG,SOUTH,GOVERNMENT-AIDED SCH,CO-ED SCHOOL,SINGLE SESSION,SECONDARY (S1-S5),No,No,No,No,CHINESE,MALAY,TAMIL
HOLY INNOCENTS' PRIMARY SCHOOL,http://www.holyinnocentspri.moe.edu.sg/,5 Lorong Low Koon   ,536451,62886516,na,62876393,na,HOLYINNOCENT@MOE.EDU.SG,2km walk to Hougang MRT,"51,72,80,101,119,132,136,153.",MISS SEET ENG GEOK LENA,MADAM TOO SIEW HAN JOYCE,MADAM GOH HUI CHENG,MR NG CHEONG ANN,na,na,na,HOUGANG,SOUTH,GOVERNMENT-AIDED SCH,CO-ED SCHOOL,SINGLE SESSION,PRIMARY,Yes,No,No,No,CHINESE,na,na
HONG WEN SCHOOL,http://www.hongwen.moe.edu.sg,30 TOWNER ROAD   ,327829,62943340,na,62937625,na,HWS@MOE.EDU.SG,Boon Keng MRT,"Serangoon Road: 13, 23, 31, 64, 65, 66, 125, 133, 147, 857, 985; Balestier Road: 21, 125, 130, 139, 145",MRS THERESA HONG-NG,MR ONG SZE CHONG,MISS TEO AI LIN,MADAM CHRISTINE POON TZE MEI,na,na,na,KALLANG,SOUTH,GOVERNMENT-AIDED SCH,CO-ED SCHOOL,SINGLE SESSION,PRIMARY,Yes,No,No,No,CHINESE,na,na
HORIZON PRIMARY SCHOOL,http://www.horizonpri.moe.edu.sg,61 Edgedale Plains   ,828819,67535411,na,67523971,na,horizon_ps@moe.edu.sg,Punggol MRT Station (NE17); (LRT: Kadaloor [PE5] or Oasis [PE6]),"3, 50, 83, 85, 569",MADAM CHIA HUI KHIM,"MISS SEET SIEW LIN, PAMELA",MADAM SENTHIL POONKODI D/O R K,MR PHANG CHEE KHENG,na,na,na,PUNGGOL,EAST,GOVERNMENT SCHOOL,CO-ED SCHOOL,SINGLE SESSION,PRIMARY,No,No,No,No,CHINESE,MALAY,TAMIL
HOUGANG PRIMARY SCHOOL,http://www.hougangpri.moe.edu.sg/,1 HOUGANG ST 93   ,534238,64897445,na,64897446,na,HOUGANG_PS@MOE.EDU.SG,"Ang Mo Kio, Buangkok, Hougang, Sengkang, Yio Chu Kang","SBS 43, 72, 88, 101, 109, 116, 156, 159, 325, 329","MR GOH WAI MIN, JASON",MISS LIEW PANG HAI,MADAM SHARIFAH FAIRUZ BTE S Y A,MADAM LIM SIEW GIM,na,na,na,HOUGANG,NORTH,GOVERNMENT SCHOOL,CO-ED SCHOOL,SINGLE SESSION,PRIMARY,No,No,No,No,CHINESE,MALAY,TAMIL
HOUGANG SECONDARY SCHOOL,http://www.hougangsec.moe.edu.sg,2 HOUGANG STREET 93   ,534256,63851990,na,63852015,na,HOUGANG_SS@MOE.EDU.SG,"HOUGANG MRT, BUANGKOK MRT","43, 88, 101, 109, 156, 159, 161, 325, 329",MR LEE THUAN SIM,MR LIM SOON WAI,MR TAY YUAN ZHUANG,na,na,na,na,HOUGANG,NORTH,GOVERNMENT SCHOOL,CO-ED SCHOOL,SINGLE SESSION,SECONDARY (S1-S5),No,No,No,No,CHINESE,MALAY,TAMIL
HUA YI SECONDARY SCHOOL,http://www.huayisec.moe.edu.sg,60 JURONG WEST ST 42   ,649371,65634568,na,65634505,na,HYSS@MOE.EDU.SG,"LAKESIDE MRT, CHINESE GARDEN MRT","49, 98, 98B, 98M, 99, 157, 185, 187, 198, 198A, 334, 335, 502",DR. LIM SIEW YEE,MADAM TAN KAY BIN,MR NG JOO KOON,na,na,na,na,JURONG WEST,WEST,GOVERNMENT SCHOOL,CO-ED SCHOOL,SINGLE SESSION,SECONDARY (S1-S5),No,No,No,No,CHINESE,MALAY,TAMIL
HUAMIN PRIMARY SCHOOL,http://www.huaminpri.moe.edu.sg,21 YISHUN AVENUE 11   ,768857,67529004,na,67552455,na,HUAMIN_PS@MOE.EDU.SG,Yishun MRT Station,"806, 804",MADAM LOE LAI PINK,MADAM BALAKRISHNAN CORINNE ANNE,MR HONG CHIN KEAT,MR LEE LIN CHIEH,na,na,na,YISHUN,NORTH,GOVERNMENT SCHOOL,CO-ED SCHOOL,SINGLE SESSION,PRIMARY,No,No,No,No,CHINESE,MALAY,TAMIL
HWA CHONG INSTITUTION,http://www.hwachong.edu.sg,661 BUKIT TIMAH ROAD   ,269734,64683955,65786644,67695857,na,admin@hci.edu.sg,TAN KAH KEE MRT,"66, 67, 74, 151, 154, 156, 157, 170, 170A, 174, 852, 961, 961M",MR LEE PECK PING,MR CHAN KWOK LEONG,MRS CHIN-LEOW BEE KUAN,MISS HO PING PING,DR LIM HONG SENG MELVYN,MISS HOW LAI YIN DEBORAH,MDM LIM MIAU TENG CHERYL,BUKIT TIMAH,WEST,INDEPENDENT SCHOOL,CO-ED SCHOOL,SINGLE SESSION,MIXED LEVEL (S1-JC2),Yes,No,Yes,Yes,CHINESE,na,na
INNOVA PRIMARY SCHOOL,http://www.innovapri.moe.edu.sg/,80 Woodlands Drive 17   ,737888,68944693,na,68942573,na,innova_pri@moe.edu.sg,Woodlands,"900A (weekdays only - 7.00 am to 8.30 am & 4.30 pm to 6.30 pm), 901",MR YEE YEW LOONG,MR LAU YEAN HUI,na,na,na,na,na,WOODLANDS,NORTH,GOVERNMENT SCHOOL,CO-ED SCHOOL,SINGLE SESSION,PRIMARY,No,No,No,No,CHINESE,MALAY,TAMIL
JIEMIN PRIMARY SCHOOL,http://www.jieminpri.moe.edu.sg,2 YISHUN STREET 71   ,768515,67586472,na,67559958,na,JIEMIN_PS@MOE.EDU.SG,Yishun MRT Station,"167, 169, 171, 800, 811, 812, 856, 858, 859, 969, 980",MR ANDY MICKEY CHOONG TEK CHOY,MRS NUR FATIMAH BTE ABDUL MALIK MRS NUR FATIMAH FRAUDER,MISS WONG KAH WAN JOY,na,na,na,na,YISHUN,NORTH,GOVERNMENT SCHOOL,CO-ED SCHOOL,SINGLE SESSION,PRIMARY,No,No,No,No,CHINESE,MALAY,TAMIL
JING SHAN PRIMARY SCHOOL,http://www.jingshanpri.moe.edu.sg,5 ANG MO KIO ST 52   ,569228,64566305,na,64581619,na,JSPS@MOE.EDU.SG,Ang Mo Kio MRT,Bus 265,MADAM BOEY HUEY PENG SHARON,MISS NG SUAT THENG ANGELA,MR JONATHON LOH,MISS LIM EE LENG ELLEN,na,na,na,ANG MO KIO,SOUTH,GOVERNMENT SCHOOL,CO-ED SCHOOL,SINGLE SESSION,PRIMARY,No,No,No,No,CHINESE,MALAY,TAMIL
JUNYUAN PRIMARY SCHOOL,https://junyuanpri.moe.edu.sg,2 Tampines Street 91   ,528906,67830375,na,67887395,na,JUNYUAN_PS@MOE.EDU.SG,Tampines West (Downtown Line); Tampines (East-West Line),"76281: 46, 65, 129; 76061: 10, 15, 20, 21, 23, 27, 31, 34, 39, 67, 168, 292; 75051: 5, 8, 15, 18, 21, 23, 28, 59, 67, 118, 168, 513, 518",MR CHAN WENG CHEONG,MRS CHEANG MENG TSING,MADAM CHUT SHI LIN,MR WILLIAM CHUE WAI LEONG,na,na,na,TAMPINES,EAST,GOVERNMENT SCHOOL,CO-ED SCHOOL,SINGLE SESSION,PRIMARY,No,No,No,No,CHINESE,MALAY,TAMIL
JUNYUAN SECONDARY SCHOOL,https://junyuansec.moe.edu.sg/,11 TAMPINES STREET 84   ,528933,65873683,na,na,na,JUNYUAN_SS@MOE.EDU.SG,"TAMPINES MRT, TAMPINES WEST MRT","69, 291, 293, 46",MR TAY MENG KIAT,MR LIN PEI,MR GAN THIAM SOON ALLAN,na,na,na,na,TAMPINES,EAST,GOVERNMENT SCHOOL,CO-ED SCHOOL,SINGLE SESSION,SECONDARY (S1-S5),No,No,No,No,CHINESE,MALAY,TAMIL
JURONG PIONEER JUNIOR COLLEGE,http://jpjc.moe.edu.sg,21 Teck Whye Walk   ,688258,65646878,na,67651861,na,jpjc@moe.edu.sg,Choa Chu Kang / Bt Panjang / Phoenix Station (LRT),"975, 190, 985",MR KEVIN ANG,MRS LEE BEE CHEOW,MR NAH HONG LEONG,MR POW TIEN MIN JARON,MR PHUA YONG SWEE,na,na,CHOA CHU KANG,WEST,GOVERNMENT SCHOOL,CO-ED SCHOOL,FULL DAY,JUNIOR COLLEGE,No,No,No,No,CHINESE,MALAY,TAMIL
JURONG PRIMARY SCHOOL,http://www.jurongpri.moe.edu.sg,320 JURONG EAST Street 32   ,609476,65618837,na,65641964,na,JPS@MOE.EDU.SG,"Lakeside MRT Station, Jurong East MRT Station",333,MR LEONARD CHUA,MISS TAN PEIRU,MR TAN YUAN SHIN,na,na,na,na,JURONG EAST,WEST,GOVERNMENT SCHOOL,CO-ED SCHOOL,SINGLE SESSION,PRIMARY,No,No,No,No,CHINESE,MALAY,TAMIL
JURONG SECONDARY SCHOOL,http://www.jurongsec.moe.edu.sg,31 YUAN CHING ROAD   ,618652,62655980,na,62686414,na,JURONG_SS@MOE.EDU.SG,LAKESIDE MRT,"30, 49, 98, 154, 240, 246",MISS YEO SIOK EE,MADAM LER SIAH WOON JULIA,MR LU YEOW CHOR,na,na,na,na,JURONG WEST,WEST,GOVERNMENT SCHOOL,CO-ED SCHOOL,SINGLE SESSION,SECONDARY (S1-S5),No,No,No,No,CHINESE,MALAY,TAMIL
JURONG WEST PRIMARY SCHOOL,http://www.jurongwestpri.moe.edu.sg,30 JURONG WEST ST 61   ,648368,67933419,na,67936593,na,JWPS@MOE.EDU.SG,Pioneer MRT Station,192,MRS CHRISTINA LIM LAY LENG,MADAM SIM EE KOON PATRICIA,MISS TAN WAN KHENG,MR LIM CHIN GUAN,na,na,na,JURONG WEST,WEST,GOVERNMENT SCHOOL,CO-ED SCHOOL,SINGLE SESSION,PRIMARY,No,No,No,No,CHINESE,MALAY,TAMIL
JURONG WEST SECONDARY SCHOOL,https://www.jurongwestsec.moe.edu.sg,61 JURONG WEST STREET 65   ,648348,62623593,na,62623587,na,JWSS@MOE.EDU.SG,"BOON LAY MRT, PIONEER MRT","30, 154, 157, 180, 187, 198, 242",MISS TAN MING MING,MS TAN JIING SHYUAN,MDM ZARINA BINTE AMIR,na,na,na,na,JURONG WEST,WEST,GOVERNMENT SCHOOL,CO-ED SCHOOL,SINGLE SESSION,SECONDARY (S1-S5),No,No,No,No,CHINESE,MALAY,TAMIL
JURONGVILLE SECONDARY SCHOOL,http://www.jurongvillesec.moe.edu.sg,202 JURONG EAST AVENUE 1   ,609790,65638704,na,65662137,na,JURONGVILLE@MOE.EDU.SG,"JURONG EAST MRT, LAKESIDE MRT","98, 98M, 99, 157, 185, 187, 198, 334, 502",MR LEOW ZHI WEN PHILIBERT,MR YONG KEK SHOONG,MISS IBAIDAH BINTE IBRAHIM,na,na,na,na,JURONG EAST,WEST,GOVERNMENT SCHOOL,CO-ED SCHOOL,SINGLE SESSION,SECONDARY (S1-S5),No,No,No,No,CHINESE,MALAY,TAMIL
JUYING SECONDARY SCHOOL,http://juyingsec.moe.edu.sg,33 JURONG WEST STREET 91   ,649038,63089898,na,67932835,na,JUYING_SS@MOE.EDU.SG,"BOON LAY MRT, PIONEER MRT, JOO KOON MRT","99, 241",MR ANG CHERN KWANG,MR NG HAN MING,MR CHUA YEW WEI,na,na,na,na,JURONG WEST,WEST,GOVERNMENT SCHOOL,CO-ED SCHOOL,SINGLE SESSION,SECONDARY (S1-S5),No,No,No,No,CHINESE,MALAY,TAMIL
MEE TOH SCHOOL,http://www.meetoh.moe.edu.sg/,21 EDGEDALE PLAINS   ,828867,64893326,na,64893243,na,MEETOH_SCH@MOE.EDU.SG,Punggol Station,"3,62,83,381",MR TAY HSIEN CHUAN KELVIN,MISS HUANG YILAN LYNNE,MR LEE CHONG TART RONALD,MR NG KOK HENG,na,na,na,PUNGGOL,NORTH,GOVERNMENT-AIDED SCH,CO-ED SCHOOL,SINGLE SESSION,PRIMARY,No,No,No,No,CHINESE,MALAY,TAMIL
KEMING PRIMARY SCHOOL,http://www.kemingpri.moe.edu.sg,90 BUKIT BATOK EAST AVENUE 6   ,659762,68962054,na,65632356,na,KMPS@MOE.EDU.SG,Bukit Batok,"61,66,77,106,157,174,178,963",MRS MRS YAP DAI JEE,MS LEOW MEI LENG (LIU MEICEN),MISS NG MEI YUN,na,na,na,na,BUKIT BATOK,WEST,GOVERNMENT SCHOOL,CO-ED SCHOOL,SINGLE SESSION,PRIMARY,No,No,No,No,CHINESE,MALAY,TAMIL
KENT RIDGE SECONDARY SCHOOL,http://www.kentridgesec.moe.edu.sg,147 WEST COAST ROAD   ,127368,67731127,na,67735119,na,KRSS@MOE.EDU.SG,"CLEMENTI MRT, HAW PAR VILLA MRT","30, 51, 143, 175, 176, 201, 282",MADAM GOH MIEN HUI VALERIE,MADAM YAP SHARON,"MR POH LEONG BERG, ALBERT",na,na,na,na,CLEMENTI,WEST,GOVERNMENT SCHOOL,CO-ED SCHOOL,SINGLE SESSION,SECONDARY (S1-S5),No,No,No,No,CHINESE,MALAY,na
KHENG CHENG SCHOOL,http://www.khengcheng.moe.edu.sg/,15 LORONG 3 TOA PAYOH   ,319580,62552502,na,62556569,na,KCS@MOE.EDU.SG,Braddell,"SBS 235,56,73,88,157,159,163,231,",MADAM TAN HUILING CHERYL,MR KHOO GHEE HAN,MR PUN KIAN PENG,na,na,na,na,TOA PAYOH,SOUTH,GOVERNMENT-AIDED SCH,CO-ED SCHOOL,SINGLE SESSION,PRIMARY,No,No,No,No,CHINESE,MALAY,TAMIL
KONG HWA SCHOOL,http://www.konghwa.moe.edu.sg,350 GUILLEMARD ROAD   ,399772,63421195,na,63421120,na,KONGHWA_SCH@MOE.EDU.SG,Dakota,"Service 7,70,70M,197(to Guillemard Road)",MR POON SIOW LENG RAYMOND,MADAM UE TAY SZE YIN,MADAM TEO SIEW KHIM,MADAM NG BEE HOON,na,na,na,GEYLANG,EAST,GOVERNMENT-AIDED SCH,CO-ED SCHOOL,SINGLE SESSION,PRIMARY,Yes,No,No,No,CHINESE,na,na
KRANJI PRIMARY SCHOOL,http://kranjipri.moe.edu.sg,11 CHOA CHU KANG STREET 54   ,689189,67634812,na,67634568,na,KRANJI_PS@MOE.EDU.SG,Yew Tee MRT,"Bus No 307, 302",MADAM GOH MEEI YUNN,MR SATHYA PRASAD S/O G,MADAM WONG SEOW LING,MADAM LEE LENG HUI (LI LINGHUI),na,na,na,CHOA CHU KANG,WEST,GOVERNMENT SCHOOL,CO-ED SCHOOL,SINGLE SESSION,PRIMARY,No,No,No,No,CHINESE,MALAY,TAMIL
KRANJI SECONDARY SCHOOL,http://www.kranjisec.moe.edu.sg,61 CHOA CHU KANG STREET 51   ,689333,67662464,na,67662095,na,KRANJI_SS@MOE.EDU.SG,"CHOA CHU KANG MRT, YEW TEE MRT","302, 974, 979",MR CHUA LEK HONG,MR KOO TIANNUO,MADAM ONG LAY LING,na,na,na,na,CHOA CHU KANG,WEST,GOVERNMENT SCHOOL,CO-ED SCHOOL,SINGLE SESSION,SECONDARY (S1-S5),No,No,No,No,CHINESE,MALAY,TAMIL
KUO CHUAN PRESBYTERIAN PRIMARY SCHOOL,http://www.kuochuanpresbyterianpri.moe.edu.sg,8 BISHAN STREET 13   ,579793,62595396,na,62588012,na,KCPPS@MOE.EDU.SG,Bishan MRT Station,"54, 56, 410, 410G",MADAM YEE-TOH GEK KHIAW,MISS LIN HUIXIN SHARON,MR TAN CHIN HENG,na,na,na,na,BISHAN,SOUTH,GOVERNMENT-AIDED SCH,CO-ED SCHOOL,SINGLE SESSION,PRIMARY,No,No,No,No,CHINESE,MALAY,TAMIL
KUO CHUAN PRESBYTERIAN SECONDARY SCHOOL,http://www.kuochuanpresbyteriansec.moe.edu.sg,10 BISHAN STREET 13   ,579795,62593811,na,63536535,na,KCPSS@MOE.EDU.SG,BISHAN MRT,"54, 56, 410G, 410W",MR JUSTIN TAN,MADAM LEE CHUI ENG,MR EKA TANU,MR PHANG TECK KING,na,na,na,BISHAN,SOUTH,GOVERNMENT-AIDED SCH,CO-ED SCHOOL,SINGLE SESSION,SECONDARY (S1-S5),No,No,No,No,CHINESE,MALAY,TAMIL
LAKESIDE PRIMARY SCHOOL,http://www.lakesidepri.moe.edu.sg/,161 Corporation Walk   ,618310,62620918,na,62621021,na,lakeside_ps@moe.edu.sg,Lakeside MRT,"30, 49, 98, 98M",MADAM YAP SIU LIN,MISS HAN MINGFANG CHARMAIN,MISS TAN HUI PING,MADAM CHUA LENG LENG (CAI LINGLING),na,na,na,JURONG WEST,WEST,GOVERNMENT SCHOOL,CO-ED SCHOOL,SINGLE SESSION,PRIMARY,No,No,No,No,CHINESE,MALAY,TAMIL
LIANHUA PRIMARY SCHOOL,http://www.lianhuapri.moe.edu.sg/,2 BUKIT BATOK STREET 52   ,659243,65639502,na,65639591,na,LIANHUA_PS@MOE.EDU.SG,Bukit Gombak/Bukit Batok,945,MISS KIEW HUI LI PAMELA,MADAM MAVIS SIEW SOOK LING,MADAM TAN WAN PHING JANICE,"MR LEE TZE WEI, JEFFREY",na,na,na,BUKIT BATOK,WEST,GOVERNMENT SCHOOL,CO-ED SCHOOL,SINGLE SESSION,PRIMARY,No,No,No,No,CHINESE,MALAY,TAMIL
LOYANG VIEW SECONDARY SCHOOL,http://www.loyangviewsec.moe.edu.sg,12 PASIR RIS STREET 11   ,519073,65821727,na,65810557,na,loyangview_ss@moe.edu.sg,PASIR RIS MRT,"12, 21, 39, 53, 81, 109, 359, 518",MR LIN YUCHENG EUGENE,MS SAADIAH SAADON WYLDE,MADAM TAN SHAO MAY,MISS LIEW XUE TING ADELINE,na,na,na,PASIR RIS,EAST,GOVERNMENT SCHOOL,CO-ED SCHOOL,SINGLE SESSION,SECONDARY (S1-S5),No,No,No,No,CHINESE,MALAY,TAMIL
MAHA BODHI SCHOOL,http://www.mahabodhi.moe.edu.sg/,10 UBI AVENUE 1   ,408931,67442115,na,67443752,na,MBS@MOE.EDU.SG,"Eunos Station (Transfer Bus No.63, 63M); Ubi Station (Transfer Bus No. 137)","5,8,15,22,25,45,51,55,59,61,63,63M,65,66,93,94,137,854",MADAM TENG LAI KWAN,MR WEE HOCK MENG VICTOR,MR YE JIAMING AARON,MADAM LENG BING LING (LIANG BINGLING),na,na,na,GEYLANG,EAST,GOVERNMENT-AIDED SCH,CO-ED SCHOOL,SINGLE SESSION,PRIMARY,Yes,No,No,No,CHINESE,na,na
MANJUSRI SECONDARY SCHOOL,http://www.manjusrisec.moe.edu.sg,20 UBI AVENUE 1   ,408940,68424558,na,67454492,na,MANJUSRI_SS@MOE.EDU.SG,"UBI MRT, MACPHERSON MRT","5, 8, 15, 22, 25, 45, 51, 55, 59, 61, 63, 63M, 65, 66, 93, 94, 137, 854",MR SIM CHONG BOON,MR LIN JUNKAI,MR GOH PAI SHEN,na,na,na,na,GEYLANG,EAST,GOVERNMENT-AIDED SCH,CO-ED SCHOOL,SINGLE SESSION,SECONDARY (S1-S5),No,No,No,No,CHINESE,MALAY,na
MARIS STELLA HIGH SCHOOL,http://www.marisstellahigh.moe.edu.sg,25 MOUNT VERNON ROAD   ,368051,62803880 (Sec),62827743 (Pri),62886905 (Sec),62827905 (Pri),MSH@MOE.EDU.SG,BARTLEY MRT,"28, 93, 129, 158",MR BOY ENG SENG,MRS LIM QING YI,MR PAN JINGLIU,MR TAN CHING HUAT,MDM ANG CHWEE YING PEARLY,MR LEE KO YONG,na,TOA PAYOH,NORTH,GOVERNMENT-AIDED SCH,BOYS' SCHOOL,SINGLE SESSION,MIXED LEVEL (P1-S4),Yes,Yes,No,No,CHINESE,na,na
MARSILING PRIMARY SCHOOL,http://www.marsilingpri.moe.edu.sg,31 WOODLANDS CENTRE ROAD   ,738927,62696193,na,62699050,na,MARSILING_PS@MOE.EDU.SG,Marsiling MRT Station,"856, 911, 912",MADAM HEATHER SIM SIAW CHENG,MR JACKSON KEK,na,na,na,na,na,WOODLANDS,NORTH,GOVERNMENT SCHOOL,CO-ED SCHOOL,SINGLE SESSION,PRIMARY,No,No,No,No,CHINESE,MALAY,TAMIL
MARSILING SECONDARY SCHOOL,http://www.marsilingsec.moe.edu.sg,12 MARSILING ROAD   ,739110,68941413,na,68946156,na,MARSILING_SS@MOE.EDU.SG,MARSILING MRT,"913, 911",MR KOH YIAK KHENG,MR MOHAMED NASIM S/O ABDUL RAHIM,MR TAN TONG AIK,na,na,na,na,WOODLANDS,NORTH,GOVERNMENT SCHOOL,CO-ED SCHOOL,SINGLE SESSION,SECONDARY (S1-S5),No,No,No,No,CHINESE,MALAY,TAMIL
MARYMOUNT CONVENT SCHOOL,HTTP://WWW.MARYMOUNTCONVENT.MOE.EDU.SG,20 Marymount Road   ,297754,6256 6701,6256 6532,6254 3080,na,MMCS@MOE.EDU.SG,Braddell MRT Station or Caldecott MRT Station,"141, 235",MISS CHEONG HWEE KHIM,MRS HING SZE MEING DEBBIE (XING SIMIN DEBBIE),MADAM TAN MEI MEI ANNA,MR LOH YEH CHANG HENRY,na,na,na,TOA PAYOH,SOUTH,GOVERNMENT-AIDED SCH,GIRLS' SCHOOL,SINGLE SESSION,PRIMARY,No,No,No,No,CHINESE,MALAY,TAMIL
MAYFLOWER PRIMARY SCHOOL,http://www.mayflowerpri.moe.edu.sg,200 Ang Mo Kio Avenue 5   ,569878,64520849,na,64534116,na,MAYFLOWER_PS@MOE.EDU.SG,Yio Chu Kang MRT Station.,"13,86,138,162,269,851,852,853.",MISS CECILIA LIM SEOK CHENG,MADAM CHNG HWUI LIN WINEFREDE,MRS SANTHI D/O K RAMACHANDRAN,MR KWOK KENG LIAN,na,na,na,ANG MO KIO,SOUTH,GOVERNMENT SCHOOL,CO-ED SCHOOL,SINGLE SESSION,PRIMARY,No,No,No,No,CHINESE,MALAY,TAMIL
MAYFLOWER SECONDARY SCHOOL,http://www.mayflowersec.moe.edu.sg,2 ANG MO KIO STREET 21   ,569384,64577783,na,64583284,na,MAYFLOWER_SS@MOE.EDU.SG,"ANG MO KIO MRT, MAYFLOWER MRT","71, 76, 132, 165, 166, 169, 262, 265, 268, 269",MR LIM YU KEE,MR GOH KENG TENG,MR PRASHANT S/O JAYAPRAGAS,MADAM NUR HIDAYANI IBRAHIM,na,na,na,ANG MO KIO,SOUTH,GOVERNMENT SCHOOL,CO-ED SCHOOL,SINGLE SESSION,SECONDARY (S1-S5),No,No,No,No,CHINESE,MALAY,TAMIL
MERIDIAN PRIMARY SCHOOL,http://www.meridianpri.moe.edu.sg/,20 PASIR RIS ST 71   ,518798,65832125,na,65834993,na,MERIDIAN_PS@MOE.EDU.SG,Pasir Ris MRT Station,"3,359",MDM CHEW SIANG JIUN,MR LIM KIM MIN (LIN JINMIN),MR WANG TAI WEE,na,na,na,na,PASIR RIS,EAST,GOVERNMENT SCHOOL,CO-ED SCHOOL,SINGLE SESSION,PRIMARY,No,No,No,No,CHINESE,MALAY,TAMIL
MERIDIAN SECONDARY SCHOOL,http://www.meridiansec.moe.edu.sg,31 PASIR RIS STREET 51   ,518901,65831387,na,65836467,na,meridian_sec@moe.edu.sg,PASIR RIS MRT,"39, 53, 81, 89, 109, 359, 403, 518",MR MOHAMED RAZALI B ABDUL HAMED,MISS TAN LI PING,MRS TAY NGEE SEEW,na,na,na,na,PASIR RIS,EAST,GOVERNMENT SCHOOL,CO-ED SCHOOL,SINGLE SESSION,SECONDARY (S1-S5),No,No,No,No,CHINESE,MALAY,TAMIL
METHODIST GIRLS' SCHOOL (PRIMARY),https://www.mgs.moe.edu.sg/,11 Blackmore Drive   ,599986,64694800,na,64624166,na,MGPS@MOE.EDU.SG,King Albert Park MRT,"66, 67, 74, 77, 151, 154, 157, 170, 171, 174, 852, 961, 970",KOH MING-LI VALARIE,MADAM YEOW CHERN EE,"MR TENG TAT MENG, CHARLES",na,na,na,na,BUKIT TIMAH,WEST,GOVERNMENT-AIDED SCH,GIRLS' SCHOOL,SINGLE SESSION,PRIMARY,No,No,No,No,CHINESE,MALAY,TAMIL
METHODIST GIRLS' SCHOOL (SECONDARY),http://www.mgs.moe.edu.sg,11 BLACKMORE DRIVE   ,599986,64694800,na,64698717,na,MGSS@MOE.EDU.SG,KING ALBERT PARK MRT,"66, 67, 74, 77, 151, 154, 157, 170, 174, 852, 961, 970",MADAM KOH MING- LI VALARIE,MADAM CHNG YI NA @MRS WRIGHT YI NA,MDM TAN P'ENG DIANA,MR YIP WAI CHOONG,na,na,na,BUKIT TIMAH,WEST,INDEPENDENT SCHOOL,GIRLS' SCHOOL,SINGLE SESSION,SECONDARY (S1-S4),No,No,No,Yes,CHINESE,MALAY,TAMIL
MILLENNIA INSTITUTE,http://www.millenniainstitute.moe.edu.sg,60 Bukit Batok West Avenue 8   ,658965,63023700,na,63023767,na,millennia_inst@moe.edu.sg,Bukit Batok (NS 2),"157, 174, 174e, 178, 506, 870, 941, 991, 993",MR LOO MING YAW,MR LIN GUOJING,MR TAN KENG CHEONG,MR DAVID ALLAN D'SOUZA,na,na,na,BUKIT BATOK,WEST,GOVERNMENT SCHOOL,CO-ED SCHOOL,FULL DAY,CENTRALISED INSTITUTE,No,No,No,No,CHINESE,MALAY,TAMIL
MONTFORT JUNIOR SCHOOL,http://www.montfortjunior.moe.edu.sg/,52 HOUGANG AVENUE 8   ,538786,65101588,na,65101599,na,MONTFORT_JS@MOE.EDU.SG,Hougang MRT & Bus Interchange,"74,88,101,147,161,",MR TAN BOON HONG VICTOR,MADAM POH LEE SIEW,MR TAN WEE BOON,na,na,na,na,HOUGANG,NORTH,GOVERNMENT-AIDED SCH,BOYS' SCHOOL,SINGLE SESSION,PRIMARY,No,No,No,No,CHINESE,MALAY,TAMIL
MONTFORT SECONDARY SCHOOL,https://montfortsec.moe.edu.sg/,50 HOUGANG AVENUE 8   ,538785,65107070,na,63862804,na,MONTFORT_SS@MOE.EDU.SG,HOUGANG MRT,"74, 74e, 88, 88A, 101, 147, 147A, 161","MADAM HENG SUE LIN, JANICE",MR WILSON TAY SWEE KIAT,MISS TAN MEI LING AUDREY,MADAM TAN LAY YEN,na,na,na,HOUGANG,NORTH,GOVERNMENT-AIDED SCH,BOYS' SCHOOL,SINGLE SESSION,SECONDARY (S1-S5),No,No,No,No,CHINESE,MALAY,TAMIL
NAN CHIAU HIGH SCHOOL,http://www.nanchiauhigh.moe.edu.sg,20 ANCHORVALE LINK   ,545079,64897971,na,64897970,na,NCHS@MOE.EDU.SG,"SENGKANG MRT, RENJONG LRT, TONGKANG LRT","43, 83, 85, 109, 156, 159, 161, 163, 372",MADAM LER JIA LUEN,MADAM CHOW NYET YOON,DR. OH BEE LENG HESTER,na,na,na,na,SENG KANG,NORTH,GOVERNMENT-AIDED SCH,CO-ED SCHOOL,SINGLE SESSION,SECONDARY (S1-S5),Yes,No,No,No,CHINESE,na,na
NAN CHIAU PRIMARY SCHOOL,http://www.ncps.moe.edu.sg,50 ANCHORVALE LINK   ,545080,64897905,na,64897906,na,NCPS@MOE.EDU.SG,Sengkang Station,"156, 159, 161, 371, 372",MRS ONG LOH JIA MIIN,"MDM HOE QUEE HIANG, BELINDA",MADAM LIM SHEUE TYUG,MR WINSTON TAN WEE SING,na,na,na,SENG KANG,NORTH,GOVERNMENT-AIDED SCH,CO-ED SCHOOL,SINGLE SESSION,PRIMARY,No,No,No,No,CHINESE,MALAY,TAMIL
NAN HUA HIGH SCHOOL,http://www.nanhuahigh.moe.edu.sg,41 CLEMENTI AVENUE 1   ,129956,67788303,na,67751956,na,NHSS@MOE.EDU.SG,CLEMENTI MRT,"14, 33, 52, 78, 96, 97, 105, 106, 147, 151, 154, 165, 166, 183, 185, 188, 189, 196, 197, 198, 282, 285, 963",MR CHIEW JING WEN,MISS TAY JIA MING JASMINE,MR LOO JIAMING,MR LEE KOK BOON,na,na,na,CLEMENTI,WEST,GOVERNMENT SCHOOL,CO-ED SCHOOL,SINGLE SESSION,SECONDARY (S1-S5),Yes,Yes,No,No,CHINESE,na,na
NAN HUA PRIMARY SCHOOL,http://www.nanhuapri.moe.edu.sg,30 Jalan Lempeng   ,128806,67788050,na,67784127,na,NHPS@MOE.EDU.SG,Clementi MRT Station,"30, 51, 143, 175, 201, 533, 655, 727, 762",MADAM PHUA YIN LIN GRACE,MISS TEH LAY CHOO ANNE,"MR LIM PENG YUAN, ANDY",na,na,na,na,CLEMENTI,WEST,GOVERNMENT-AIDED SCH,CO-ED SCHOOL,SINGLE SESSION,PRIMARY,Yes,No,Yes,No,CHINESE,na,na
NANYANG GIRLS' HIGH SCHOOL,https://www.nygh.edu.sg,2 LINDEN DRIVE   ,288683,64663275,na,64667564,na,NYGHS@MOE.EDU.SG,"SIXTH AVENUE MRT, TAN KAH KEE MRT","67, 74, 151, 154, 156, 157, 170, 174, 852, 961",MISS SIAU FONG FUI,MS NG MIEN MIEN AGNES,MISS GAYNOR TEH,MS TAN MEEI YEE MAE PAULINE,na,na,na,BUKIT TIMAH,WEST,INDEPENDENT SCHOOL,GIRLS' SCHOOL,SINGLE SESSION,SECONDARY (S1-S4),Yes,No,Yes,Yes,CHINESE,na,na
NANYANG JUNIOR COLLEGE,http://www.nanyangjc.moe.edu.sg/,128 SERANGOON AVENUE 3   ,556111,62842281,na,62855147,na,NYJC@MOE.EDU.SG,Lorong Chuan (Circle Line/CC14); 3-minute walk via sheltered walkway,"22, 24, 45, 53, 58, 73, 105, 109, 133, 135, 136, 156, 853",MR PANG CHOON HOW,MISS JASMINE ONG PEISHAN,MRS OH-YOW SIHUA KEN,MADAM CHAN MEI FUNG JOYCE,na,na,na,SERANGOON,SOUTH,GOVERNMENT-AIDED SCH,CO-ED SCHOOL,FULL DAY,JUNIOR COLLEGE,No,No,No,No,CHINESE,MALAY,TAMIL
NANYANG PRIMARY SCHOOL,http://www.nyps.moe.edu.sg,52 KING'S ROAD   ,268097,64672677,na,64686913,na,NYPS@MOE.EDU.SG,Farrer Rd MRT Station,"66, 67, 74, 93, 151, 153, 154, 156, 157, 165, 170, 171, 174, 186, 852, 855, 961",MADAM WONG LI PENG,MS LIM KAR WAE FIONA,MISS SHARLENE CHYE HUI TING,MR JAMES CHONG KOK CHIANG,na,na,na,BUKIT TIMAH,WEST,GOVERNMENT-AIDED SCH,CO-ED SCHOOL,SINGLE SESSION,PRIMARY,Yes,No,Yes,No,CHINESE,na,na
NATIONAL JUNIOR COLLEGE,http://www.nationaljc.moe.edu.sg,37 HILLCREST ROAD   ,288913,64661144,na,64684535,na,NJC@MOE.EDU.SG,"BOTANIC GARDENS MRT, TAN KAH KEE MRT, SIXTH AVENUE MRT","67, 74, 151, 154, 156, 157, 170, 174, 852, 961",MRS TOH LUCY,MR HARESH S/O SIVARAM,MISS SIM SOO LENG AILEEN,MR CHONG CHEE KEONG ALVIN,na,na,na,BUKIT TIMAH,SOUTH,GOVERNMENT SCHOOL,CO-ED SCHOOL,FULL DAY,MIXED LEVEL (S1-JC2),No,No,No,Yes,CHINESE,MALAY,TAMIL
NAVAL BASE PRIMARY SCHOOL,http://www.navalbasepri.moe.edu.sg/,7 YISHUN AVE 4   ,769028,67537114,na,67555355,na,NBPS@MOE.EDU.SG,Yishun MRT Station,Feeder bus No. 811 from Yishun Interchange.,MR CHIA CHEE WENG RICHARD CHRIS,MADAM LIM WAI CHOO MRS GOH WAI CHOO,MADAM WANG MING HWEE,MADAM THAM LAI PENG,na,na,na,YISHUN,NORTH,GOVERNMENT SCHOOL,CO-ED SCHOOL,SINGLE SESSION,PRIMARY,No,No,No,No,CHINESE,MALAY,TAMIL
NAVAL BASE SECONDARY SCHOOL,http://www.navalbasesec.moe.edu.sg,901 YISHUN RING ROAD   ,768689,62571996,na,67557706,na,NBSS@MOE.EDU.SG,KHATIB MRT,"39, 85, 117, 670, 807, 811, 812, 851, 852, 853, 854, 855, 857, 858, 861, 965, 969",MADAM LINDA YEO SOCK KHOON,MR LIM SEOW KUAN,MR MUHAMMAD SHAHARI B ABU BAKAR,na,na,na,na,YISHUN,NORTH,GOVERNMENT SCHOOL,CO-ED SCHOOL,SINGLE SESSION,SECONDARY (S1-S5),No,No,No,No,CHINESE,MALAY,TAMIL
NEW TOWN PRIMARY SCHOOL,http://www.newtownpri.moe.edu.sg/,300 Tanglin Halt Road   ,148812,64748805,na,64741249,na,NTPS@MOE.EDU.SG,Commonwealth MRT Station,"SBS Numbers 32, 100, 105, 111, 145, 147, 195, 196, 198, 855",MISS HANNAH CHIA CUI'E,MRS CHIN WEY LING LYNNE,MADAM FOO HUEY YING (FU HUIYING),na,na,na,na,QUEENSTOWN,SOUTH,GOVERNMENT SCHOOL,CO-ED SCHOOL,SINGLE SESSION,PRIMARY,No,No,No,No,CHINESE,MALAY,TAMIL
NEW TOWN SECONDARY SCHOOL,http://www.newtownsec.moe.edu.sg,1020 DOVER ROAD   ,139657,67754140,na,67752310,na,NTSS@MOE.EDU.SG,"DOVER MRT, CLEMENTI MRT","33, 96, 96A, 151, 196, 183",MR ARIVAZHAGAN MANICKAM,MISS GOH YI LING ELISSA,MR LEONARD TAN SOON TECK,na,na,na,na,QUEENSTOWN,WEST,GOVERNMENT SCHOOL,CO-ED SCHOOL,SINGLE SESSION,SECONDARY (S1-S5),No,No,No,No,CHINESE,MALAY,TAMIL
NGEE ANN PRIMARY SCHOOL,http://www.ngeeannpri.moe.edu.sg,344 MARINE TERRACE   ,449149,64418677,na,64417411,na,NAPS@MOE.EDU.SG,Nil,"13, 16, 16M, 31,36, 43, 47, 48, 55, 135, 196, 196E, 197, 853M (at Marine Parade road); 13, 16, 16M, 196 and 196E(at Marine Terrace)",MADAM PANG SIU SAN,MADAM LEE LI LI,MADAM LOW LEE CHERN,na,na,na,na,MARINE PARADE,EAST,GOVERNMENT-AIDED SCH,CO-ED SCHOOL,SINGLE SESSION,PRIMARY,No,No,No,No,CHINESE,MALAY,TAMIL
NGEE ANN SECONDARY SCHOOL,http://www.ngeeannsec.moe.edu.sg,1 TAMPINES STREET 32   ,529283,67844583,na,67840453,na,NASS@MOE.EDU.SG,"TAMPINES MRT, SIMEI MRT, TAMPINES EAST MRT","3, 4, 8, 9, 12, 17, 18, 19, 21, 28, 29, 34, 37, 38, 39, 59, 81, 291, 293, 518, 552",MISS POH SHI HUI,MR GOH CHIN WEI,MADAM TAN LAY GIN,na,na,na,na,TAMPINES,EAST,GOVERNMENT-AIDED SCH,CO-ED SCHOOL,SINGLE SESSION,SECONDARY (S1-S5),No,Yes,No,No,CHINESE,MALAY,TAMIL
NORTH SPRING PRIMARY SCHOOL,http://www.northspringpri.moe.edu.sg,1 RIVERVALE STREET   ,545088,68816887,63888764,63851044,na,NSPS@MOE.EDU.SG,NEL - Sengkang Station; LRT - Bakau Station,"SBS Transit Services 82, 85, 86, 88, 119, 136, 163, 372",MADAM PHAN SWEE LIN SHERIN JACINTA,MR TAN YEW LEE,MADAM SALIEMA BINTE MOHAMED IQBAL,na,na,na,na,SENG KANG,NORTH,GOVERNMENT SCHOOL,CO-ED SCHOOL,SINGLE SESSION,PRIMARY,No,No,No,No,CHINESE,MALAY,TAMIL
NORTH VIEW PRIMARY SCHOOL,http://www.northviewpri.moe.edu.sg,210 YISHUN AVENUE 6   ,768960,67593235,na,67593237,na,NVPS@MOE.EDU.SG,Yishun; Khatib,"Feeder Service 804, 806, 807, 860",MRS GRACE CHUA,MR RAJINDER SINGH S/O PIARA SINGH,MADAM LING SOOK LENG,MR CHAN SOON HUA,na,na,na,YISHUN,NORTH,GOVERNMENT SCHOOL,CO-ED SCHOOL,SINGLE SESSION,PRIMARY,No,No,No,No,CHINESE,MALAY,TAMIL
NORTH VISTA PRIMARY SCHOOL,http://www.northvistapri.moe.edu.sg,20 Compassvale Link   ,544974,64843566,na,64843568,na,nvtps@moe.edu.sg,"Buangkok MRT (NE15), Ranggung LRT (SE5)",na,MR ONG LYE WHATT,MR AMRAN B TASRIF,MISS GOH AI LING,MADAM KANG SIEW LENG AUDREY,na,na,na,SENG KANG,NORTH,GOVERNMENT SCHOOL,CO-ED SCHOOL,SINGLE SESSION,PRIMARY,No,No,No,No,CHINESE,MALAY,TAMIL
NORTH VISTA SECONDARY SCHOOL,http://www.northvistasec.moe.edu.sg,11 RIVERVALE LINK   ,545081,68793930,na,68793931,na,NORTHVISTASS@MOE.EDU.SG,"SENGKANG MRT, BUANGKOK MRT, RANGGUNG LRT","80, 82, 87, 88, 89, 119",MR YAP THIAM CHUAN,MR PILLAY P KRISHNAN,MISS WU XIAOYUAN,MR KWEK CHIN LEONG,na,na,na,SENG KANG,NORTH,GOVERNMENT SCHOOL,CO-ED SCHOOL,SINGLE SESSION,SECONDARY (S1-S5),No,No,No,No,CHINESE,MALAY,TAMIL
NORTHBROOKS SECONDARY SCHOOL,http://www.northbrookssec.moe.edu.sg,585 YISHUN RING ROAD   ,768692,67524311,na,67566110,na,NORTHBROOKS@MOE.EDU.SG,"YISHUN MRT, KHATIB MRT","804, 806, 807, 860, 103",MR CHEN XUANTING EDMUND,MISS GOH PEISHI,MR YIP KOK HOONG (YE GUOXIONG),MR LIM YANG CHERNG,na,na,na,YISHUN,NORTH,GOVERNMENT SCHOOL,CO-ED SCHOOL,SINGLE SESSION,SECONDARY (S1-S5),No,No,No,No,CHINESE,MALAY,TAMIL
NORTHLAND PRIMARY SCHOOL,http://www.northlandpri.moe.edu.sg,15 YISHUN AVENUE 4   ,769026,67598884,na,67559196,na,NORTHLAND_PS@MOE.EDU.SG,Yishun MRT Station,812 (next to bus service number 171) at Yishun Interchange,MR JAY WESTLY MAHARDALE,MR CHONG CHOONG HIAN,MISS LEE QUEE CHOO GINA,na,na,na,na,YISHUN,NORTH,GOVERNMENT SCHOOL,CO-ED SCHOOL,SINGLE SESSION,PRIMARY,No,No,No,No,CHINESE,MALAY,TAMIL
NORTHLAND SECONDARY SCHOOL,http://www.northlandsec.moe.edu.sg,3 YISHUN STREET 22   ,768578,62576781,na,62573634,na,NORTHLAND_SS@MOE.EDU.SG,YISHUN MRT,"811, 804, 800",MR LIM KOK HWA,MR PETERSON JOSEPH STANLEY,MR LOW CHEE WAI,MR CHEEN HSIEN HONG,na,na,na,YISHUN,NORTH,GOVERNMENT SCHOOL,CO-ED SCHOOL,SINGLE SESSION,SECONDARY (S1-S5),No,No,No,No,CHINESE,MALAY,TAMIL
NORTHLIGHT SCHOOL,https://www.nls.edu.sg,151 Towner Road   ,327830,69296290,na,62912423,na,nls@moe.edu.sg,BOON KENG (NE9),"21, 125, 130, 139, 145, 13, 23, 31, 64, 65, 133, 147, 857, 985",MADAM SUNG MEE HAR,MR GAN KOK SOON SIMON,MR HSU YU CHIH TOMMY,na,na,na,na,KALLANG,SOUTH,SPECIALISED SCHOOL,CO-ED SCHOOL,FULL DAY,SECONDARY (S1-S4),No,No,No,No,CHINESE,MALAY,TAMIL
NORTHOAKS PRIMARY SCHOOL,http://www.northoakspri.moe.edu.sg,61 Sembawang Drive   ,757622,6753 8835,na,6753 8864,na,northoaks_ps@moe.edu.sg,Sembawang MRT,Bus number 962,"MR CHER TECK YIANG, LUKE MELVIN",MADAM KOMATHI D/O GOVINDASAMY,MR OW EU GENE JOHN,na,na,na,na,SEMBAWANG,NORTH,GOVERNMENT SCHOOL,CO-ED SCHOOL,SINGLE SESSION,PRIMARY,No,No,No,No,CHINESE,MALAY,TAMIL
NORTHSHORE PRIMARY SCHOOL,https://northshorepri.moe.edu.sg/,30 Northshore Drive   ,828671,62026490,na,62026491,na,northhshore_ps@moe.edu.sg,Puggol Point LRT Station,"84, 384",MADAM LEE YEN PING CHRISTINE,MADAM GAN SER MIN,MADAM ONG YIN PENG,na,na,na,na,PUNGGOL,EAST,GOVERNMENT SCHOOL,CO-ED SCHOOL,SINGLE SESSION,PRIMARY,No,No,No,No,CHINESE,MALAY,TAMIL
NUS HIGH SCHOOL OF MATHEMATICS AND SCIENCE,www.nushigh.edu.sg,20 Clementi Avenue 1   ,129957,65161709,na,67756910,na,einstein@highsch.nus.edu.sg,Nearest MRT Stations - Clementi and Dover,"96, 97, 151, 183, 188, 189, 196, 197, 198",MADAM SOH LAI LENG MAGDALEN,MR GOH HOCK LEONG,"MS KHOO LEE YONG, SHARON",MRS LAI SOO HONG,na,na,na,CLEMENTI,WEST,SPECIALISED INDEPENDENT SCHOOL,CO-ED SCHOOL,FULL DAY,MIXED LEVEL (S1-JC2),No,No,Yes,Yes,CHINESE,MALAY,TAMIL
OASIS PRIMARY SCHOOL,http://www.oasispri.moe.edu.sg/,71 Edgefield Plains   ,828716,6320 9855,na,6320 9856,na,oasis_ps@moe.edu.sg,Damai LRT Station,"50, 386",MR POH LEONG KIAT DANNY,MADAM HO JUN- LYNN,MR MOHAMED IMRAN B MOHAMED IHSAN,MISS CHUA MAY CHING,na,na,na,PUNGGOL,EAST,GOVERNMENT SCHOOL,CO-ED SCHOOL,SINGLE SESSION,PRIMARY,No,No,No,No,CHINESE,MALAY,TAMIL
OPERA ESTATE PRIMARY SCHOOL,http://www.operaestatepri.moe.edu.sg,48 FIDELIO STREET   ,458436,62410417,na,64493042,na,OEPS@MOE.EDU.SG,"Bedok, Kembangan",42,MADAM HOO WAI LING,MR KENNY RAPHAEL REYES,MR RAYMOND TAY KOON MING,MR GOH LENG SENG,na,na,na,BEDOK,EAST,GOVERNMENT SCHOOL,CO-ED SCHOOL,SINGLE SESSION,PRIMARY,No,No,No,No,CHINESE,MALAY,TAMIL
ORCHID PARK SECONDARY SCHOOL,http://www.orchidparksec.moe.edu.sg,10 YISHUN STREET 81   ,768454,67598547,na,67588770,na,OPSS@MOE.EDU.SG,KHATIB MRT,811,MR CHUNG KWOK LEONG DANIEL,MADAM TEO MEI LIN YVONNE,MR NG KOK WING,na,na,na,na,YISHUN,NORTH,GOVERNMENT SCHOOL,CO-ED SCHOOL,SINGLE SESSION,SECONDARY (S1-S5),No,No,No,No,CHINESE,MALAY,TAMIL
OUTRAM SECONDARY SCHOOL,http://www.outramsec.moe.edu.sg,3 YORK HILL   ,168622,67334077,na,62352337,na,OSS@MOE.EDU.SG,"OUTRAM PARK MRT, CHINATOWN MRT","174 , 123, 16, 175, 195, 33, 5, 63, 75, 851, 970, 123, 186, 51, 64",MR TAN KOK HONG,MISS TAN YEE LIN ELAINE,na,na,na,na,na,CENTRAL,SOUTH,GOVERNMENT SCHOOL,CO-ED SCHOOL,SINGLE SESSION,SECONDARY (S1-S5),No,No,No,No,CHINESE,MALAY,TAMIL
PALM VIEW PRIMARY SCHOOL,http://www.palmviewpri.moe.edu.sg,150 Compassvale Bow   ,544822,65087300,na,68754150,na,palmview_ps@moe.edu.sg,Buangkok,"27,43,109,156,159,161,163,163M,550",MRS MING KUM,MR ANG WEI TECK,MISS KHAIRIAH BTE HAIROMAN,MISS CHUA CHEW HIANG,na,na,na,SENG KANG,NORTH,GOVERNMENT SCHOOL,CO-ED SCHOOL,SINGLE SESSION,PRIMARY,No,No,No,No,CHINESE,MALAY,TAMIL
PARK VIEW PRIMARY SCHOOL,http://www.parkviewpri.moe.edu.sg,60 PASIR RIS DRIVE 1   ,519524,65851421,na,65851401,na,PVPS@MOE.EDU.SG,Pasir Ris MRT Station,"358,39,53,81,89",MISS LIE SUYIN JAMIE,MADAM HO FUI FONG,MADAM LIM CHIU EE,na,na,na,na,PASIR RIS,EAST,GOVERNMENT SCHOOL,CO-ED SCHOOL,SINGLE SESSION,PRIMARY,No,No,No,No,CHINESE,MALAY,TAMIL
PASIR RIS CREST SECONDARY SCHOOL,http://www.prcss.moe.edu.sg,11 PASIR RIS STREET 41   ,518934,65811655,na,65813226,na,PRCSS@MOE.EDU.SG,PASIR RIS MRT,"358, 17, 81, 12, 3",MRS KOH CAIYU,MR HANSEL LIN DAOYANG,MR LEE SENG LEE,na,na,na,na,PASIR RIS,EAST,GOVERNMENT SCHOOL,CO-ED SCHOOL,SINGLE SESSION,SECONDARY (S1-S5),No,No,No,No,CHINESE,MALAY,TAMIL
PASIR RIS PRIMARY SCHOOL,http://www.pasirrispri.moe.edu.sg,5 PASIR RIS STREET 21   ,518968,65822606,na,65828492,na,PRPS@MOE.EDU.SG,Pasir Ris MRT,"3,5,6,89",MS LIZA BTE RAHMAT,MADAM HENG WEI SHAN,MADAM THILAGAMANI D/O T SIVANANDAM,na,na,na,na,PASIR RIS,EAST,GOVERNMENT SCHOOL,CO-ED SCHOOL,SINGLE SESSION,PRIMARY,No,No,No,No,CHINESE,MALAY,TAMIL
PASIR RIS SECONDARY SCHOOL,https://pasirrissec.moe.edu.sg,390 TAMPINES STREET 21   ,529400,65010800,65010855,65010900,na,PRSS@MOE.EDU.SG,"TAMPINES MRT, TAMPINES EAST MRT,  TAMPINES WEST MRT","3, 4, 8, 10, 15, 18, 19, 20, 21, 22, 23, 27, 28, 29, 31, 37, 38, 39, 46, 65, 67, 68, 69, 72, 81, 127, 129, 168, 291, 292, 293, 298, 969",MADAM GRACE TAN BEE SIM,MS S SANTHA D/O SUKUMARAN,MADAM LEE BENG CHOO,na,na,na,na,TAMPINES,EAST,GOVERNMENT SCHOOL,CO-ED SCHOOL,SINGLE SESSION,SECONDARY (S1-S5),No,No,No,No,CHINESE,MALAY,TAMIL
PAYA LEBAR METHODIST GIRLS' SCHOOL (PRIMARY),http://www.payalebarmethodistgirlspri.moe.edu.sg/,298 LORONG AH SOO   ,536741,62862795,na,62803915,na,PLMGPS@MOE.EDU.SG,"Kovan (NE13), Serangoon(NE12/CC13)","45, 53, 53M, 62, 113",MRS MRS JOYCE ANG,MADAM TANG WAI YUE,MRS ESTHER SEE-LING SZENGEN,na,na,na,na,HOUGANG,EAST,GOVERNMENT-AIDED SCH,GIRLS' SCHOOL,SINGLE SESSION,PRIMARY,No,No,No,No,CHINESE,MALAY,TAMIL
PAYA LEBAR METHODIST GIRLS' SCHOOL (SECONDARY),http://www.plmgss.moe.edu.sg,296 LOR AH SOO   ,536742,62816606,na,63820558,na,PLMGSS@MOE.EDU.SG,"KOVAN MRT, SERANGOON MRT","45, 53, 53M, 62, 113",MISS NG AMY,MADAM TAN MAY LIN SELINA,MS TOH SUSAN,MR NING TAU YEE,na,na,na,HOUGANG,EAST,GOVERNMENT-AIDED SCH,GIRLS' SCHOOL,SINGLE SESSION,SECONDARY (S1-S5),No,Yes,No,No,CHINESE,MALAY,TAMIL
PEI CHUN PUBLIC SCHOOL,http://www.peichunpublic.moe.edu.sg,16 LORONG 7 TOA PAYOH   ,319320,63539450,na,63538418,na,PCPS@MOE.EDU.SG,Toa Payoh MRT Station and Braddell MRT Station,"Bus Service 232, 57",MISS ONG LEE CHOO,MR LIM JIT HIN,MISS YANG JINGYU,MR REEVE SIM (SHEN GUANZE),na,na,na,TOA PAYOH,SOUTH,GOVERNMENT-AIDED SCH,CO-ED SCHOOL,SINGLE SESSION,PRIMARY,Yes,No,No,No,CHINESE,na,na
PEI HWA PRESBYTERIAN PRIMARY SCHOOL,http://www.peihwapresbyterianpri.moe.edu.sg/,7 PEI WAH AVENUE   ,597610,64663787,64663797,64621944,na,PHPPS@MOE.EDU.SG,Beauty World,"970, 852, 174, 173, 157, 77, 61",MRS ALLISON LIM,MR LEONG WEI MING CALEB,MADAM YONG MING WOEI CHLOE,na,na,na,na,BUKIT TIMAH,WEST,GOVERNMENT-AIDED SCH,CO-ED SCHOOL,SINGLE SESSION,PRIMARY,Yes,No,No,No,CHINESE,na,na
PEI HWA SECONDARY SCHOOL,http://www.peihwasec.moe.edu.sg,21 FERNVALE LINK   ,797702,65009580,na,63438326,na,peihwasec@moe.edu.sg,"SENGKANG MRT, LAYAR LRT","50, 70, 86, 103, 163, 854",MR MOHD AZHAR B TERIMO,MRS MICHELLE RAJARATHNAM,MR OW WENG KEONG,na,na,na,na,SENG KANG,NORTH,GOVERNMENT SCHOOL,CO-ED SCHOOL,SINGLE SESSION,SECONDARY (S1-S5),No,No,No,No,CHINESE,MALAY,TAMIL
PEI TONG PRIMARY SCHOOL,http://www.peitongpri.moe.edu.sg/,15 CLEMENTI AVENUE 5   ,129857,67775458,na,67789784,na,PTPS@MOE.EDU.SG,Clementi,"7, 184, 282",MRS ONG-CHEW LU SEE,MR JASON WONG QI HUA,MR MOHAMED YAZEED BIN MOHAMED SAID,MR KOH SEE CHOON,na,na,na,CLEMENTI,WEST,GOVERNMENT SCHOOL,CO-ED SCHOOL,SINGLE SESSION,PRIMARY,No,No,No,No,CHINESE,MALAY,TAMIL
PEICAI SECONDARY SCHOOL,http://www.peicaisec.moe.edu.sg,10 SERANGOON AVENUE 4   ,556094,62021260,na,na,na,PEICAI_SS@MOE.EDU.SG,SERANGOON MRT,"22, 24, 43, 53, 70, 76, 103, 109, 116, 147, 156, 315, 317, 853",MR MICHAEL MUHUNTHAN S/O SUBRAMANIAM,MADAM JESMINE CHUNG KAH MIN,MR SHUE PEI YAN,na,na,na,na,SERANGOON,SOUTH,GOVERNMENT SCHOOL,CO-ED SCHOOL,SINGLE SESSION,SECONDARY (S1-S5),No,No,No,No,CHINESE,MALAY,TAMIL
PEIRCE SECONDARY SCHOOL,http://www.peircesec.moe.edu.sg,10 SIN MING WALK   ,575566,64576454,na,64576448,na,PEIRCE_SS@MOE.EDU.SG,"ANG MO KIO MRT, BISHAN MRT, MARYMOUNT MRT, BRIGHT HILL MRT","52, 132, 162, 163, 165, 166, 167, 410, 855, 980",MR KEH CHIN CHUAN BENEDICT,MR JIN SEBASTIAN,MS NG BOON MIN,MADAM PEH TZU FENG,na,na,na,BISHAN,SOUTH,GOVERNMENT SCHOOL,CO-ED SCHOOL,SINGLE SESSION,SECONDARY (S1-S5),No,No,No,No,CHINESE,MALAY,TAMIL
PEIYING PRIMARY SCHOOL,http://www.peiyingpri.moe.edu.sg,651 YISHUN RING ROAD   ,768687,62575684,na,67558802,na,PYPS@MOE.EDU.SG,Khatib,"851, 852, 853, 854, 855",MADAM WONG WEI YONG,MR ABDUL RANI BIN IDRIS,MISS NG PEI SUN,na,na,na,na,YISHUN,NORTH,GOVERNMENT SCHOOL,CO-ED SCHOOL,SINGLE SESSION,PRIMARY,No,No,No,No,CHINESE,MALAY,TAMIL
PIONEER PRIMARY SCHOOL,http://www.pioneerpri.moe.edu.sg,80 TENGAH GARDEN AVENUE   ,699915,67932039,na,67932040,na,PIONEER_PS@MOE.EDU.SG,Boon Lay Station,"219, 241",MADAM LOKE WAI LING,MR TAN HOCK CHYE CHARLES,MADAM WONG WEI YI,na,na,na,na,TENGAH,WEST,GOVERNMENT SCHOOL,CO-ED SCHOOL,SINGLE SESSION,PRIMARY,No,No,No,No,CHINESE,MALAY,TAMIL
POI CHING SCHOOL,http://www.poiching.moe.edu.sg,21 TAMPINES STREET 71   ,529067,67856420,na,67857198,na,POICHING_SCH@MOE.EDU.SG,Tampines MRT,"Bus 293, 72, 27 and 168",MADAM LIM TZYY SHIUAN,MISS CHAN JING JING,MRS TAN MEI LING IRENE MRS IRENE GOH HOCK NGUAN,na,na,na,na,TAMPINES,EAST,GOVERNMENT-AIDED SCH,CO-ED SCHOOL,SINGLE SESSION,PRIMARY,Yes,No,No,No,CHINESE,na,na
PRESBYTERIAN HIGH SCHOOL,http://www.presbyterian.moe.edu.sg,5209 ANG MO KIO AVENUE 6   ,569845,64543722,na,64543430,na,PRESBYTERIAN@MOE.EDU.SG,YIO CHU KANG MRT,"45, 70, 70M, 71, 76, 86, 668, 825, 851, 851e, 852, 853, 853M",MADAM ONG HUI MIIN ANGELINE,MR CHENG CHI EN,MR TAY SOON INN TIMOTHY,na,na,na,na,ANG MO KIO,SOUTH,GOVERNMENT-AIDED SCH,CO-ED SCHOOL,SINGLE SESSION,SECONDARY (S1-S5),No,No,No,No,CHINESE,MALAY,TAMIL
PRINCESS ELIZABETH PRIMARY SCHOOL,http://www.princesselizabethpri.moe.edu.sg,30 BUKIT BATOK WEST AVENUE 3   ,659163,65655111,na,65637859,na,PEPS@MOE.EDU.SG,Bukit Batok MRT Station,"Bus 174, 157, 178, 66, 941",MR BUCKTHA SEELAN,MADAM CHU SING EE,MISS NGIAM WEE HENG,MISS TOH CUI LIN,na,na,na,BUKIT BATOK,WEST,GOVERNMENT SCHOOL,CO-ED SCHOOL,SINGLE SESSION,PRIMARY,No,No,No,No,CHINESE,MALAY,TAMIL
PUNGGOL COVE PRIMARY SCHOOL,https://punggolcovepri.moe.edu.sg/,52 Sumang Walk   ,828674,63857339,na,63857261,na,punggolcove_ps@moe.edu.sg,Nibong LRT Station,"382W, 84",MADAM SEAH WHYE CHOO,MR ANDREW CHONG WENYI,MADAM CAI XIRUI,MISS CHNG SHI HUA,na,na,na,PUNGGOL,EAST,GOVERNMENT SCHOOL,CO-ED SCHOOL,SINGLE SESSION,PRIMARY,No,No,No,No,CHINESE,MALAY,TAMIL
PUNGGOL GREEN PRIMARY SCHOOL,http://www.punggolgreenpri.moe.edu.sg,98 Punggol Walk   ,828772,65383011,na,65383210,na,admin_punggolgreen_ps@moe.edu.sg,Punggol MRT Station,"117, 117M, 119, 381, 382G, 666",MR HANAFI B ASMORE,MRS TAY CHAI HONG,MR JASBIR SINGH,MADAM CHRISTINA TEE SIEW PING,na,na,na,PUNGGOL,EAST,GOVERNMENT SCHOOL,CO-ED SCHOOL,SINGLE SESSION,PRIMARY,No,No,No,No,CHINESE,MALAY,TAMIL
PUNGGOL PRIMARY SCHOOL,http://www.punggolpri.moe.edu.sg/,61 HOUGANG AVENUE 8   ,538787,63850762,na,63877793,na,PUNGGOL_PS@MOE.EDU.SG,"Hougang, Buangkok",62 74 88 113 147 325,MADAM NORLIZA BTE A RAHIM,MR GOH CHANG CHUEN,MADAM LIM HUI MEOW ANNIE,MISS USHA RANI HENRY,na,na,na,HOUGANG,SOUTH,GOVERNMENT SCHOOL,CO-ED SCHOOL,SINGLE SESSION,PRIMARY,No,No,No,No,CHINESE,MALAY,TAMIL
PUNGGOL SECONDARY SCHOOL,http://www.punggolsec.moe.edu.sg,51 EDGEFIELD PLAINS   ,828870,64897851,na,64897859,na,PUNGGOL_SS@MOE.EDU.SG,"PUNGGOL MRT, COVE LRT","3, 34, 62, 82, 83, 85, 136, 965, 386",MS TNG YA WEN VALERIE,MR ANITH KUMAR S/O NADESAN,MADAM GOH YEONG JING,MR NG CHEE KIANG,na,na,na,PUNGGOL,EAST,GOVERNMENT SCHOOL,CO-ED SCHOOL,SINGLE SESSION,SECONDARY (S1-S5),No,No,No,No,CHINESE,MALAY,TAMIL
PUNGGOL VIEW PRIMARY SCHOOL,http://www.punggolviewpri.moe.edu.sg,9 Punggol Place   ,828845,6570 1588,na,6570 3680,na,punggolview_ps@moe.edu.sg,Punggol MRT Station,50; 382,MR WONG KIN MUN,MDM DE SOUZA SANDRA ANNE,MADAM SHARIFAH SAMIRAH BTE SYED MOHAMAD,MR CHONG WEE MING,na,na,na,PUNGGOL,EAST,GOVERNMENT SCHOOL,CO-ED SCHOOL,SINGLE SESSION,PRIMARY,No,No,No,No,CHINESE,MALAY,TAMIL
QIFA PRIMARY SCHOOL,http://www.qifapri.moe.edu.sg,50 WEST COAST AVENUE   ,128104,67783085,na,67761485,na,QIFA_PS@MOE.EDU.SG,Clementi MRT Station,"30,51,78,143,285,655",MRS CATHERINE CHIANG,MADAM CHOO SIEW HONG,MADAM NORAINI BTE MANSOOR,na,na,na,na,CLEMENTI,WEST,GOVERNMENT SCHOOL,CO-ED SCHOOL,SINGLE SESSION,PRIMARY,No,No,No,No,CHINESE,MALAY,TAMIL
QIHUA PRIMARY SCHOOL,http://www.qihuapri.moe.edu.sg,5 WOODLANDS STREET 81   ,738525,62696250,na,62693114,na,QIHUA_PS@MOE.EDU.SG,Woodlands MRT Station,"911, 900",MRS LEE HUI FENG,MR FOO CHUAN KAI,MISS NURUL SUHANA BINTE SULAIMAN,na,na,na,na,WOODLANDS,NORTH,GOVERNMENT SCHOOL,CO-ED SCHOOL,SINGLE SESSION,PRIMARY,No,No,No,No,CHINESE,MALAY,TAMIL
QUEENSTOWN PRIMARY SCHOOL,http://www.queenstownpri.moe.edu.sg,310 MARGARET DR   ,149303,64741044,na,64713640,na,QTPS@MOE.EDU.SG,Queenstown MRT,"32, 111, 145, 195",MADAM LIM PEI LIN OLIVIA MRS OLIVIA CHEONG,MISS CHEW MAY,MR LOW KAY KIAT,na,na,na,na,QUEENSTOWN,SOUTH,GOVERNMENT SCHOOL,CO-ED SCHOOL,SINGLE SESSION,PRIMARY,No,No,No,No,CHINESE,MALAY,TAMIL
QUEENSTOWN SECONDARY SCHOOL,http://www.queenstownsec.moe.edu.sg,1 STRATHMORE ROAD   ,148800,64741055,na,64741295,na,QTSS@MOE.EDU.SG,"REDHILL MRT, QUEENSTOWN MRT","33, 51, 64, 111, 120, 139, 145, 186, 970",MR SIM HOW CHONG,MRS CHANG TECK HUI,MR TAN TAI HUAT,na,na,na,na,QUEENSTOWN,SOUTH,GOVERNMENT SCHOOL,CO-ED SCHOOL,SINGLE SESSION,SECONDARY (S1-S5),No,No,No,No,CHINESE,MALAY,TAMIL
QUEENSWAY SECONDARY SCHOOL,http://www.queenswaysec.moe.edu.sg,2A MARGARET DRIVE   ,149295,64741421,na,64741302,na,QWSS@MOE.EDU.SG,"COMMONWEALTH MRT, QUEENSTOWN MRT","32, 51, 93, 100, 105, 111, 122, 123, 145, 147, 153, 186, 195, 196, 198, 855, 961, 970",MS CHEN LI YING AUDREY,MR TEO WEIHONG,MADAM V PRIYA RAJAN,na,na,na,na,QUEENSTOWN,SOUTH,GOVERNMENT SCHOOL,CO-ED SCHOOL,SINGLE SESSION,SECONDARY (S1-S5),No,No,No,No,CHINESE,MALAY,TAMIL
RADIN MAS PRIMARY SCHOOL,http://www.radinmasps.moe.edu.sg,1 BUKIT PURMEI AVENUE   ,099840,62733937,na,62763083,na,RMPS@MOE.EDU.SG,Tiong Bahru MRT; HarbourFront MRT,"SBS 123, 123M, 131, 131M; SBS 65, 121, 195, 855",MADAM TAN SUN SUN,MADAM NG LI YI,MS GOH CHIU KENG,na,na,na,na,BUKIT MERAH,SOUTH,GOVERNMENT SCHOOL,CO-ED SCHOOL,SINGLE SESSION,PRIMARY,No,No,No,No,CHINESE,MALAY,TAMIL
RAFFLES GIRLS' PRIMARY SCHOOL,http://www.rafflesgirlspri.moe.edu.sg,21 Hillcrest Road   ,289072,64684377,na,64692024,na,RGPS@MOE.EDU.SG,TAN KAH KEE MRT STATION,"66, 67, 74, 151, 154, 156, 157, 170, 171, 174, 852, 961",MADAM ELAINE QUEK-LIM HWEE BIN,MISS KONG SU MAY,MISS SUJATHA PARAMATHAYALAN,MR LOH YUH POR,na,na,na,BUKIT TIMAH,SOUTH,GOVERNMENT SCHOOL,GIRLS' SCHOOL,SINGLE SESSION,PRIMARY,No,No,Yes,No,CHINESE,MALAY,TAMIL
RAFFLES GIRLS' SCHOOL (SECONDARY),http://www.rgs.edu.sg,2 BRADDELL RISE   ,318871,67371845,na,62353731,na,RGSS@MOE.EDU.SG,"BRADDELL MRT, CALDECOTT MRT","59, 93, 129, 156, 157, 163, 231, 232, 235",MADAM LIM HONG PENG,MS TAN HWEE MIAN MAY,MS YEO XIUTING VALERIE,MISS MAGDALENE SUEY,na,na,na,TOA PAYOH,SOUTH,INDEPENDENT SCHOOL,GIRLS' SCHOOL,SINGLE SESSION,SECONDARY (S1-S4),No,No,Yes,Yes,CHINESE,MALAY,TAMIL
RAFFLES INSTITUTION,http://www.ri.edu.sg,1 RAFFLES INSTITUTION LANE   ,575954,64199242,na,64199238,na,RAFFLES_INST@MOE.EDU.SG,"BISHAN MRT, MARYMOUNT MRT","410,13,50,52,53,54,55,56,57,58,59,71,74,88,93,128,130,132,156,157,162,163,165,166,167,851,852,855,980","MR LOH HONG OON, AARON",MR ANG PENG SIONG BRIAN LAGMAN,MR EDWARD NG,MS MELISSA LIM AI LIN,MS NG MEI SZE,TAN MENG FONG DESMOND,MISS SEE PEI LOO,BISHAN,SOUTH,INDEPENDENT SCHOOL,CO-ED SCHOOL,SINGLE SESSION,MIXED LEVEL (S1-JC2),No,No,Yes,Yes,CHINESE,MALAY,TAMIL
RED SWASTIKA SCHOOL,http://www.redswastika.moe.edu.sg,350 BEDOK NORTH AVENUE 3   ,469719,64430380,na,62448391,na,REDSWASTIKA@MOE.EDU.SG,Bedok Reservoir MRT,"Bus 14, 17, 28, 46, 66, 67, 69, 222, 228",MR LIM MENG WEI,MS ANGELA GOH BEE LIAN,MADAM ESTHER E TZY KWEI,MR TAN MENG KHIANG,na,na,na,BEDOK,EAST,GOVERNMENT-AIDED SCH,CO-ED SCHOOL,SINGLE SESSION,PRIMARY,Yes,No,No,No,CHINESE,na,na
REGENT SECONDARY SCHOOL,http://regentsec.moe.edu.sg,50 CHOA CHU KANG NORTH 5   ,689621,67653828,na,67653413,na,REGENT_SS@MOE.EDU.SG,"YEW TEE MRT, CHOA CHU KANG MRT","307, 160, 170, 178, 925, 927, 960, 961, 979",MADAM TAN SIEW HONG (MRS SNG),MISS NG TZE FANG,MR THANGARASU PUBALAN,na,na,na,na,CHOA CHU KANG,WEST,GOVERNMENT SCHOOL,CO-ED SCHOOL,SINGLE SESSION,SECONDARY (S1-S5),No,No,No,No,CHINESE,MALAY,TAMIL
RIVER VALLEY HIGH SCHOOL,https://rivervalleyhigh.moe.edu.sg/,6 BOON LAY AVENUE   ,649961,65678115,na,65677351,na,RVHS@MOE.EDU.SG,"BOON LAY MRT, LAKESIDE MRT","99, 157, 172, 174, 174E, 198, 240, 502, 974",na,MS CHUA SHI QIAN,MR LAU WAI CHI ALVIN,MR NG HONG PENG,MR MICHAEL JOHN PETER LAU CHONG LUM,na,na,JURONG WEST,WEST,GOVERNMENT SCHOOL,CO-ED SCHOOL,SINGLE SESSION,MIXED LEVEL (S1-JC2),Yes,Yes,No,Yes,CHINESE,na,na
RIVER VALLEY PRIMARY SCHOOL,http://www.rivervalleypri.moe.edu.sg,2 RIVER VALLEY GREEN   ,237993,67371785,na,67321951,na,RVPS@MOE.EDU.SG,Somerset MRT,"5, 16, 32, 54, 65, 75, 175, 970",MRS JENNIFER PANG CHEE CHYN,MRS LOH SOK HIANG JACQUELINE,MADAM NUR RASHIDAH BTE ABDUL RASHID,na,na,na,na,CENTRAL,SOUTH,GOVERNMENT SCHOOL,CO-ED SCHOOL,SINGLE SESSION,PRIMARY,No,No,No,No,CHINESE,MALAY,TAMIL
RIVERSIDE PRIMARY SCHOOL,http://www.riversidepri.moe.edu.sg,110 Woodlands Crescent   ,737803,63654490,na,63654460,na,riverside_ps@moe.edu.sg,Admiralty MRT Station,Bus No 913 and Bus No 964,MR TAN CHOON KHENG,MADAM KHOO PHAIK HOON REGINA,MRS RANUKA PALANIVELU,na,na,na,na,WOODLANDS,NORTH,GOVERNMENT SCHOOL,CO-ED SCHOOL,SINGLE SESSION,PRIMARY,No,No,No,No,CHINESE,MALAY,TAMIL
RIVERSIDE SECONDARY SCHOOL,http://www.riversidesec.moe.edu.sg,3 WOODLANDS STREET 81   ,738524,62699631,na,63683677,na,RIVERSIDE_SS@MOE.EDU.SG,WOODLANDS MRT,"169, 858, 900, 900A, 903, 904, 911, 913, 964, 965, 969",MISS THAM YOKE CHUN,MR CHAN KOK TUNG TOM,MISS HUI AI LIN,na,na,na,na,WOODLANDS,NORTH,GOVERNMENT SCHOOL,CO-ED SCHOOL,SINGLE SESSION,SECONDARY (S1-S5),No,No,No,No,CHINESE,MALAY,TAMIL
UNITY PRIMARY SCHOOL,http://www.unitypri.moe.edu.sg,21 CHOA CHU KANG CRESCENT   ,688268,67676750,na,67676751,na,UNITY_PS@MOE.EDU.SG,Yew Tee MRT,TIBs 302,MRS LEE-KOH SIEW CHENG,MR SYAMSUL ANWAR BIN AWANG,MRS JASMINE TAN RODRIGO,na,na,na,na,CHOA CHU KANG,WEST,GOVERNMENT SCHOOL,CO-ED SCHOOL,SINGLE SESSION,PRIMARY,No,No,No,No,CHINESE,MALAY,TAMIL
RIVERVALE PRIMARY SCHOOL,http://www.rivervalepri.moe.edu.sg/,80 RIVERVALE DRIVE   ,545092,63887450,na,63887449,na,RIVERVALE_PS@MOE.EDU.SG,Nearest LRT Station : Rumbia,"Bus Service 86, 371.",MISS RADHA D/O G SUBRAMANIAM,MRS GOH SIEW LING MARIA,MR CHIA SENG CHIANG AARON,na,na,na,na,SENG KANG,NORTH,GOVERNMENT SCHOOL,CO-ED SCHOOL,SINGLE SESSION,PRIMARY,No,No,No,No,CHINESE,MALAY,TAMIL
ROSYTH SCHOOL,https://www.rosyth.moe.edu.sg,21 Serangoon North Avenue 4   ,555855,64812273,na,64831102,na,ROSYTH_SCH@MOE.EDU.SG,"Ang Mo Kio, Serangoon","73, 315, 116",MR SURAJ NAIR S/O VENUGOPAL,MISS KWAN RUIYING KAREN,MADAM TAN LAY WAH,MR TAN BOON SENG,na,na,na,SERANGOON,NORTH,GOVERNMENT SCHOOL,CO-ED SCHOOL,SINGLE SESSION,PRIMARY,No,No,Yes,No,CHINESE,MALAY,TAMIL
RULANG PRIMARY SCHOOL,http://www.rulangpri.moe.edu.sg/,6 JURONG WEST STREET 52   ,649295,65657771,na,65632382,na,RULANG_PS@MOE.EDU.SG,Lakeside,SBS 335,MS TRACY TAN I- LIAN,MR TAN JIAN ZHONG ADRIAN,MR TOH JIN TIAN,"MR TAN KOK LENG, STEVEN",na,na,na,JURONG WEST,WEST,GOVERNMENT SCHOOL,CO-ED SCHOOL,SINGLE SESSION,PRIMARY,No,No,No,No,CHINESE,MALAY,TAMIL
"SCHOOL OF SCIENCE AND TECHNOLOGY, SINGAPORE",http://www.sst.edu.sg,1 Technology Drive   ,138572,65717200,na,68720856,na,contactus@sst.edu.sg,Dover,"14, 74, 105, 106, 147, 166, 185",MR CHAN CHOON LOONG,MR SZE GUAN KIAT,MR TAN BOON TIONG VINCENT,na,na,na,na,CLEMENTI,WEST,SPECIALISED INDEPENDENT SCHOOL,CO-ED SCHOOL,FULL DAY,SECONDARY (S1-S4),No,No,No,No,CHINESE,MALAY,TAMIL
"SCHOOL OF THE ARTS, SINGAPORE",http://www.sota.edu.sg/,1 Zubir Said Drive 05 01 ,227968,6338 9663,6342 5857,6338 9763,na,enquiries@sota.edu.sg,Dhoby Ghaut,"7, 14, 16, 36, 64, 65, 77, 106, 111, 124, 128, 131, 147, 162, 166, 167, 171, 174, 175, 190, 502, 518, 700, 857,",MADAM WONG YEE MIN MARY,MS KHOO MEI LING AMY,MR LIONG HUAI YU,MISS PAULINE ANN TAN POH LING,MADAM TAN PEI YIN,na,na,CENTRAL,SOUTH,SPECIALISED INDEPENDENT SCHOOL,CO-ED SCHOOL,SINGLE SESSION,MIXED LEVEL (S1-JC2),No,No,No,No,CHINESE,MALAY,TAMIL
SEMBAWANG PRIMARY SCHOOL,http://www.sembawangpri.moe.edu.sg,10 SEMBAWANG DRIVE   ,757715,67567330,na,67560367,na,SEMBAWANG_PS@MOE.EDU.SG,Sembawang MRT (6 to 8-minute walk),"656, 859, 859B, 962, 980",MR NG AIK BOON,MR SEE KOK KIONG,MISS TIFFANY CHONG,MR TAN THIAM SIONG,na,na,na,SEMBAWANG,NORTH,GOVERNMENT SCHOOL,CO-ED SCHOOL,SINGLE SESSION,PRIMARY,No,No,No,No,CHINESE,MALAY,TAMIL
SEMBAWANG SECONDARY SCHOOL,http://www.sembawangsec.moe.edu.sg,30 SEMBAWANG CRESCENT   ,757704,67566760,na,67585380,na,SEMBAWANG_SS@MOE.EDU.SG,SEMBAWANG MRT,"859, 859A, 962",MADAM KOH HOON CHOO JESSIE,MR CHAN YING CHUNG,MR LEE YONG KIANG JUSTIN,na,na,na,na,SEMBAWANG,NORTH,GOVERNMENT SCHOOL,CO-ED SCHOOL,SINGLE SESSION,SECONDARY (S1-S5),No,No,No,No,CHINESE,MALAY,TAMIL
SENG KANG PRIMARY SCHOOL,http://www.sengkangpri.moe.edu.sg/,21 COMPASSVALE WALK   ,545166,63840809,na,63840839,na,SKPS@MOE.EDU.SG,Sengkang MRT,"27, 80, 82, 83, 86, 87, 88, 89, 119, 156, 163, 371, 372 & 965",MRS LEE SIEW HONG,MR MOHAMED AZHAR BIN MOHAMED NOOR,MISS THIEN LI CHIN,na,na,na,na,SENG KANG,NORTH,GOVERNMENT SCHOOL,CO-ED SCHOOL,SINGLE SESSION,PRIMARY,No,No,No,No,CHINESE,MALAY,TAMIL
SENG KANG SECONDARY SCHOOL,http://www.sengkangsec.moe.edu.sg,10 COMPASSVALE LANE   ,545090,63887258,na,63887254,na,SKSS@MOE.EDU.SG,"SENGKANG MRT, RANGGUNG LRT","27, 80, 85, 86, 87, 89, 89E, 163, 163M, 372",MR N SIVARAJAN,"MR NG CHENG SONG, JEREMY",MR LAK YAU HUI,na,na,na,na,SENG KANG,NORTH,GOVERNMENT SCHOOL,CO-ED SCHOOL,SINGLE SESSION,SECONDARY (S1-S5),No,No,No,No,CHINESE,MALAY,TAMIL
SENGKANG GREEN PRIMARY SCHOOL,https://sengkanggreenpri.moe.edu.sg/,15 Fernvale Road   ,797636,63864255,na,62428796,na,sengkanggreen_ps@moe.edu.sg,Fernvale LRT (SW5) - (Sengkang West Loop),"Sengkang and Toa Payoh Interchange - no 163, Along Yio Chu Kang Road - no 70, 86, 103 and 854, Punggol Interchange to Bishan Interchange - no 50, Hougang Central Interchange - no 102",MR GAU POH TECK,MADAM ADILA ONG KIM LUAN,MR TAN KENG LIM JEREMY,MADAM GINNY CHUA GEOK HONG,na,na,na,SENG KANG,NORTH,GOVERNMENT SCHOOL,CO-ED SCHOOL,SINGLE SESSION,PRIMARY,No,No,No,No,CHINESE,MALAY,TAMIL
SERANGOON GARDEN SECONDARY SCHOOL,http://www.sgs.edu.sg,21 SERANGOON NORTH AVENUE 1   ,555889,62889227,65789177,62888695,na,sgss@moe.edu.sg,"SERANGOON MRT, ANG MO KIO MRT","25, 55, 73, 74, 76, 132, 165, 315",MADAM MAH PATSY,MS HO GEOK LAN,MR NG SONG LIM STEVEN,MR ZAINAL ABIDIN BIN MAHMOOD,na,na,na,SERANGOON,SOUTH,GOVERNMENT SCHOOL,CO-ED SCHOOL,SINGLE SESSION,SECONDARY (S1-S5),No,No,No,No,CHINESE,MALAY,TAMIL
SERANGOON SECONDARY SCHOOL,http://www.serangoonsec.moe.edu.sg,11 UPPER SERANGOON VIEW   ,534237,63851589,na,63851635,na,SERANGOON_SS@MOE.EDU.SG,"HOUGANG MRT, KANGKAR LRT","62, 74, 102, 113, 119, 136, 147, 324",MR CHEN FOOK PANG,MR LIM KAH LEONG MARC,MADAM LIM PUAY KHENG,MR MEYYAPPAN NADARAJAN THEVAR,na,na,na,HOUGANG,SOUTH,GOVERNMENT SCHOOL,CO-ED SCHOOL,SINGLE SESSION,SECONDARY (S1-S5),No,No,No,No,CHINESE,MALAY,TAMIL
SHUQUN PRIMARY SCHOOL,http://www.shuqunpri.moe.edu.sg,8 JURONG WEST STREET 51   ,649332,65637129,na,65637418,na,SQPS@MOE.EDU.SG,W11 Lakeside,"98, 187, 335",MRS SARA DE SOUZA,MDM SO KAH LAY,DR. CHOONG PEK LAN,MS LEE KOON HAR ANGELA (LI KUNXIA),na,na,na,JURONG WEST,WEST,GOVERNMENT SCHOOL,CO-ED SCHOOL,SINGLE SESSION,PRIMARY,No,No,No,No,CHINESE,MALAY,TAMIL
SI LING PRIMARY SCHOOL,http://www.silingpri.moe.edu.sg,61 WOODLANDS AVENUE 1   ,739067,62698832,na,63675516,na,SLPS@MOE.EDU.SG,Woodlands,912 from Woodlands Interchange,MR KOE EE TIONG,MADAM NURAZIAN BINTE BAJURI,MR RAJ KUMAR S/O V SIVALINGAM,na,na,na,na,WOODLANDS,NORTH,GOVERNMENT SCHOOL,CO-ED SCHOOL,SINGLE SESSION,PRIMARY,No,No,No,No,CHINESE,MALAY,TAMIL
SINGAPORE CHINESE GIRLS' PRIMARY SCHOOL,www.scgs.moe.edu.sg,190 DUNEARN ROAD   ,309437,62527966,na,62523076,na,SCGPS@MOE.EDU.SG,Stevens,"66, 67, 105, 132, 151, 153, 154, 156, 170, 171, 186, 190, 605, 700, 960",MRS LINDA CHAN,MADAM LIM YING YING,MADAM PEH TAN WEE,MADAM SIA YAN SAN,na,na,na,NOVENA,SOUTH,GOVERNMENT-AIDED SCH,GIRLS' SCHOOL,SINGLE SESSION,PRIMARY,No,No,No,No,CHINESE,MALAY,TAMIL
SINGAPORE CHINESE GIRLS' SCHOOL,http://www.scgs.moe.edu.sg,190 DUNEARN ROAD   ,309437,62527966,na,62523076,na,SCGSS@MOE.EDU.SG,STEVENS MRT,"48, 67, 105, 132, 151, 153, 154, 156, 170, 186, 190, 960, 960E, 972, 972M",MRS LINDA CHAN,MISS LEONG KAI LING,MRS SHERMAINE TANG,na,na,na,na,NOVENA,SOUTH,INDEPENDENT SCHOOL,GIRLS' SCHOOL,SINGLE SESSION,SECONDARY (S1-S4),No,No,No,Yes,CHINESE,MALAY,TAMIL
SINGAPORE SPORTS SCHOOL,http://www.sportsschool.edu.sg,1 Champions Way   ,737913,67660100,na,67662100,na,enquire@sportsschool.edu.sg,Woodlands South MRT,901,MR ONG KIM SOON,MR EDMUND SONG,MR HO BENG KIAT,MDM QUEK YAU KENN LYNN,MR LIM HOW CHUEN CLEMENT,MISS TAN HUI HUI JEANIE,na,WOODLANDS,NORTH,SPECIALISED INDEPENDENT SCHOOL,CO-ED SCHOOL,FULL DAY,"MIXED LEVEL (S1-S5, JC1-JC2)",No,No,No,No,CHINESE,MALAY,TAMIL
SOUTH VIEW PRIMARY SCHOOL,http://www.southviewpri.moe.edu.sg,6 Choa Chu Kang Central   ,689762,67697176,na,67631091,na,SVPS@MOE.EDU.SG,Choa Chu Kang MRT Station,307 / South View LRT Station,MISS ANG MUI KHOONG,MISS GOH JIA LI,MR ONG HONG GHEE,MR RAMESH TIWARI S/O RAMADHAR TIWARI,na,na,na,CHOA CHU KANG,WEST,GOVERNMENT SCHOOL,CO-ED SCHOOL,SINGLE SESSION,PRIMARY,No,No,No,No,CHINESE,MALAY,TAMIL
SPECTRA SECONDARY SCHOOL,https://www.spectra.edu.sg,1 WOODLANDS DRIVE 64   ,737758,64660775,na,64623928,na,spectra@schools.gov.sg,ADMIRALTY,"901M, 962 (Bus Stop IDs: 47549 or 47541); 904 (Bus Stop IDs: 47649 or 47641)",MR TAN TECK HOCK,MS GRACE HO CHEN YEE,MISS GUO XINHUI,MR NG E-HIAN,MISS LOW YING XIU,na,na,WOODLANDS,NORTH,SPECIALISED SCHOOL,CO-ED SCHOOL,SINGLE SESSION,SECONDARY (S1-S4),No,No,No,No,CHINESE,MALAY,TAMIL
SPRINGDALE PRIMARY SCHOOL,http://springdalepri.moe.edu.sg/,71 Anchorvale Link   ,544799,63157600,na,63153351,na,springdale_ps@moe.edu.sg,Sengkang Station (NE16); Nearest LRT station: Farmway; *10-15 min walk from either station,"50, 85, 102, 372; Nearest Bus Stop: In front of Blk 326 Car Park; *1-2 min walk from bus stop; enter by Main Gate along Anchorvale Link or Rear Gate",MRS QUEK-SIM KIM LIANG ANNE,MR SHOEB BURHANUDDIN,MISS SONG XIUHUA SHAFIQAH NADIAH,MADAM LIM BEE TIN,na,na,na,SENG KANG,NORTH,GOVERNMENT SCHOOL,CO-ED SCHOOL,SINGLE SESSION,PRIMARY,No,No,No,No,CHINESE,MALAY,TAMIL
SPRINGFIELD SECONDARY SCHOOL,http://www.springfieldsec.moe.edu.sg,30 TAMPINES AVENUE 8   ,529593,63183053,na,63183050,na,SPRINGFIELDS@MOE.EDU.SG,"TAMPINES MRT, TAMPINES WEST MRT","8, 15, 23, 58, 69, 118, 129, 291, 293, 298, 513, 518",MISS CHIA SHUEN LI ELEANOR,MADAM YEHIDAAH BEEVI D/O SHAIK A,MR WU CHE VUN STEVEN (WU QIWEN),na,na,na,na,TAMPINES,EAST,GOVERNMENT SCHOOL,CO-ED SCHOOL,SINGLE SESSION,SECONDARY (S1-S5),No,No,No,No,CHINESE,MALAY,na
ST ANDREW'S SCHOOL (JUNIOR),http://www.saintandrewsjunior.moe.edu.sg,2 FRANCIS THOMAS DRIVE   ,359337,62884303,na,62895242,na,SAJS@MOE.EDU.SG,"Potong Pasir, Toa Payoh","8,13,26,31,90,90A,107,133,142,147,853,NR6",MRS ELSIE POEY,MISS HEW YI QIAN CAROLINE,MRS STEPHANIE GOH,MR BOEY WENG YUE,na,na,na,TOA PAYOH,SOUTH,GOVERNMENT-AIDED SCH,BOYS' SCHOOL,SINGLE SESSION,PRIMARY,No,No,No,No,CHINESE,MALAY,TAMIL
ST ANDREW'S SCHOOL (SECONDARY),http://www.standrewssec.moe.edu.sg,15 FRANCIS THOMAS DRIVE   ,359342,62851944,na,63823779,na,SASS@MOE.EDU.SG,POTONG PASIR MRT,"8, 13, 26, 31, 90, 90A, 107, 133, 142, 147, 853",MR LEE HAN HWA,MISS TEO PEK HOON AGNES,MADAM GUINIEVE YEO LI-LYN,TEO PENG YONG DANNY,na,na,na,TOA PAYOH,SOUTH,GOVERNMENT-AIDED SCH,BOYS' SCHOOL,SINGLE SESSION,SECONDARY (S1-S5),No,No,No,No,CHINESE,MALAY,TAMIL
ST. ANDREW'S JUNIOR COLLEGE,http://www.standrewsjc.moe.edu.sg/,5 Sorby Adams Drive   ,357691,62857008,62852007,62850037,na,SAJC@MOE.EDU.SG,Potong Pasir NE10,"SBSTransit: 8, 26, 31, 90, 142 ,151, 154 (Diocese of Singapore); SMRT Buses: 857, 966, 985 (Diocese of Singapore), 853 (Upper Serangoon Road)",MR THAM KINE THONG,MR ANG KHENG SAN CECIL,MRS TEE AI LEE,na,na,na,na,TOA PAYOH,SOUTH,GOVERNMENT-AIDED SCH,CO-ED SCHOOL,FULL DAY,JUNIOR COLLEGE,No,No,No,No,CHINESE,MALAY,TAMIL
ST. ANTHONY'S CANOSSIAN PRIMARY SCHOOL,http://www.stanthonyscanossianpri.moe.edu.sg,1602 BEDOK NORTH AVE 4   ,469701,64492239,na,64492146,na,SACPS@MOE.EDU.SG,Bedok MRT,"17, 18",MRS SHARON CLARISSA FOO,MISS LEE XINYUN FELICIA,MISS THIA HWEI LING SHARON,na,na,na,na,BEDOK,EAST,GOVERNMENT-AIDED SCH,GIRLS' SCHOOL,SINGLE SESSION,PRIMARY,No,No,No,No,CHINESE,MALAY,TAMIL
ST. ANTHONY'S CANOSSIAN SECONDARY SCHOOL,https://stanthonyscanossiansec.moe.edu.sg,1600 BEDOK NORTH AVENUE 4   ,469700,64490616,na,64490162,na,SACSS@MOE.EDU.SG,"BEDOK MRT, BEDOK RESERVOIR MRT","17, 14, 46, 222",MADAM KOH TYNG YUANN FIONA,MISS CHIONH CHEW PENG,MRS YEO SHU WEN MELISSA MARY,MISS CHEN HUIQING CHRISTINE,na,na,na,BEDOK,EAST,GOVERNMENT-AIDED SCH,GIRLS' SCHOOL,SINGLE SESSION,SECONDARY (S1-S5),No,Yes,No,No,CHINESE,MALAY,TAMIL
ST. ANTHONY'S PRIMARY SCHOOL,http://www.stanthonyspri.moe.edu.sg,30 Bukit Batok St 32   ,659401,65690822,na,65690811,na,SAPS@MOE.EDU.SG,Bukit Gombak MRT Station,945,MADAM GOH LUNG ENG,MISS MATHEW ANNA,MR TEE LENG TECK,na,na,na,na,BUKIT BATOK,WEST,GOVERNMENT-AIDED SCH,CO-ED SCHOOL,SINGLE SESSION,PRIMARY,No,No,No,No,CHINESE,MALAY,TAMIL
ST. GABRIEL'S PRIMARY SCHOOL,http://www.stgabrielspri.moe.edu.sg,220 Lorong Chuan   ,556742,62803628,na,63820344,na,STGPS@MOE.EDU.SG,Lor Chuan MRT Station (Circle Line),"73, 105, 159",MR MARTIN TAN SIEW KIN,MADAM CHUA WANG LING IRENE,MR LIM CHONG ENG,na,na,na,na,SERANGOON,SOUTH,GOVERNMENT-AIDED SCH,BOYS' SCHOOL,SINGLE SESSION,PRIMARY,No,No,No,No,CHINESE,MALAY,TAMIL
ST. GABRIEL'S SECONDARY SCHOOL,http://www.stgabrielssec.moe.edu.sg,24 SERANGOON AVENUE 1   ,556140,62889470,na,62898615,na,STGSS@MOE.EDU.SG,SERANGOON MRT,158,MR LIM CHEE KOON SHAWN,MR CHRISTOPHER THOMAS,MADAM YEE WHOY CHONG,na,na,na,na,SERANGOON,SOUTH,GOVERNMENT-AIDED SCH,BOYS' SCHOOL,SINGLE SESSION,SECONDARY (S1-S5),No,No,No,No,CHINESE,MALAY,TAMIL
ST. HILDA'S PRIMARY SCHOOL,http://www.shps.moe.edu.sg,2 Tampines Ave 3   ,529706,67811916,na,67830527,na,SHPS@MOE.EDU.SG,"Tampines West, Tampines Central",Feeder Bus service: 293 from Tampines Interchange (towards St 71),MADAM LAW LI MEI,MADAM LOW AI LING,MADAM NG YIN SZE JOSEPHINE,MADAM POH LYE IMM,na,na,na,TAMPINES,EAST,GOVERNMENT-AIDED SCH,CO-ED SCHOOL,SINGLE SESSION,PRIMARY,No,No,Yes,No,CHINESE,MALAY,TAMIL
ST. HILDA'S SECONDARY SCHOOL,http://www.sthildassec.moe.edu.sg,2 TAMPINES STREET 82   ,528986,63055277,na,67865011,na,SHSS@MOE.EDU.SG,"TAMPINES MRT, TAMPINES WEST MRT","22, 129, 293, 298",MR LEW KING LUN JULIAN,MADAM SO MUN YEE,MR GOH WEE SIONG JARED,MR LOY WEE JIN,na,na,na,TAMPINES,EAST,GOVERNMENT-AIDED SCH,CO-ED SCHOOL,SINGLE SESSION,SECONDARY (S1-S5),No,No,No,No,CHINESE,MALAY,TAMIL
ST. JOSEPH'S INSTITUTION,http://www.sji.edu.sg,38 MALCOLM ROAD   ,308274,62500022,na,62533640,na,SJI@MOE.EDU.SG,STEVENS MRT,"105, 132, 151, 153, 154, 156, 186, 190, 960, 972",MR JUSTIN ARUL PIERRE,MR DOMINIC ANG SWEE KENG,MR LAM CHUEN SENG ERIC,MR TSAO WEN JIE NICHOLAS,MDM SHIRLEY YONG WAI YEE,na,na,NOVENA,SOUTH,INDEPENDENT SCHOOL,CO-ED SCHOOL,SINGLE SESSION,MIXED LEVEL (S1-JC2),No,No,No,Yes,CHINESE,MALAY,TAMIL
ST. JOSEPH'S INSTITUTION JUNIOR,https://sjijunior.moe.edu.sg,3 ESSEX ROAD   ,309331,62552700,na,62557455,na,STMICHAELSCH@MOE.EDU.SG,Novena,21;54;56;57;124;131;141;166;518;851;980,MR LEONG YEW HON ERIC,"MISS YAK HIOK WOON, FAITH (YE YUYUN)",MISS SNG WAN XIAN,MR LIM YEW TEE COLLIN,na,na,na,NOVENA,SOUTH,GOVERNMENT-AIDED SCH,BOYS' SCHOOL,SINGLE SESSION,PRIMARY,No,No,No,No,CHINESE,MALAY,TAMIL
ST. MARGARET'S SCHOOL (PRIMARY),https://stmargaretspri.moe.edu.sg,136 Sophia Road   ,228197,63394247,na,63394264,na,STMARGARETPS@MOE.EDU.SG,Little India MRT Station (NE7/DT12); Dhoby Ghaut MRT Station (NS24/NE6/CC1),"64, 65, 131, 139, 147, 857, 166 (alight at the bus stop after Parklane Shopping Mall)",MADAM KO-TAN LI LING,MDM WENDY SENG GEK CHENG,MRS NEO HUI EN CHERLYN,MISS TAN CHER LANG,na,na,na,CENTRAL,SOUTH,GOVERNMENT-AIDED SCH,GIRLS' SCHOOL,SINGLE SESSION,PRIMARY,No,No,No,No,CHINESE,MALAY,TAMIL
ST. MARGARET'S SCHOOL (SECONDARY),http://www.stmargaretssec.moe.edu.sg,111 FARRER ROAD   ,259240,64664525,na,64666709,na,STMARGARETSS@MOE.EDU.SG,FARRER ROAD MRT,"48, 93, 153, 165, 174, 186, 855, 961",MISS LIM HUI KHENG LINDA,MDM CHIN YIH MIN,MS WOON CHIN FONG CHRYSTINE,na,na,na,na,BUKIT TIMAH,SOUTH,GOVERNMENT-AIDED SCH,GIRLS' SCHOOL,SINGLE SESSION,SECONDARY (S1-S5),No,Yes,No,No,CHINESE,MALAY,TAMIL
UNITY SECONDARY SCHOOL,http://www.unitysec.moe.edu.sg,20 CHOA CHU KANG STREET 62   ,689143,67671070,na,67654189,na,UNITY_SS@MOE.EDU.SG,YEW TEE MRT,307,MADAM ONG LIANG FUNG,MR LIM YONG CHAI ALAN,MS YUEN CHAI LIN,na,na,na,na,CHOA CHU KANG,WEST,GOVERNMENT SCHOOL,CO-ED SCHOOL,SINGLE SESSION,SECONDARY (S1-S5),No,No,No,No,CHINESE,MALAY,TAMIL
ST. PATRICK'S SCHOOL,http://www.stpatricks.moe.edu.sg,490 EAST COAST ROAD   ,429058,63440929,63441429,63445152,na,STPATRICKSCH@MOE.EDU.SG,MARINE TERRACE MRT (TEL),"10, 10E, 12, 13, 14, 14E, 15, 16, 31, 32, 36, 40, 43, 47, 48, 55, 135, 150, 155, 196, 197",MR MARK GERARD MINJOOT,MR TAN YII HSIEN BARNABAS,MR KWAN YEW MENG,na,na,na,na,BEDOK,EAST,GOVERNMENT-AIDED SCH,BOYS' SCHOOL,SINGLE SESSION,SECONDARY (S1-S5),No,No,No,No,CHINESE,MALAY,TAMIL
ST. STEPHEN'S SCHOOL,http://www.ststephens.moe.edu.sg,20 SIGLAP VIEW   ,455789,62419513,64441645,64422576,na,STSTEPHENSCH@MOE.EDU.SG,Kembangan MRT Station,"2,7,24,25,26,28,30,32,33,67,854",MR GOH HENG LIANG TIMOTHY,MR EDWIN HENG TOW YANG,MR CHEW SOO KWANG,na,na,na,na,BEDOK,EAST,GOVERNMENT-AIDED SCH,BOYS' SCHOOL,SINGLE SESSION,PRIMARY,No,No,No,No,CHINESE,MALAY,TAMIL
SWISS COTTAGE SECONDARY SCHOOL,http://www.swisscottagesec.moe.edu.sg,3 BUKIT BATOK STREET 34   ,659322,65637173,na,65693028,na,SCSS@MOE.EDU.SG,BUKIT GOMBAK MRT,"187, 188, 985, 945",MDM MANDY CHENG MUN YI,MR TAN BOON PIANG,na,na,na,na,na,BUKIT BATOK,WEST,GOVERNMENT SCHOOL,CO-ED SCHOOL,SINGLE SESSION,SECONDARY (S1-S5),No,No,No,No,CHINESE,MALAY,TAMIL
TAMPINES MERIDIAN JUNIOR COLLEGE,http://www.tmjc.moe.edu.sg,21 Pasir Ris Street 71   ,518799,63493660,na,63493667,na,tmjc@moe.edu.sg,Pasir Ris MRT Station,"3, 39, 53, 68, 81, 89, 109, 358, 359, 518, 518A",MR SIN KIM HO,MADAM TOH LAY HAR,MR ANG YEOU PENG,MDM YASMINE D/O KAMALUDHEEN,na,na,na,PASIR RIS,EAST,GOVERNMENT SCHOOL,CO-ED SCHOOL,FULL DAY,JUNIOR COLLEGE,No,No,No,No,CHINESE,MALAY,TAMIL
TAMPINES NORTH PRIMARY SCHOOL,http://www.tampinesnorthpri.moe.edu.sg,30 TAMPINES AVENUE 9   ,529565,67854329,na,67863117,na,TNPS@MOE.EDU.SG,Tampines MRT,"SBS Transit 28, 29, 293",MADAM RATNA KUMARI D/O R RAMACHANDRA,MR MOHAMED YUSUFF MOHAMED ALLIE,MISS CHARMAINE TAY,na,na,na,na,TAMPINES,EAST,GOVERNMENT SCHOOL,CO-ED SCHOOL,SINGLE SESSION,PRIMARY,No,No,No,No,CHINESE,MALAY,TAMIL
TAMPINES PRIMARY SCHOOL,http://www.tampinespri.moe.edu.sg,250 TAMPINES STREET 12   ,529426,67831190,na,67843521,na,TPPS@MOE.EDU.SG,Tampines MRT,"8, 10, 17,18, 27, 31, 65, 292, 293, or any bus going into Tampines Interchange",MADAM LEE LAY SEE/ MRS LAY SEE NEUFELD,MADAM ARIKEN CHARMAINE CARRIE,MR HO WEE MIN  KELVIN,MR TIN CHEE KUANG EDMUND,na,na,na,TAMPINES,EAST,GOVERNMENT SCHOOL,CO-ED SCHOOL,SINGLE SESSION,PRIMARY,No,No,No,No,CHINESE,MALAY,TAMIL
TAMPINES SECONDARY SCHOOL,https://www.tampinessec.moe.edu.sg,252 TAMPINES ST 12   ,529427,67835423,na,67843059,na,TPSS@MOE.EDU.SG,TAMPINES MRT,"3,  8,  10,  15,  17,  18,  20,  21,  23,  27,  28,  31,  34,  39,  59,  65,  129,  168,  292,  298,  518",MADAM TAN YANG FERN,MR MOHAMED FAHIZEL S/O M EGUEYAMAREC,MS LEE PECK WEN AMANDA (LI BIWEN),na,na,na,na,TAMPINES,EAST,GOVERNMENT SCHOOL,CO-ED SCHOOL,SINGLE SESSION,SECONDARY (S1-S5),No,No,No,No,CHINESE,MALAY,TAMIL
TANJONG KATONG GIRLS' SCHOOL,http://www.tkgs.moe.edu.sg,20 Dunman Lane   ,439272,63441593,na,63451487,64409187(from 2017),TKGS@MOE.EDU.SG,"PAYA LEBAR MRT, DAKOTA MRT","10, 16, 31, 32, 33, 40, 43, 134, 135, 197",MISS CHEW ING LIM,MS XU WANJING,MR CHAI CHI YANG MOSES,na,na,na,na,MARINE PARADE,EAST,GOVERNMENT SCHOOL,GIRLS' SCHOOL,SINGLE SESSION,SECONDARY (S1-S4),No,Yes,No,No,CHINESE,MALAY,TAMIL
TANJONG KATONG PRIMARY SCHOOL,http://www.tanjongkatongpri.moe.edu.sg/,10 Seraya Road   ,437259,63444728,na,63445370,na,TKPS@MOE.EDU.SG,na,na,MS TAN SEOK KUAN,MISS ONG CHUXIAN,MADAM TOH LENG LENG,MRS VIJAYA GANESH,na,na,na,MARINE PARADE,EAST,GOVERNMENT SCHOOL,CO-ED SCHOOL,SINGLE SESSION,PRIMARY,No,No,No,No,CHINESE,MALAY,TAMIL
TANJONG KATONG SECONDARY SCHOOL,http://www.tanjongkatongsec.moe.edu.sg,130 HAIG ROAD   ,438796,63443471,na,64409624,na,TKSS@MOE.EDU.SG,"PAYA LEBAR MRT, DAKOTA MRT","10, 16, 31, 32, 33, 40, 76, 135, 197",MADAM TAN YOK CHING RUBY,MADAM NG SIEW CHIN,MR ARUUMUGAM SAMIKKANNU,na,na,na,na,MARINE PARADE,EAST,GOVERNMENT SCHOOL,CO-ED SCHOOL,SINGLE SESSION,SECONDARY (S1-S4),No,Yes,No,No,CHINESE,MALAY,TAMIL
TAO NAN SCHOOL,http://www.taonan.moe.edu.sg,49 MARINE CRESCENT   ,449761,64428307,na,64435973,na,TAONAN_SCH@MOE.EDU.SG,"Marine Parade, Marine Terrace","13, 16, 31, 36, 43, 48, 55, 134, 196, 197",MADAM POH QINYU,MS NG HUI MIN,MR CHAN TUCK CHEONG,MADAM FOO MEI PING,MRS TEO CHAI HIAH,na,na,MARINE PARADE,EAST,GOVERNMENT-AIDED SCH,CO-ED SCHOOL,SINGLE SESSION,PRIMARY,Yes,No,Yes,No,CHINESE,na,na
TECK GHEE PRIMARY SCHOOL,http://www.teckgheepri.moe.edu.sg,1 ANG MO KIO STREET 32   ,569299,64548769,na,64589886,na,TGPS@MOE.EDU.SG,Ang Mo Kio & Bishan,"22,24,135,853,162,262,159",MISS REZIA RAHUMATHULLAH,MADAM CHOH THIAN JENG CELIA,MR TAN CHUAN YANG,na,na,na,na,ANG MO KIO,SOUTH,GOVERNMENT SCHOOL,CO-ED SCHOOL,SINGLE SESSION,PRIMARY,No,No,No,No,CHINESE,MALAY,TAMIL
TECK WHYE PRIMARY SCHOOL,http://www.teckwhyepri.moe.edu.sg,11 TECK WHYE WALK   ,688261,67691025,na,67635191,na,TWPS@MOE.EDU.SG,Choa Chu Kang MRT & LRT,"975, 190 & 985",MADAM WONG SU MAY,MRS LIM GEK NOI,MR MURALIDHARAN S/O NARAYANAN,na,na,na,na,CHOA CHU KANG,WEST,GOVERNMENT SCHOOL,CO-ED SCHOOL,SINGLE SESSION,PRIMARY,No,No,No,No,CHINESE,MALAY,TAMIL
TELOK KURAU PRIMARY SCHOOL,http://www.telokkuraupri.moe.edu.sg,50 BEDOK RESERVOIR RD   ,479239,62441600,na,62442182,na,TELOKKRAU_PS@MOE.EDU.SG,Kaki Bukit MRT (nearest),"8, 21, 60 & 65",MADAM GRACE HO LI JUN,MDM SHANTHI D/O VEERASWAMY,MADAM TAN KIM YAN,na,na,na,na,BEDOK,EAST,GOVERNMENT SCHOOL,CO-ED SCHOOL,SINGLE SESSION,PRIMARY,No,No,No,No,CHINESE,MALAY,TAMIL
TEMASEK JUNIOR COLLEGE,http://www.temasekjc.moe.edu.sg,2 Tampines Avenue 9   Temasek Junior College,529564,64428066,na,64428762,na,TEMASEK_JC@MOE.EDU.SG,TAMPINES EAST MRT,"Bus Service along Tampines Ave 9: 18, 29 and 29A; Bus Service along Tampines Ave 7: 3, 3A, 4, 9, 9A, 12, 12e, 17, 18, 19, 21, 29, 29A, 34, 34B, 37, 39, 59, 81, 293 and 518.",MR LIU EARNLER,MRS WENDY GOH,"MR QUEK POH BENG, KENNETH",MR CHAN KOK YEW MARK,na,na,na,TAMPINES,EAST,GOVERNMENT SCHOOL,CO-ED SCHOOL,FULL DAY,MIXED LEVEL (S1-JC2),No,No,No,Yes,CHINESE,MALAY,TAMIL
TEMASEK PRIMARY SCHOOL,http://www.temasekpri.moe.edu.sg,501 BEDOK SOUTH AVE 3   ,469300,64438134,na,64495871,na,TEMASEK_PS@MOE.EDU.SG,Tanah Merah MRT,"25,46, 48, 229",MADAM ANG GEK LENG ALISON AMANDA,MADAM ONG SEOW PENG,MADAM HASLINDAH BTE BAHROM,na,na,na,na,BEDOK,EAST,GOVERNMENT SCHOOL,CO-ED SCHOOL,SINGLE SESSION,PRIMARY,No,No,No,No,CHINESE,MALAY,TAMIL
TEMASEK SECONDARY SCHOOL,https://temaseksec.moe.edu.sg,600 UPPER EAST COAST ROAD   ,465561,64495020,na,64491450,na,TEMASEK_SS@MOE.EDU.SG,"BEDOK MRT, TANAH MERAH MRT","10, 10E, 13, 14, 25, 43, 46, 55, 137, 229, 506, 531, 853",MR TAN SHUN LOONG,MR PONG WEN LONG,MR CHANDRASEKARAN S/O AMMIAPPAN,na,na,na,na,BEDOK,EAST,GOVERNMENT SCHOOL,CO-ED SCHOOL,SINGLE SESSION,SECONDARY (S1-S5),No,Yes,No,No,CHINESE,MALAY,TAMIL
TOWNSVILLE PRIMARY SCHOOL,http://www.townsvillepri.moe.edu.sg/,3 ANG MO KIO AVE 10   ,569730,64574345,na,64570141,na,TOWNSVILLEPS@MOE.EDU.SG,"Bishan MRT, Ang Mo Kio MRT Stations","45, 50, 55, 261, 548, 22, 24, 128, 135, 159, 162, 162M, 262, 853",MR EDDIE FOO CHIT CHEONG,MR HO SENG TAT SUNNY,MADAM LYNETTE FERNANDEZ,MR MARTIN VELAN ANTHONY,na,na,na,ANG MO KIO,SOUTH,GOVERNMENT SCHOOL,CO-ED SCHOOL,SINGLE SESSION,PRIMARY,No,No,No,No,CHINESE,MALAY,TAMIL
VICTORIA JUNIOR COLLEGE,https://www.victoriajc.moe.edu.sg/,20 MARINE VISTA   ,449035,64485011,na,64438337,na,VICTORIA_JC@MOE.EDU.SG,"Nearest MRT Stations:  Marine Terrace, Kembangan, Eunos","13, 16, 16M, 31, 36, 36A, 36B, 43, 47, 48, 55, 196, 196A, 196e, 197, 853M",MR LOW SWEE HENG JEFFREY,MR KOH WEINING,MS LEE YUN YUN GRACE,MRS KAREN TAY,MR LIM KWEE HONG KYLE,na,na,BEDOK,EAST,GOVERNMENT SCHOOL,CO-ED SCHOOL,FULL DAY,JUNIOR COLLEGE,No,No,No,Yes,CHINESE,MALAY,TAMIL
VICTORIA SCHOOL,http://www.victoria.moe.edu.sg,2 SIGLAP LINK   ,448880,62912965,na,64452609,na,VICTORIA_SCH@MOE.EDU.SG,"SIGLAP, BEDOK MRT, PAYA LEBAR MRT","31, 36, 43, 47, 48, 55, 155, 196, 196E, 197, 401, 853M",MR LOW CHUN MENG,MR LIM WEI ZHONG CLARENCE,"MR WU BIWEI, IVAN",MR ANG JOHNNY,na,na,na,BEDOK,EAST,GOVERNMENT SCHOOL,BOYS' SCHOOL,SINGLE SESSION,SECONDARY (S1-S4),No,Yes,No,Yes,CHINESE,MALAY,TAMIL
WATERWAY PRIMARY SCHOOL,https://waterwaypri.moe.edu.sg,70 Punggol Drive   ,828802,6636 6880,na,6315 3451,na,waterway_ps@moe.edu.sg,Kadaloor LRT Station,"50, 381",MR WONG KENG YUIN WILBUR,MADAM TAN GEK SIM MAGELLA,MADAM CHUA KIM LAN JUDY,MADAM SHARIFAH MASTURAH BTE S OSMAN,na,na,na,PUNGGOL,EAST,GOVERNMENT SCHOOL,CO-ED SCHOOL,SINGLE SESSION,PRIMARY,No,No,No,No,CHINESE,MALAY,TAMIL
WELLINGTON PRIMARY SCHOOL,http://www.wellingtonpri.moe.edu.sg,10 WELLINGTON CIRCLE   ,757702,67533319,na,67533765,na,WELLINGTONPS@MOE.EDU.SG,Sembawang MRT,"980, 856, 859",MR ALCANTARA ALBERT ALFRED,MADAM HOONG WHEE SIEN,MADAM SHAHRULHANA BTE MOHAMED,MR NG WEE MING DENNIS,na,na,na,SEMBAWANG,NORTH,GOVERNMENT SCHOOL,CO-ED SCHOOL,SINGLE SESSION,PRIMARY,No,No,No,No,CHINESE,MALAY,TAMIL
WEST GROVE PRIMARY SCHOOL,http://www.westgrovepri.moe.edu.sg/,1 JURONG WEST ST 72   ,649223,62679234,na,62679235,na,WGPS@MOE.EDU.SG,Boon Lay MRT,"Bus 99, 242",MISS MABEL GOH,MADAM GOH XUEMIN CHERMAINE,"MADAM TAY SOOK HIAN, AUDREY",na,na,na,na,JURONG WEST,WEST,GOVERNMENT SCHOOL,CO-ED SCHOOL,SINGLE SESSION,PRIMARY,No,No,No,No,CHINESE,MALAY,TAMIL
WEST SPRING PRIMARY SCHOOL,http://www.westspringpri.moe.edu.sg,60 Bukit Panjang Ring Road   ,679946,63144192,na,na,63140648,westspring_ps@moe.edu.sg,Jelapang LRT,"920, 922",MR WILLY TAN,MR WILLY TAN NGUAN PENG,MADAM KUM LAI MENG,MR SIM KOOI SUEN,MR CHIN HONG FAI HUMPHREY,na,na,BUKIT PANJANG,WEST,GOVERNMENT SCHOOL,CO-ED SCHOOL,SINGLE SESSION,PRIMARY,No,No,No,No,CHINESE,MALAY,TAMIL
WEST SPRING SECONDARY SCHOOL,http://www.westspringsec.moe.edu.sg,61 SENJA  ROAD   ,677737,68920369,na,68929468,na,WESTSPRINGSS@MOE.EDU.SG,"BUKIT PANJANG MRT, JELAPANG LRT, SENJA LRT","920, 972, 976",MADAM YONG LI LING BELINDA,MR MALVIN CHAN HUAN JIAN,MADAM SIM BEE LIAN (SHEN MEILIAN),na,na,na,na,BUKIT PANJANG,WEST,GOVERNMENT SCHOOL,CO-ED SCHOOL,SINGLE SESSION,SECONDARY (S1-S5),No,No,No,No,CHINESE,MALAY,TAMIL
WEST VIEW PRIMARY SCHOOL,http://www.westviewpri.moe.edu.sg,31 SENJA ROAD   ,677742,67600178,na,67600147,na,WVPS@MOE.EDU.SG,"Bukit Panjang MRT, SENJA LRT (A13)","170,171,176,178,180,000,000,000,000,000",MR LEE FOOK LOONG EUGENE,MADAM ONG POH CHOO DORIS,MADAM SITI SUHAILA BTE SAPIHE,na,na,na,na,BUKIT PANJANG,WEST,GOVERNMENT SCHOOL,CO-ED SCHOOL,SINGLE SESSION,PRIMARY,No,No,No,No,CHINESE,MALAY,TAMIL
WESTWOOD PRIMARY SCHOOL,http://www.westwoodpri.moe.edu.sg,1 Jurong West Street 73   ,649188,64121690,na,67945084,na,westwood_ps@moe.edu.sg,Boon Lay MRT Station,"181, 502 & 243",MR MAH SENG THONG ANDREW,MR CHEE CHIT YENG,MR LOW MIN CHYE,MISS CHONG HUAY LENG,na,na,na,JURONG WEST,WEST,GOVERNMENT SCHOOL,CO-ED SCHOOL,SINGLE SESSION,PRIMARY,No,No,No,No,CHINESE,MALAY,TAMIL
WESTWOOD SECONDARY SCHOOL,https://www.westwoodsec.moe.edu.sg,11 JURONG WEST STREET 25   ,648350,67929737,na,67929738,na,WESTWOOD_SS@MOE.EDU.SG,BOON LAY MRT,"172, 181, 181M, 185, 199, 405, 974, 974A",MR ABDUL HARRIS B SUMARDI,MR HOI WENG KIT DERRICK,MISS THEODORA HUANG XINYI,na,na,na,na,JURONG WEST,WEST,GOVERNMENT SCHOOL,CO-ED SCHOOL,SINGLE SESSION,SECONDARY (S1-S5),No,No,No,No,CHINESE,MALAY,TAMIL
WHITE SANDS PRIMARY SCHOOL,http://www.whitesandspri.moe.edu.sg,2 PASIR RIS ST 11   ,519075,69229100,na,65815013,na,WSPS@MOE.EDU.SG,Pasir Ris MRT Station,"12, 17, 21, 39, 53, 81, 518, 109",MADAM WONG LIN LIN AUDREY,MS REZINA KHAN D/O ABDUL RAHIM,MISS TIONG LINA,na,na,na,na,PASIR RIS,EAST,GOVERNMENT SCHOOL,CO-ED SCHOOL,SINGLE SESSION,PRIMARY,No,No,No,No,CHINESE,MALAY,TAMIL
WHITLEY SECONDARY SCHOOL,http://www.whitleysec.moe.edu.sg,30 BISHAN STREET 24   ,579747,64561336,na,64591330,na,WHITLEY_SS@MOE.EDU.SG,"BISHAN MRT, MARYMOUNT MRT","13, 52, 54, 74, 74E, 88, 162, 162M,  588, 410, 851, 852",MISS KOH LIN LYNN,MR TAN YIT KEE,MR TAY KIM SENG,na,na,na,na,BISHAN,SOUTH,GOVERNMENT SCHOOL,CO-ED SCHOOL,SINGLE SESSION,SECONDARY (S1-S5),No,No,No,No,CHINESE,MALAY,TAMIL
WOODGROVE PRIMARY SCHOOL,http://www.woodgrovepri.moe.edu.sg/,2 WOODLANDS DRIVE 14   ,738079,68943371,na,68943372,na,WOODGROVE_PS@MOE.EDU.SG,Woodlands MRT Station,901,MS ADELINE TAN WEE KIAW,MR PHANG TECK HOW,MR SIM YONG MING,na,na,na,na,WOODLANDS,NORTH,GOVERNMENT SCHOOL,CO-ED SCHOOL,SINGLE SESSION,PRIMARY,No,No,No,No,CHINESE,MALAY,TAMIL
WOODGROVE SECONDARY SCHOOL,https://www.woodgrovesec.moe.edu.sg,3 WOODLANDS AVENUE 6   ,738990,68932564,na,68934458,na,WOODGROVE_SS@MOE.EDU.SG,"WOODLANDS MRT, WOODLANDS SOUTH MRT","901, 901M",MR CHUA CHOR HUAT,MADAM TAN PHAIK HOON (CHEN BIHONG),MRS VENKATRAMAN CHITHRA,MR LOKE KOK LEONG,na,na,na,WOODLANDS,NORTH,GOVERNMENT SCHOOL,CO-ED SCHOOL,SINGLE SESSION,SECONDARY (S1-S5),No,No,No,No,CHINESE,MALAY,TAMIL
WOODLANDS PRIMARY SCHOOL,http://www.woodlandspri.moe.edu.sg,10 WOODLANDS DRIVE 50   ,738853,62697410,na,63671165,na,WPS@MOE.EDU.SG,Woodlands,912 & 912E,MISS KUCK LI LIAN LILLIAN,MR RAZALI B SENIN,MISS SUSANNA CHAU,na,na,na,na,WOODLANDS,NORTH,GOVERNMENT SCHOOL,CO-ED SCHOOL,SINGLE SESSION,PRIMARY,No,No,No,No,CHINESE,MALAY,TAMIL
WOODLANDS RING PRIMARY SCHOOL,HTTP://www.woodlandsringpri.moe.edu.sg,11 WOODLANDS RING ROAD   ,738240,63643679,na,63643490,na,WRPS@MOE.EDU.SG,Admiralty MRT Station,912,MISS GEETHA D/O DORAISAMY,MR LIM KIM THYE,MR CHEW CHIN MING,na,na,na,na,WOODLANDS,NORTH,GOVERNMENT SCHOOL,CO-ED SCHOOL,SINGLE SESSION,PRIMARY,No,No,No,No,CHINESE,MALAY,TAMIL
WOODLANDS RING SECONDARY SCHOOL,http://www.woodlandsringsec.moe.edu.sg,21 WOODLANDS AVENUE 1   ,739062,63643712,na,na,na,WRSS@MOE.EDU.SG,ADMIRALTY MRT,912,MR LAM YUI- P'NG,MR TAY YONG SEAH MELVIN,"MR SIM KOK HIAN, KENNETH",MR HEE JUAY AY,na,na,na,WOODLANDS,NORTH,GOVERNMENT SCHOOL,CO-ED SCHOOL,SINGLE SESSION,SECONDARY (S1-S5),No,No,No,No,CHINESE,MALAY,TAMIL
WOODLANDS SECONDARY SCHOOL,http://www.woodlandssec.moe.edu.sg,11 MARSILING ROAD   ,739111,68494400,na,62691774,na,WSS@MOE.EDU.SG,"MARSILING MRT, WOODLANDS MRT","913, 913M, 913, 913T, 178, 856, 903",MISS MOH CUI RONG REBECCA,MADAM MASAYU BINTE MAHMUD,MR TAY HONG JOO STEVEN,na,na,na,na,WOODLANDS,NORTH,GOVERNMENT SCHOOL,CO-ED SCHOOL,SINGLE SESSION,SECONDARY (S1-S5),No,No,No,No,CHINESE,MALAY,TAMIL
XINGHUA PRIMARY SCHOOL,http://www.xinghuapri.moe.edu.sg,45 HOUGANG AVENUE 1   ,538882,62889121,na,62838831,na,XINGHUA_PS@MOE.EDU.SG,Kovan MRT Station,"Bus services 53, 62, 112, 113, 115",MR LEOW YEN MIN,MISS PHUA AI LEI,MS TAN BEE YIN (CHEN MEIYING),na,na,na,na,HOUGANG,SOUTH,GOVERNMENT SCHOOL,CO-ED SCHOOL,SINGLE SESSION,PRIMARY,No,No,No,No,CHINESE,MALAY,TAMIL
XINGNAN PRIMARY SCHOOL,http://www.xingnanpri.moe.edu.sg,5 JURONG WEST STREET 91   ,649036,67913679,na,67921493,na,XINGNAN_PS@MOE.EDU.SG,Pioneer MRT Station,Bus 99 & 241,"MADAM CHAN SIN LI, CINDY",MDM ANG HWEE LOO,MADAM S ANITHA,na,na,na,na,JURONG WEST,WEST,GOVERNMENT SCHOOL,CO-ED SCHOOL,SINGLE SESSION,PRIMARY,No,No,No,No,CHINESE,MALAY,TAMIL
XINMIN PRIMARY SCHOOL,https://xinminpri.moe.edu.sg/,9 HOUGANG AVENUE 8   ,538784,62835479,na,62880334,na,XINMIN_PS@MOE.EDU.SG,Nil,"74, 147, 165, 112",MADAM TAN KAY LING,MRS AHKEELA JULIA BEE D/O HANIFAH,MR LIM BOON TECK,na,na,na,na,HOUGANG,NORTH,GOVERNMENT SCHOOL,CO-ED SCHOOL,SINGLE SESSION,PRIMARY,No,No,No,No,CHINESE,MALAY,TAMIL
XINMIN SECONDARY SCHOOL,http://www.xinminsec.moe.edu.sg,11 HOUGANG AVENUE 8   ,538789,62889382,na,63851068,na,XINMIN_SS@MOE.EDU.SG,HOUGANG MRT,"25, 43, 43M, 55, 70, 70A, 70B, 70M, 72, 72A, 73, 73A, 74, 88, 88A, 103, 109, 109A, 112, 116, 132, 147, 159, 159A, 161, 165, 329, 660, 854, 854E",MR TAN SOON HUI,MR GOH KAR WHEE,MADAM KOMATHI D/O P KESAVAN,MR TAN KOK KWANG,na,na,na,HOUGANG,NORTH,GOVERNMENT SCHOOL,CO-ED SCHOOL,SINGLE SESSION,SECONDARY (S1-S5),No,Yes,No,No,CHINESE,MALAY,TAMIL
XISHAN PRIMARY SCHOOL,https://www.xishanpri.moe.edu.sg/,8 YISHUN STREET 21   ,768611,67588837,na,67588361,na,XISHAN_PS@MOE.EDU.SG,Alight at Yishun MRT Station; Take Exit C; Walk towards Yishun Street 21,"Along Yishun Ave 2,take Bus Service 117, 169, 804, 812, 965. Alight at Blk 220. Along Yishun Ring Road,take Bus Service 1N, 800, 804, NR1. Alight at Blk 227 or 236.","MADAM NGOH YING LI, JANE",MISS LATHA D/O SINASAMY,MADAM LEE WEE LING (LI WEILIN),na,na,na,na,YISHUN,NORTH,GOVERNMENT SCHOOL,CO-ED SCHOOL,SINGLE SESSION,PRIMARY,No,No,No,No,CHINESE,MALAY,TAMIL
YANGZHENG PRIMARY SCHOOL,http://www.yangzhengpri.moe.edu.sg/,15 SERANGOON AVENUE 3   ,556108,62846298,na,62879778,na,YZPS@MOE.EDU.SG,Serangoon Station,"58 & 105 (Outside the school, Serangoon Ave 3); 133 & 135(Serangoon Ave 2)",MRS LIM- FOO BOON CHING,MR ERIC LEE WEI TAT,MISS MICHELLE HUANG,MADAM TAN ENG ENG JENNY,na,na,na,SERANGOON,SOUTH,GOVERNMENT SCHOOL,CO-ED SCHOOL,SINGLE SESSION,PRIMARY,No,No,No,No,CHINESE,MALAY,TAMIL
YEW TEE PRIMARY SCHOOL,http://www.yewteepri.moe.edu.sg,10 CHOA CHU KANG ST 64   ,689100,67670027,na,67675450,na,YTPS@MOE.EDU.SG,Yew Tee MRT Station,307,MADAM NUR SABARIAH BTE MOHD IBRAHIM,MR NG SIOK KWANG ANDREW,MADAM TOH GUAT HWA PAULINE,na,na,na,na,CHOA CHU KANG,WEST,GOVERNMENT SCHOOL,CO-ED SCHOOL,SINGLE SESSION,PRIMARY,No,No,No,No,CHINESE,MALAY,TAMIL
YIO CHU KANG PRIMARY SCHOOL,http://www.yiochukangpri.moe.edu.sg,1 HOUGANG STREET 51   ,538720,63851365,na,63855915,na,YCKPS@MOE.EDU.SG,Hougang MRT Station; Yio Chu Kang MRT Station,"88,101,109,159,161 and 325",MS POH HWEE THING,MADAM RAMACHANDRA SUGUNA,MR TAN TECK MING,na,na,na,na,HOUGANG,NORTH,GOVERNMENT SCHOOL,CO-ED SCHOOL,SINGLE SESSION,PRIMARY,No,No,No,No,CHINESE,MALAY,TAMIL
YIO CHU KANG SECONDARY SCHOOL,http://www.yiochukangsec.moe.edu.sg,3063 ANG MO KIO AVENUE 5   ,569868,64560669,na,65522927,na,YCKSS@MOE.EDU.SG,YIO CHU KANG MRT,"13, 45, 86, 138, 162, 269, 851, 852, 853",MADAM BETTY CHANG,MR LIM HOCK CHYE KEVIN,"MR PEK XU HAO, ALVIN",na,na,na,na,ANG MO KIO,SOUTH,GOVERNMENT SCHOOL,CO-ED SCHOOL,SINGLE SESSION,SECONDARY (S1-S5),No,No,No,No,CHINESE,MALAY,TAMIL
YISHUN INNOVA JUNIOR COLLEGE,https://yijc.moe.edu.sg/,3 YISHUN RING ROAD   ,768675,62579873,na,62574373,na,yijc@moe.edu.sg,"Yishun, Khatib","167, 169, 171, 800, 812",MR MICHAEL DE SILVA,MRS LEE HUI XIN,MR LOI GUANG YOU,MISS CHOY WEN JU JULIEANNE,MR LONG TIEN HO,na,na,YISHUN,NORTH,GOVERNMENT SCHOOL,CO-ED SCHOOL,FULL DAY,JUNIOR COLLEGE,No,No,No,No,CHINESE,MALAY,TAMIL
YISHUN PRIMARY SCHOOL,http://www.yishunpri.moe.edu.sg,500 YISHUN RING ROAD   ,768679,62577461,na,67554198,na,YPS@MOE.EDU.SG,Yishun,Translink Feeder Service 800 & 812,MR CHAN WENG YEW MARVIN,MADAM FARLINAH SUPAAH,"MISS WONG PEI LI, PAMELA",MR LEE HAN KEONG,na,na,na,YISHUN,NORTH,GOVERNMENT SCHOOL,CO-ED SCHOOL,SINGLE SESSION,PRIMARY,No,No,No,No,CHINESE,MALAY,TAMIL
YISHUN SECONDARY SCHOOL,http://www.yishunsec.moe.edu.sg,4 YISHUN STREET 71   ,768516,68767129,na,67557748,na,YISHUN_SS@MOE.EDU.SG,"YISHUN MRT, KHATIB MRT","167,  169,  171,  800,  807, 811, 812,  856,  858,  859,  860,  969, 980",MRS REGINA LEE,MRS CHAN WEE MING,MR TAY HIANG SOON,MR JAYAKUMAR S/O NAVARETNAM,na,na,na,YISHUN,NORTH,GOVERNMENT SCHOOL,CO-ED SCHOOL,SINGLE SESSION,SECONDARY (S1-S5),No,No,No,No,CHINESE,MALAY,TAMIL
YISHUN TOWN SECONDARY SCHOOL,http://www.yishuntownsec.moe.edu.sg,6 YISHUN STREET 21   ,768610,67587219,na,67559112,na,YTSS@MOE.EDU.SG,YISHUN MRT,"39, 85, 171, 800, 803, 804, 806, 811, 812, 851, 852, 853, 853C, 854, 854E, 855, 856, 857, 859, 860",MR NG TEO HENG,MADAM CH'NG YUEN PING,MR GOH YINGLUN ALLAN,na,na,na,na,YISHUN,NORTH,GOVERNMENT SCHOOL,CO-ED SCHOOL,SINGLE SESSION,SECONDARY (S1-S5),No,Yes,No,No,CHINESE,MALAY,TAMIL
YU NENG PRIMARY SCHOOL,http://www.ynps.moe.edu.sg/,56 BEDOK NORTH ST 3   ,469623,64490121,na,64498564,na,YNPS@MOE.EDU.SG,"Bedok MRT Station (East-West Line), Bedok Reservoir MRT STation (Downtown line)","14, 17, 18, 28, 66, 67, 69, 225",MR NG YEOW LING,MISS ONG PEI FEN JAMIE,MR EDWIN ONG YOKE YAM,MR SATIISH SATHASILVAM,na,na,na,BEDOK,EAST,GOVERNMENT SCHOOL,CO-ED SCHOOL,SINGLE SESSION,PRIMARY,No,No,No,No,CHINESE,MALAY,TAMIL
YUAN CHING SECONDARY SCHOOL,https://yuanchingsec.moe.edu.sg/,103 YUAN CHING ROAD   ,618654,62612489,na,62616275,na,YCSS@MOE.EDU.SG,LAKESIDE MRT,"49, 98, 98M, 154, 180, 187, 240, 240M, 246",MR SHAWAL BIN HUSSIN,MR TANG HSIN WEI,MISS TANG SHIEN YIN,"MR TEO HUI YAO, JULIUS",na,na,na,JURONG WEST,WEST,GOVERNMENT SCHOOL,CO-ED SCHOOL,SINGLE SESSION,SECONDARY (S1-S5),No,No,No,No,CHINESE,MALAY,TAMIL
YUHUA PRIMARY SCHOOL,http://www.yuhuapri.moe.edu.sg,158 JURONG EAST STREET 24   ,609558,65605062,na,65648278,na,YUHUA_PS@MOE.EDU.SG,"Jurong East, Bukit Batok","98,98A,187,333,502,507,NR5",MRS RUTH TAI MEI FEN,MADAM ZOEY LIM CHING SIA,na,na,na,na,na,JURONG EAST,WEST,GOVERNMENT SCHOOL,CO-ED SCHOOL,SINGLE SESSION,PRIMARY,No,No,No,No,CHINESE,MALAY,TAMIL
YUHUA SECONDARY SCHOOL,http://www.yuhuasec.moe.edu.sg,35 JURONG WEST STREET 41   ,649406,65661985,na,65696689,na,YUHUA_SS@MOE.EDU.SG,LAKESIDE MRT,"49, 98, 99, 157, 180, 185, 187, 198, 334, 335, 502","MR PANG CHIN KEAT, KEVIN",MR TAN CHIN GUAN,MISS CHIA KEL- LI,na,na,na,na,JURONG WEST,WEST,GOVERNMENT SCHOOL,CO-ED SCHOOL,SINGLE SESSION,SECONDARY (S1-S5),No,No,No,No,CHINESE,MALAY,TAMIL
YUMIN PRIMARY SCHOOL,http://www.yuminpri.moe.edu.sg,3 TAMPINES STREET 21   ,529393,67811262,na,67845554,na,YUMIN_PS@MOE.EDU.SG,Tampines MRT Station,3,MRS NG- TEO SOCK HUA,MR ABDUL MUTALIB B MOHAMMED AMIN,MADAM TAN BETTY,na,na,na,na,TAMPINES,EAST,GOVERNMENT SCHOOL,CO-ED SCHOOL,SINGLE SESSION,PRIMARY,No,No,No,No,CHINESE,MALAY,TAMIL
YUSOF ISHAK SECONDARY SCHOOL,http://www.yusofishaksec.moe.edu.sg,8 SUMANG WALK   ,828676,65009800,na,65675502,na,YISS@MOE.EDU.SG,PUNGGOL MRT,"117, 382W, 43",MR CHEN ZIYANG,MISS LOH SEIN LING,MR CHEONG TIEN BENG,"LIN ZHEN JIANG, TEDDY",na,na,na,PUNGGOL,EAST,GOVERNMENT SCHOOL,CO-ED SCHOOL,SINGLE SESSION,SECONDARY (S1-S5),No,No,No,No,CHINESE,MALAY,TAMIL
YUYING SECONDARY SCHOOL,http://www.yuyingsec.moe.edu.sg,47 HOUGANG AVENUE 1   ,538884,62827968,na,62871607,na,YUYING_SS@MOE.EDU.SG,"KOVAN MRT, SERANGOON MRT, HOUGANG MRT","25, 51, 53, 53M, 55, 62, 87, 113, 119, 151, 854",MR CHONG JACK SHENG,MR CHAN IVIN,MR CHEONG KAH KAY GABRIEL,MADAM TAN HUI LING,na,na,na,HOUGANG,SOUTH,GOVERNMENT-AIDED SCH,CO-ED SCHOOL,SINGLE SESSION,SECONDARY (S1-S5),No,No,No,No,CHINESE,MALAY,TAMIL
ZHANGDE PRIMARY SCHOOL,http://www.zhangdepri.moe.edu.sg/,51 Jalan Membina   ,169485,62740357,na,62763042,na,ZHANGDE_PS@MOE.EDU.SG,Tiong Bahru MRT Station,"16,33,63,123,195,605,851,14,65,147,167,196,197,961",MADAM RITA RAJ LAL,MRS LIM PEGGY,MR CHAN CHEONG CHEONG,MADAM WOO LI SAN,na,na,na,BUKIT MERAH,SOUTH,GOVERNMENT SCHOOL,CO-ED SCHOOL,SINGLE SESSION,PRIMARY,No,No,No,No,CHINESE,MALAY,TAMIL
ZHENGHUA PRIMARY SCHOOL,http://www.zhenghuapri.moe.edu.sg,9 Fajar Road   ,679002,67697478,na,67636459,na,ZHENGHUA_PS@MOE.EDU.SG,LRT: Fajar Station,"190, 184, 187, 700, 700A, 921",MADAM WONG HIAN HWEE CONSTANCE,MR YANG PECK CHIONG TOMMY,MISS SANTHANA MARY D/O POOBALAN,MADAM SNG YEE YEE,na,na,na,BUKIT PANJANG,WEST,GOVERNMENT SCHOOL,CO-ED SCHOOL,SINGLE SESSION,PRIMARY,No,No,No,No,CHINESE,MALAY,TAMIL
ZHENGHUA SECONDARY SCHOOL,http://www.zhenghuasec.moe.edu.sg,62 Bukit Panjang Ring Road   ,679962,67639455,na,67633577,na,ZHENGHUA_SS@MOE.EDU.SG,JELAPANG LRT,"920, 922, 976",MR NG HOCK SOON,MADAM TAN PEI LEE ELAINE,MR SAMUEL LIM KOK BOON,MISS HE AIFEN,na,na,na,BUKIT PANJANG,WEST,GOVERNMENT SCHOOL,CO-ED SCHOOL,SINGLE SESSION,SECONDARY (S1-S5),No,No,No,No,CHINESE,MALAY,TAMIL
ZHONGHUA PRIMARY SCHOOL,http://www.zhonghuapri.moe.edu.sg,12 SERANGOON AVENUE 4   ,556095,62835413,na,62823882,na,ZHONGHUA_PS@MOE.EDU.SG,"Ang Mo Kio MRT, Bishan MRT, Serangoon MRT","Boundary Road: 22,24,53,105,156,315,853,501,502; Yio Chu Kang Road: 70,76,103,147,156,501,502",MRS CHAN LE CHIN,MADAM THAM SIEW LENG MRS TAN SIEW LENG,MRS TRINA POOK SIM NAR,na,na,na,na,SERANGOON,SOUTH,GOVERNMENT SCHOOL,CO-ED SCHOOL,SINGLE SESSION,PRIMARY,No,No,No,No,CHINESE,MALAY,TAMIL
ZHONGHUA SECONDARY SCHOOL,https://www.zhonghuasec.moe.edu.sg,13 SERANGOON AVENUE 3   ,556123,62824339,na,62823472,na,ZHONGHUA_SS@MOE.EDU.SG,SERANGOON MRT,"22, 43, 45, 53, 58, 70, 81, 82, 100, 101, 103, 105, 107, 109, 133, 135, 147, 153, 158, 315, 317, 853",MR TAN KIM KOON,MR SHAHUL HAMEED S/O KUTHUBUDEEN,MS TEO CELINE,na,na,na,na,SERANGOON,SOUTH,GOVERNMENT SCHOOL,CO-ED SCHOOL,SINGLE SESSION,SECONDARY (S1-S5),No,Yes,No,No,CHINESE,MALAY,na